{"type":"FeatureCollection","features":[{"type":"Feature","properties":{"id":"node/10902389970","kind":"kerb","acc":"y","src":"osm"},"geometry":{"type":"Point","coordinates":[-46.734034,-23.556513]}},{"type":"Feature","properties":{"id":"node/11156056616","kind":"kerb","acc":"y","src":"osm"},"geometry":{"type":"Point","coordinates":[-46.738676,-23.559223]}},{"type":"Feature","properties":{"id":"node/11156176311","kind":"kerb","acc":"y","src":"osm"},"geometry":{"type":"Point","coordinates":[-46.725302,-23.565475]}},{"type":"Feature","properties":{"id":"node/11156176312","kind":"kerb","acc":"y","src":"osm"},"geometry":{"type":"Point","coordinates":[-46.725107,-23.565779]}},{"type":"Feature","properties":{"id":"node/11157725251","kind":"kerb","acc":"y","src":"osm"},"geometry":{"type":"Point","coordinates":[-46.727895,-23.566892]}},{"type":"Feature","properties":{"id":"node/11157725252","kind":"kerb","acc":"y","src":"osm"},"geometry":{"type":"Point","coordinates":[-46.728435,-23.567199]}},{"type":"Feature","properties":{"id":"node/11168026056","kind":"kerb","acc":"y","src":"osm"},"geometry":{"type":"Point","coordinates":[-46.720595,-23.56039]}},{"type":"Feature","properties":{"id":"node/11168026078","kind":"kerb","acc":"y","src":"osm"},"geometry":{"type":"Point","coordinates":[-46.720915,-23.563906]}},{"type":"Feature","properties":{"id":"node/11168042328","kind":"kerb","acc":"y","src":"osm"},"geometry":{"type":"Point","coordinates":[-46.727999,-23.553235]}},{"type":"Feature","properties":{"id":"node/11188669333","kind":"entrance","acc":"y","bld":"way/158960183","src":"osm"},"geometry":{"type":"Point","coordinates":[-46.73171,-23.555176]}},{"type":"Feature","properties":{"id":"node/11284623638","kind":"entrance","acc":"p","lvl":"1","src":"osm"},"geometry":{"type":"Point","coordinates":[-46.725032,-23.562229]}},{"type":"Feature","properties":{"id":"node/12050384490","kind":"kerb","acc":"y","src":"osm"},"geometry":{"type":"Point","coordinates":[-46.721777,-23.563641]}},{"type":"Feature","properties":{"id":"node/14232488054","kind":"toilet","acc":"y","bld":"way/154079141","lvl":"0","src":"osm"},"geometry":{"type":"Point","coordinates":[-46.731385,-23.559394]}},{"type":"Feature","properties":{"id":"node/1645014821","kind":"kerb","acc":"y","src":"osm"},"geometry":{"type":"Point","coordinates":[-46.73261,-23.559849]}},{"type":"Feature","properties":{"id":"node/1654422625","kind":"kerb","acc":"y","src":"osm"},"geometry":{"type":"Point","coordinates":[-46.727839,-23.559497]}},{"type":"Feature","properties":{"id":"node/1709248618","kind":"entrance","acc":"y","src":"osm"},"geometry":{"type":"Point","coordinates":[-46.734748,-23.556768]}},{"type":"Feature","properties":{"id":"node/2532351002","kind":"entrance","acc":"n","src":"osm"},"geometry":{"type":"Point","coordinates":[-46.736826,-23.559573]}},{"type":"Feature","properties":{"id":"node/2533558545","kind":"entrance","acc":"n","src":"osm"},"geometry":{"type":"Point","coordinates":[-46.737203,-23.561972]}},{"type":"Feature","properties":{"id":"node/3987093982","kind":"kerb","acc":"y","src":"osm"},"geometry":{"type":"Point","coordinates":[-46.723479,-23.562191]}},{"type":"Feature","properties":{"id":"node/3987093983","kind":"kerb","acc":"y","src":"osm"},"geometry":{"type":"Point","coordinates":[-46.723409,-23.562455]}},{"type":"Feature","properties":{"id":"node/4009567089","kind":"kerb","acc":"y","src":"osm"},"geometry":{"type":"Point","coordinates":[-46.722342,-23.563998]}},{"type":"Feature","properties":{"id":"node/4009567090","kind":"kerb","acc":"y","src":"osm"},"geometry":{"type":"Point","coordinates":[-46.722226,-23.564168]}},{"type":"Feature","properties":{"id":"node/4046038276","kind":"kerb","acc":"y","src":"osm"},"geometry":{"type":"Point","coordinates":[-46.737599,-23.558929]}},{"type":"Feature","properties":{"id":"node/4047117891","kind":"kerb","acc":"y","src":"osm"},"geometry":{"type":"Point","coordinates":[-46.732983,-23.559792]}},{"type":"Feature","properties":{"id":"node/4051020034","kind":"kerb","acc":"y","src":"osm"},"geometry":{"type":"Point","coordinates":[-46.732199,-23.557943]}},{"type":"Feature","properties":{"id":"node/4059017302","kind":"kerb","acc":"y","src":"osm"},"geometry":{"type":"Point","coordinates":[-46.732005,-23.557924]}},{"type":"Feature","properties":{"id":"node/4059017303","kind":"kerb","acc":"y","src":"osm"},"geometry":{"type":"Point","coordinates":[-46.731948,-23.55795]}},{"type":"Feature","properties":{"id":"node/4059021857","kind":"kerb","acc":"y","src":"osm"},"geometry":{"type":"Point","coordinates":[-46.732277,-23.558098]}},{"type":"Feature","properties":{"id":"node/4059035227","kind":"kerb","acc":"y","src":"osm"},"geometry":{"type":"Point","coordinates":[-46.720013,-23.560492]}},{"type":"Feature","properties":{"id":"node/406515032","kind":"kerb","acc":"y","src":"osm"},"geometry":{"type":"Point","coordinates":[-46.732448,-23.558101]}},{"type":"Feature","properties":{"id":"node/4120153445","kind":"elevator","acc":"y","src":"osm"},"geometry":{"type":"Point","coordinates":[-46.738356,-23.566895]}},{"type":"Feature","properties":{"id":"node/4194394455","kind":"kerb","acc":"y","src":"osm"},"geometry":{"type":"Point","coordinates":[-46.73747,-23.559519]}},{"type":"Feature","properties":{"id":"node/4194394461","kind":"kerb","acc":"y","src":"osm"},"geometry":{"type":"Point","coordinates":[-46.735851,-23.559652]}},{"type":"Feature","properties":{"id":"node/4194394462","kind":"kerb","acc":"y","src":"osm"},"geometry":{"type":"Point","coordinates":[-46.736164,-23.559621]}},{"type":"Feature","properties":{"id":"node/4194394474","kind":"kerb","acc":"y","src":"osm"},"geometry":{"type":"Point","coordinates":[-46.730428,-23.5606]}},{"type":"Feature","properties":{"id":"node/4309411738","kind":"kerb","acc":"y","src":"osm"},"geometry":{"type":"Point","coordinates":[-46.733774,-23.556076]}},{"type":"Feature","properties":{"id":"node/4315893263","kind":"kerb","acc":"y","src":"osm"},"geometry":{"type":"Point","coordinates":[-46.721995,-23.556077]}},{"type":"Feature","properties":{"id":"node/4315950506","kind":"kerb","acc":"y","src":"osm"},"geometry":{"type":"Point","coordinates":[-46.727728,-23.559247]}},{"type":"Feature","properties":{"id":"node/4664733983","kind":"kerb","acc":"y","src":"osm"},"geometry":{"type":"Point","coordinates":[-46.722805,-23.560043]}},{"type":"Feature","properties":{"id":"node/5502173067","kind":"entrance","acc":"y","bld":"way/152420886","lvl":"1","src":"osm"},"geometry":{"type":"Point","coordinates":[-46.725468,-23.563473]}},{"type":"Feature","properties":{"id":"node/7091024529","kind":"kerb","acc":"y","src":"osm"},"geometry":{"type":"Point","coordinates":[-46.73391,-23.559753]}},{"type":"Feature","properties":{"id":"node/8051923662","kind":"kerb","acc":"y","src":"osm"},"geometry":{"type":"Point","coordinates":[-46.723728,-23.561622]}},{"type":"Feature","properties":{"id":"node/8490795925","kind":"kerb","acc":"y","src":"osm"},"geometry":{"type":"Point","coordinates":[-46.722364,-23.56392]}},{"type":"Feature","properties":{"id":"node/942104665","kind":"entrance","acc":"n","src":"osm"},"geometry":{"type":"Point","coordinates":[-46.73644,-23.560206]}},{"type":"Feature","properties":{"id":"way/1074977642","kind":"toilet","acc":"n","bld":"way/154079142","lvl":"0","src":"osm"},"geometry":{"type":"Point","coordinates":[-46.731921,-23.559546]}},{"type":"Feature","properties":{"id":"way/1074977643","kind":"toilet","acc":"n","bld":"way/154079142","lvl":"0","src":"osm"},"geometry":{"type":"Point","coordinates":[-46.731908,-23.559475]}},{"type":"Feature","properties":{"id":"way/1074977644","kind":"toilet","acc":"y","bld":"way/154079142","lvl":"0","src":"osm"},"geometry":{"type":"Point","coordinates":[-46.731899,-23.559424]}},{"type":"Feature","properties":{"id":"way/1211315361","kind":"steps","acc":"n","src":"osm"},"geometry":{"type":"Point","coordinates":[-46.725117,-23.561742]}},{"type":"Feature","properties":{"id":"way/1211315363","kind":"steps","acc":"n","src":"osm"},"geometry":{"type":"Point","coordinates":[-46.733473,-23.555965]}},{"type":"Feature","properties":{"id":"way/1217883082","kind":"steps","acc":"n","bld":"relation/6022364","lvl":"1;2","src":"osm"},"geometry":{"type":"Point","coordinates":[-46.724972,-23.562238]}},{"type":"Feature","properties":{"id":"way/1221776429","kind":"steps","acc":"n","bld":"way/154079142","lvl":"0;1","src":"osm"},"geometry":{"type":"Point","coordinates":[-46.731872,-23.559377]}},{"type":"Feature","properties":{"id":"way/1221776430","kind":"toilet","acc":"y","bld":"way/154079142","lvl":"0","src":"osm"},"geometry":{"type":"Point","coordinates":[-46.731862,-23.55943]}},{"type":"Feature","properties":{"id":"way/1228727624","kind":"steps","acc":"n","src":"osm"},"geometry":{"type":"Point","coordinates":[-46.72917,-23.561384]}},{"type":"Feature","properties":{"id":"way/1240196478","kind":"steps","acc":"n","src":"osm"},"geometry":{"type":"Point","coordinates":[-46.735987,-23.560337]}},{"type":"Feature","properties":{"id":"way/1247741251","kind":"steps","acc":"n","src":"osm"},"geometry":{"type":"Point","coordinates":[-46.735656,-23.565393]}},{"type":"Feature","properties":{"id":"way/1258713819","kind":"steps","acc":"n","src":"osm"},"geometry":{"type":"Point","coordinates":[-46.726538,-23.564249]}},{"type":"Feature","properties":{"id":"way/1263055359","kind":"steps","acc":"n","src":"osm"},"geometry":{"type":"Point","coordinates":[-46.726198,-23.561434]}},{"type":"Feature","properties":{"id":"way/1264578851","kind":"steps","acc":"n","src":"osm"},"geometry":{"type":"Point","coordinates":[-46.735984,-23.56059]}},{"type":"Feature","properties":{"id":"way/1264578852","kind":"steps","acc":"n","src":"osm"},"geometry":{"type":"Point","coordinates":[-46.736079,-23.5606]}},{"type":"Feature","properties":{"id":"way/1264601633","kind":"steps","acc":"n","src":"osm"},"geometry":{"type":"Point","coordinates":[-46.731043,-23.557019]}},{"type":"Feature","properties":{"id":"way/1271518729","kind":"steps","acc":"n","src":"osm"},"geometry":{"type":"Point","coordinates":[-46.727182,-23.557323]}},{"type":"Feature","properties":{"id":"way/1271557919","kind":"steps","acc":"n","src":"osm"},"geometry":{"type":"Point","coordinates":[-46.730118,-23.556482]}},{"type":"Feature","properties":{"id":"way/1271557920","kind":"steps","acc":"n","src":"osm"},"geometry":{"type":"Point","coordinates":[-46.73054,-23.556743]}},{"type":"Feature","properties":{"id":"way/1271557922","kind":"steps","acc":"n","src":"osm"},"geometry":{"type":"Point","coordinates":[-46.730767,-23.55659]}},{"type":"Feature","properties":{"id":"way/1271557923","kind":"steps","acc":"n","src":"osm"},"geometry":{"type":"Point","coordinates":[-46.730657,-23.556689]}},{"type":"Feature","properties":{"id":"way/1272859595","kind":"steps","acc":"n","src":"osm"},"geometry":{"type":"Point","coordinates":[-46.724398,-23.562097]}},{"type":"Feature","properties":{"id":"way/1272859600","kind":"steps","acc":"n","src":"osm"},"geometry":{"type":"Point","coordinates":[-46.724782,-23.562145]}},{"type":"Feature","properties":{"id":"way/1272859602","kind":"steps","acc":"n","src":"osm"},"geometry":{"type":"Point","coordinates":[-46.724277,-23.562556]}},{"type":"Feature","properties":{"id":"way/1273391005","kind":"steps","acc":"n","src":"osm"},"geometry":{"type":"Point","coordinates":[-46.735345,-23.560911]}},{"type":"Feature","properties":{"id":"way/1273391007","kind":"steps","acc":"n","src":"osm"},"geometry":{"type":"Point","coordinates":[-46.735265,-23.561092]}},{"type":"Feature","properties":{"id":"way/1273391008","kind":"steps","acc":"n","src":"osm"},"geometry":{"type":"Point","coordinates":[-46.735559,-23.561042]}},{"type":"Feature","properties":{"id":"way/1275829526","kind":"steps","acc":"n","src":"osm"},"geometry":{"type":"Point","coordinates":[-46.737695,-23.568882]}},{"type":"Feature","properties":{"id":"way/1275829527","kind":"steps","acc":"n","src":"osm"},"geometry":{"type":"Point","coordinates":[-46.733631,-23.569375]}},{"type":"Feature","properties":{"id":"way/1275829531","kind":"steps","acc":"n","src":"osm"},"geometry":{"type":"Point","coordinates":[-46.730991,-23.567007]}},{"type":"Feature","properties":{"id":"way/1275829540","kind":"steps","acc":"n","src":"osm"},"geometry":{"type":"Point","coordinates":[-46.729034,-23.563949]}},{"type":"Feature","properties":{"id":"way/1280962508","kind":"steps","acc":"n","src":"osm"},"geometry":{"type":"Point","coordinates":[-46.726293,-23.562419]}},{"type":"Feature","properties":{"id":"way/1347575262","kind":"steps","acc":"n","src":"osm"},"geometry":{"type":"Point","coordinates":[-46.731517,-23.565648]}},{"type":"Feature","properties":{"id":"way/154073978","kind":"parking","acc":"y","src":"osm"},"geometry":{"type":"Point","coordinates":[-46.729903,-23.560676]}},{"type":"Feature","properties":{"id":"way/1563917580","kind":"steps","acc":"n","src":"osm"},"geometry":{"type":"Point","coordinates":[-46.731088,-23.559016]}},{"type":"Feature","properties":{"id":"way/1563921200","kind":"steps","acc":"n","src":"osm"},"geometry":{"type":"Point","coordinates":[-46.740445,-23.56815]}},{"type":"Feature","properties":{"id":"way/159420828","kind":"parking","acc":"n","src":"osm"},"geometry":{"type":"Point","coordinates":[-46.728498,-23.557282]}},{"type":"Feature","properties":{"id":"way/182788419","kind":"ramp","acc":"y","src":"osm"},"geometry":{"type":"Point","coordinates":[-46.727454,-23.560736]}},{"type":"Feature","properties":{"id":"way/182788425","kind":"steps","acc":"n","src":"osm"},"geometry":{"type":"Point","coordinates":[-46.729051,-23.560012]}},{"type":"Feature","properties":{"id":"way/274205496","kind":"steps","acc":"n","src":"osm"},"geometry":{"type":"Point","coordinates":[-46.741532,-23.564754]}},{"type":"Feature","properties":{"id":"way/384923257","kind":"parking","acc":"y","src":"osm"},"geometry":{"type":"Point","coordinates":[-46.722454,-23.56364]}},{"type":"Feature","properties":{"id":"way/393461629","kind":"parking","acc":"y","src":"osm"},"geometry":{"type":"Point","coordinates":[-46.724062,-23.562801]}},{"type":"Feature","properties":{"id":"way/393462729","kind":"steps","acc":"n","src":"osm"},"geometry":{"type":"Point","coordinates":[-46.723594,-23.562561]}},{"type":"Feature","properties":{"id":"way/395588899","kind":"steps","acc":"n","src":"osm"},"geometry":{"type":"Point","coordinates":[-46.723747,-23.564677]}},{"type":"Feature","properties":{"id":"way/395695488","kind":"steps","acc":"n","src":"osm"},"geometry":{"type":"Point","coordinates":[-46.731846,-23.567189]}},{"type":"Feature","properties":{"id":"way/396589728","kind":"steps","acc":"n","src":"osm"},"geometry":{"type":"Point","coordinates":[-46.730887,-23.557053]}},{"type":"Feature","properties":{"id":"way/401895951","kind":"steps","acc":"n","src":"osm"},"geometry":{"type":"Point","coordinates":[-46.724759,-23.56418]}},{"type":"Feature","properties":{"id":"way/403556728","kind":"steps","acc":"n","src":"osm"},"geometry":{"type":"Point","coordinates":[-46.738106,-23.566995]}},{"type":"Feature","properties":{"id":"way/410150899","kind":"steps","acc":"n","src":"osm"},"geometry":{"type":"Point","coordinates":[-46.738388,-23.566846]}},{"type":"Feature","properties":{"id":"way/419356105","kind":"parking","acc":"y","src":"osm"},"geometry":{"type":"Point","coordinates":[-46.725569,-23.562936]}},{"type":"Feature","properties":{"id":"way/419977514","kind":"parking","acc":"y","src":"osm"},"geometry":{"type":"Point","coordinates":[-46.730844,-23.559511]}},{"type":"Feature","properties":{"id":"way/422963942","kind":"steps","acc":"n","src":"osm"},"geometry":{"type":"Point","coordinates":[-46.72759,-23.556594]}},{"type":"Feature","properties":{"id":"way/422963943","kind":"steps","acc":"n","src":"osm"},"geometry":{"type":"Point","coordinates":[-46.727001,-23.556947]}},{"type":"Feature","properties":{"id":"way/440412186","kind":"steps","acc":"n","src":"osm"},"geometry":{"type":"Point","coordinates":[-46.730623,-23.564419]}},{"type":"Feature","properties":{"id":"way/440412187","kind":"steps","acc":"n","src":"osm"},"geometry":{"type":"Point","coordinates":[-46.730344,-23.564565]}},{"type":"Feature","properties":{"id":"way/440412524","kind":"steps","acc":"n","src":"osm"},"geometry":{"type":"Point","coordinates":[-46.732615,-23.567821]}},{"type":"Feature","properties":{"id":"way/440412979","kind":"steps","acc":"n","src":"osm"},"geometry":{"type":"Point","coordinates":[-46.73009,-23.566121]}},{"type":"Feature","properties":{"id":"way/460406965","kind":"steps","acc":"n","bld":"way/422970690","src":"osm"},"geometry":{"type":"Point","coordinates":[-46.735321,-23.561053]}},{"type":"Feature","properties":{"id":"way/572740016","kind":"steps","acc":"n","src":"osm"},"geometry":{"type":"Point","coordinates":[-46.724713,-23.563594]}},{"type":"Feature","properties":{"id":"way/572868436","kind":"kerb","acc":"y","src":"osm"},"geometry":{"type":"Point","coordinates":[-46.719798,-23.562745]}},{"type":"Feature","properties":{"id":"way/572868437","kind":"kerb","acc":"y","src":"osm"},"geometry":{"type":"Point","coordinates":[-46.723468,-23.562351]}},{"type":"Feature","properties":{"id":"way/572868438","kind":"kerb","acc":"y","src":"osm"},"geometry":{"type":"Point","coordinates":[-46.727298,-23.560449]}},{"type":"Feature","properties":{"id":"way/572868441","kind":"kerb","acc":"y","src":"osm"},"geometry":{"type":"Point","coordinates":[-46.732256,-23.558063]}},{"type":"Feature","properties":{"id":"way/572873047","kind":"steps","acc":"n","src":"osm"},"geometry":{"type":"Point","coordinates":[-46.73395,-23.558968]}},{"type":"Feature","properties":{"id":"way/574180860","kind":"steps","acc":"n","src":"osm"},"geometry":{"type":"Point","coordinates":[-46.7333,-23.559684]}},{"type":"Feature","properties":{"id":"way/574882522","kind":"steps","acc":"n","src":"osm"},"geometry":{"type":"Point","coordinates":[-46.735019,-23.559253]}},{"type":"Feature","properties":{"id":"way/589518276","kind":"steps","acc":"n","src":"osm"},"geometry":{"type":"Point","coordinates":[-46.718261,-23.567477]}},{"type":"Feature","properties":{"id":"way/589518277","kind":"steps","acc":"n","src":"osm"},"geometry":{"type":"Point","coordinates":[-46.717914,-23.567727]}},{"type":"Feature","properties":{"id":"way/589518278","kind":"steps","acc":"n","src":"osm"},"geometry":{"type":"Point","coordinates":[-46.717796,-23.567878]}},{"type":"Feature","properties":{"id":"way/590635183","kind":"steps","acc":"n","src":"osm"},"geometry":{"type":"Point","coordinates":[-46.719625,-23.566757]}},{"type":"Feature","properties":{"id":"way/590635184","kind":"steps","acc":"n","src":"osm"},"geometry":{"type":"Point","coordinates":[-46.719154,-23.566909]}},{"type":"Feature","properties":{"id":"way/590862596","kind":"steps","acc":"n","src":"osm"},"geometry":{"type":"Point","coordinates":[-46.719433,-23.565721]}},{"type":"Feature","properties":{"id":"way/677508857","kind":"steps","acc":"n","src":"osm"},"geometry":{"type":"Point","coordinates":[-46.727079,-23.56314]}},{"type":"Feature","properties":{"id":"way/682186402","kind":"steps","acc":"n","src":"osm"},"geometry":{"type":"Point","coordinates":[-46.725549,-23.563852]}},{"type":"Feature","properties":{"id":"way/682188134","kind":"steps","acc":"n","src":"osm"},"geometry":{"type":"Point","coordinates":[-46.725673,-23.563736]}},{"type":"Feature","properties":{"id":"way/691547359","kind":"parking","acc":"y","src":"osm"},"geometry":{"type":"Point","coordinates":[-46.725251,-23.558477]}},{"type":"Feature","properties":{"id":"way/692091506","kind":"steps","acc":"n","src":"osm"},"geometry":{"type":"Point","coordinates":[-46.739791,-23.57003]}},{"type":"Feature","properties":{"id":"way/853351811","kind":"steps","acc":"n","src":"osm"},"geometry":{"type":"Point","coordinates":[-46.730118,-23.564885]}},{"type":"Feature","properties":{"id":"way/864746864","kind":"steps","acc":"n","src":"osm"},"geometry":{"type":"Point","coordinates":[-46.723703,-23.560868]}},{"type":"Feature","properties":{"id":"way/880829775","kind":"ramp","acc":"y","lvl":"0;1","src":"osm"},"geometry":{"type":"Point","coordinates":[-46.725569,-23.563644]}},{"type":"Feature","properties":{"id":"way/880829776","kind":"steps","acc":"n","lvl":"0;1","src":"osm"},"geometry":{"type":"Point","coordinates":[-46.725551,-23.563652]}},{"type":"Feature","properties":{"id":"way/914050869","kind":"steps","acc":"n","src":"osm"},"geometry":{"type":"Point","coordinates":[-46.723983,-23.563123]}}]}