{"type":"FeatureCollection","features":[{"type":"Feature","properties":{"id":"8012-10","dir":0,"head":"Cid. Universitária","name":"Metrô Butantã - Cid. Universitária","color":"#e03131","code":2023,"stops":"1211391,1211419,1211421,120015861,120015862,120010328,120010329,120010354,120010355,120010356,120010357,120010359,120010345,120010339,120010340,120010341,120010342,120010336,1211412"},"geometry":{"type":"LineString","coordinates":[[-46.709292,-23.57174],[-46.709393,-23.571612],[-46.707971,-23.56785],[-46.707797,-23.567854],[-46.707649,-23.567812],[-46.707531,-23.567671],[-46.707503,-23.567447],[-46.707646,-23.567253],[-46.70785,-23.567197],[-46.708103,-23.567256],[-46.708177,-23.567245],[-46.710618,-23.566035],[-46.712439,-23.565179],[-46.712651,-23.565066],[-46.712648,-23.564948],[-46.712713,-23.56476],[-46.712787,-23.56465],[-46.712876,-23.5646],[-46.713137,-23.56455],[-46.713271,-23.564565],[-46.71342,-23.564641],[-46.715296,-23.563773],[-46.716306,-23.563246],[-46.718193,-23.562329],[-46.718347,-23.562198],[-46.718386,-23.562019],[-46.718463,-23.561892],[-46.718635,-23.56178],[-46.718899,-23.561773],[-46.71902,-23.561821],[-46.719109,-23.561908],[-46.719687,-23.561437],[-46.719756,-23.561276],[-46.719733,-23.561121],[-46.719811,-23.560863],[-46.720008,-23.560653],[-46.720192,-23.560569],[-46.720444,-23.560549],[-46.720651,-23.560591],[-46.720845,-23.560695],[-46.721078,-23.561055],[-46.721213,-23.561338],[-46.721261,-23.561594],[-46.721229,-23.561743],[-46.72105,-23.561986],[-46.72088,-23.562094],[-46.720576,-23.56214],[-46.720393,-23.562102],[-46.720229,-23.562018],[-46.72014,-23.561933],[-46.720029,-23.561898],[-46.719886,-23.561914],[-46.719338,-23.562064],[-46.71921,-23.562134],[-46.719196,-23.562283],[-46.720804,-23.563168],[-46.720899,-23.563099],[-46.721044,-23.563052],[-46.721203,-23.56305],[-46.721477,-23.563179],[-46.725461,-23.561221],[-46.727156,-23.560299],[-46.729575,-23.559125],[-46.730618,-23.558696],[-46.733915,-23.55709],[-46.733883,-23.556971],[-46.73392,-23.556826],[-46.734035,-23.556742],[-46.734158,-23.556702],[-46.734642,-23.556965],[-46.734739,-23.557104],[-46.734734,-23.557285],[-46.737916,-23.559104],[-46.738131,-23.559199],[-46.738433,-23.559206],[-46.738561,-23.559243],[-46.738622,-23.559281],[-46.738658,-23.559351],[-46.73866,-23.559467],[-46.738706,-23.559525],[-46.7389,-23.559642],[-46.739183,-23.559722],[-46.742393,-23.559759],[-46.742516,-23.559782],[-46.743067,-23.560176],[-46.742981,-23.560235],[-46.743001,-23.560358],[-46.742959,-23.560593],[-46.74226,-23.561562],[-46.741706,-23.562435],[-46.741606,-23.562638],[-46.741546,-23.562877],[-46.741522,-23.563144],[-46.741588,-23.563328],[-46.741682,-23.56344],[-46.741649,-23.563548],[-46.74107,-23.563947],[-46.740007,-23.564497],[-46.739582,-23.564749],[-46.739407,-23.564933],[-46.738552,-23.566392],[-46.738291,-23.5667],[-46.737826,-23.567109],[-46.736457,-23.567926],[-46.734942,-23.568775],[-46.734374,-23.569136],[-46.734236,-23.5692],[-46.733917,-23.56928],[-46.733584,-23.569277],[-46.732732,-23.568906],[-46.732017,-23.568531],[-46.731866,-23.568495],[-46.731623,-23.56847],[-46.731146,-23.56851],[-46.730478,-23.568517],[-46.729977,-23.568443],[-46.729727,-23.568517],[-46.729479,-23.56844],[-46.729358,-23.568327],[-46.729312,-23.56824],[-46.729294,-23.568017],[-46.729376,-23.567832],[-46.729545,-23.567719],[-46.729661,-23.567688],[-46.729822,-23.567695],[-46.729935,-23.567719],[-46.730096,-23.567832],[-46.730155,-23.567923],[-46.73017,-23.568123],[-46.730392,-23.56829],[-46.730665,-23.568335],[-46.731763,-23.568284],[-46.732068,-23.568332],[-46.732306,-23.568428],[-46.733383,-23.569032],[-46.733814,-23.569083],[-46.734046,-23.569051],[-46.734271,-23.568967],[-46.73587,-23.568043],[-46.735971,-23.568204],[-46.735657,-23.568382],[-46.735592,-23.56848],[-46.73557,-23.568656],[-46.735638,-23.568752],[-46.73612,-23.569074],[-46.736462,-23.569043],[-46.736564,-23.569061],[-46.736742,-23.56923],[-46.736931,-23.569331],[-46.737096,-23.56936],[-46.737415,-23.569316],[-46.737573,-23.569241],[-46.738231,-23.568789],[-46.738438,-23.568729],[-46.738944,-23.568706],[-46.739782,-23.568446],[-46.739981,-23.568188],[-46.740131,-23.568113],[-46.74032,-23.567902],[-46.740379,-23.567897],[-46.740359,-23.568009]]}},{"type":"Feature","properties":{"id":"8012-10","dir":1,"head":"Metrô Butantã","name":"Metrô Butantã - Cid. Universitária","color":"#e03131","code":34791,"stops":"1211412,120010342,1207042,1211268,120010350,120010348,120010361,1211424,120010368,120010372,120010373,120010374,120010375,120010369,1211398,1211396,1211395,120010331,1211429,1211364,1211391"},"geometry":{"type":"LineString","coordinates":[[-46.740386,-23.567955],[-46.740329,-23.568041],[-46.74027,-23.568036],[-46.740223,-23.568072],[-46.740215,-23.568123],[-46.740365,-23.568253],[-46.740396,-23.568325],[-46.740382,-23.568683],[-46.740251,-23.568608],[-46.740156,-23.568638],[-46.740059,-23.56863],[-46.739892,-23.568557],[-46.739782,-23.568446],[-46.738944,-23.568706],[-46.738438,-23.568729],[-46.738231,-23.568789],[-46.737573,-23.569241],[-46.737415,-23.569316],[-46.737096,-23.56936],[-46.736931,-23.569331],[-46.736488,-23.569442],[-46.736318,-23.569393],[-46.736256,-23.569331],[-46.736208,-23.56918],[-46.73612,-23.569074],[-46.735725,-23.568825],[-46.735349,-23.568765],[-46.734942,-23.568775],[-46.734374,-23.569136],[-46.734041,-23.569257],[-46.733584,-23.569277],[-46.732732,-23.568906],[-46.732017,-23.568531],[-46.731866,-23.568495],[-46.731623,-23.56847],[-46.731146,-23.56851],[-46.730478,-23.568517],[-46.729977,-23.568443],[-46.729727,-23.568517],[-46.729479,-23.56844],[-46.729358,-23.568327],[-46.729312,-23.56824],[-46.729294,-23.568017],[-46.729376,-23.567832],[-46.729545,-23.567719],[-46.729661,-23.567688],[-46.729935,-23.567719],[-46.730308,-23.567568],[-46.730436,-23.567311],[-46.73042,-23.567061],[-46.730204,-23.565925],[-46.730127,-23.565635],[-46.730057,-23.565508],[-46.729935,-23.565396],[-46.729146,-23.564976],[-46.729045,-23.564875],[-46.728946,-23.564687],[-46.728924,-23.564319],[-46.728992,-23.564037],[-46.729163,-23.563619],[-46.729186,-23.563479],[-46.729107,-23.562692],[-46.729136,-23.562528],[-46.729277,-23.562209],[-46.729879,-23.561583],[-46.73068,-23.560831],[-46.731187,-23.560576],[-46.73139,-23.560425],[-46.731373,-23.560377],[-46.731404,-23.560191],[-46.731603,-23.56007],[-46.73195,-23.560033],[-46.732029,-23.559976],[-46.732366,-23.559921],[-46.732442,-23.55994],[-46.732621,-23.559885],[-46.736405,-23.559508],[-46.737991,-23.559511],[-46.738106,-23.559361],[-46.738066,-23.559288],[-46.737908,-23.559171],[-46.737836,-23.559075],[-46.734719,-23.557307],[-46.734587,-23.557379],[-46.734426,-23.557389],[-46.733944,-23.557124],[-46.733891,-23.557055],[-46.733886,-23.556889],[-46.733965,-23.556787],[-46.734158,-23.556702],[-46.732751,-23.554276],[-46.731446,-23.551937],[-46.731265,-23.551736],[-46.731132,-23.551693],[-46.730967,-23.551696],[-46.729668,-23.552376],[-46.725439,-23.554416],[-46.725393,-23.554566],[-46.725438,-23.554733],[-46.72637,-23.556396],[-46.72778,-23.558813],[-46.7276,-23.558901],[-46.725314,-23.554886],[-46.725164,-23.554722],[-46.724965,-23.554698],[-46.724743,-23.554747],[-46.724543,-23.554857],[-46.723567,-23.555544],[-46.72157,-23.556552],[-46.71919,-23.557681],[-46.71815,-23.557994],[-46.717627,-23.558212],[-46.714432,-23.559775],[-46.713955,-23.56005],[-46.713738,-23.560226],[-46.713456,-23.560555],[-46.713355,-23.560717],[-46.713207,-23.561034],[-46.713124,-23.561354],[-46.712994,-23.563706],[-46.71298,-23.564327],[-46.713023,-23.564486],[-46.713057,-23.564559],[-46.713271,-23.564565],[-46.71342,-23.564641],[-46.713519,-23.564772],[-46.71356,-23.564886],[-46.713549,-23.56507],[-46.713496,-23.565202],[-46.713331,-23.565328],[-46.713097,-23.565388],[-46.712871,-23.565335],[-46.71276,-23.565255],[-46.711796,-23.565726],[-46.71161,-23.570337],[-46.70816,-23.57143],[-46.708331,-23.571941],[-46.708464,-23.571989],[-46.709089,-23.571811],[-46.709292,-23.57174],[-46.709344,-23.571692]]}},{"type":"Feature","properties":{"id":"8022-10","dir":0,"head":"Cid. Universitária","name":"Metrô Butantã - Cid. Universitária","color":"#0c8599","code":2085,"stops":"1211359,1211419,1211421,120015861,120015862,120010378,1211397,1211399,120010370,120010371,1211423,120010360,120010358,120010351,120010352,120010353,120010332,120010333,120010334,120010335,120010336,120010337,120010338,120010339,120010340,120010341,6811370"},"geometry":{"type":"LineString","coordinates":[[-46.708771,-23.571912],[-46.709292,-23.57174],[-46.709393,-23.571612],[-46.707971,-23.56785],[-46.707797,-23.567854],[-46.707649,-23.567812],[-46.707531,-23.567671],[-46.707503,-23.567447],[-46.707574,-23.567324],[-46.707711,-23.567222],[-46.70785,-23.567197],[-46.708103,-23.567256],[-46.708177,-23.567245],[-46.710618,-23.566035],[-46.711304,-23.565731],[-46.712651,-23.565066],[-46.71268,-23.564838],[-46.712787,-23.56465],[-46.712831,-23.563713],[-46.71284,-23.562624],[-46.712749,-23.562114],[-46.71278,-23.561462],[-46.712903,-23.560984],[-46.713094,-23.560564],[-46.713409,-23.560136],[-46.713955,-23.559708],[-46.714279,-23.559514],[-46.716059,-23.558769],[-46.719186,-23.557258],[-46.720099,-23.556997],[-46.722788,-23.5557],[-46.723587,-23.555275],[-46.724183,-23.554841],[-46.724774,-23.554505],[-46.731706,-23.551105],[-46.731826,-23.551312],[-46.73146,-23.551478],[-46.731402,-23.551541],[-46.731379,-23.551742],[-46.731446,-23.551937],[-46.732751,-23.554276],[-46.734068,-23.556556],[-46.734158,-23.556702],[-46.734642,-23.556965],[-46.734702,-23.557026],[-46.734739,-23.557104],[-46.734729,-23.557299],[-46.734587,-23.557379],[-46.734426,-23.557389],[-46.734104,-23.55722],[-46.721571,-23.563357],[-46.721572,-23.563567],[-46.723676,-23.56473],[-46.729182,-23.567693],[-46.729366,-23.567761],[-46.729458,-23.567763],[-46.729661,-23.567688],[-46.729935,-23.567719],[-46.730096,-23.567832],[-46.730155,-23.567923],[-46.73017,-23.568123],[-46.730392,-23.56829],[-46.730665,-23.568335],[-46.731763,-23.568284],[-46.732068,-23.568332],[-46.732306,-23.568428],[-46.733383,-23.569032],[-46.733814,-23.569083],[-46.734046,-23.569051],[-46.734271,-23.568967],[-46.73782,-23.566911],[-46.7381,-23.56669],[-46.738341,-23.566408],[-46.739392,-23.564701],[-46.739838,-23.564423],[-46.741087,-23.563763],[-46.741308,-23.563599],[-46.741453,-23.563418],[-46.741497,-23.563386],[-46.741592,-23.563382],[-46.741654,-23.563399],[-46.741682,-23.56344],[-46.741649,-23.563548],[-46.74107,-23.563947],[-46.740007,-23.564497],[-46.739582,-23.564749],[-46.739407,-23.564933],[-46.738552,-23.566392],[-46.738343,-23.566647],[-46.73801,-23.566953],[-46.737826,-23.567109],[-46.735657,-23.568382],[-46.735592,-23.56848],[-46.73557,-23.568656],[-46.735725,-23.568825],[-46.73612,-23.569074],[-46.736462,-23.569043],[-46.736564,-23.569061],[-46.736742,-23.56923],[-46.736931,-23.569331],[-46.737096,-23.56936],[-46.737259,-23.56935],[-46.737415,-23.569316],[-46.737573,-23.569241],[-46.738231,-23.568789],[-46.738438,-23.568729],[-46.738944,-23.568706],[-46.739782,-23.568446],[-46.739981,-23.568188],[-46.740131,-23.568113],[-46.740231,-23.567995]]}},{"type":"Feature","properties":{"id":"8022-10","dir":1,"head":"Metrô Butantã","name":"Metrô Butantã - Cid. Universitária","color":"#0c8599","code":34853,"stops":"6811370,120010342,120010336,120010337,120010338,120010346,120010347,120010349,1211269,1207041,120010343,1211425,120010344,1207032,120010330,120010331,1211429,1211364,1211359"},"geometry":{"type":"LineString","coordinates":[[-46.740195,-23.568032],[-46.74032,-23.567902],[-46.740379,-23.567897],[-46.740379,-23.567989],[-46.740329,-23.568041],[-46.74027,-23.568036],[-46.740223,-23.568072],[-46.740215,-23.568123],[-46.740365,-23.568253],[-46.740396,-23.568325],[-46.740382,-23.568683],[-46.740251,-23.568608],[-46.740156,-23.568638],[-46.740059,-23.56863],[-46.739892,-23.568557],[-46.739782,-23.568446],[-46.738944,-23.568706],[-46.738438,-23.568729],[-46.738231,-23.568789],[-46.737573,-23.569241],[-46.737415,-23.569316],[-46.737096,-23.56936],[-46.736931,-23.569331],[-46.736488,-23.569442],[-46.736318,-23.569393],[-46.736256,-23.569331],[-46.736208,-23.56918],[-46.73612,-23.569074],[-46.735725,-23.568825],[-46.735349,-23.568765],[-46.734942,-23.568775],[-46.734374,-23.569136],[-46.734041,-23.569257],[-46.733584,-23.569277],[-46.732732,-23.568906],[-46.732017,-23.568531],[-46.731866,-23.568495],[-46.731623,-23.56847],[-46.731146,-23.56851],[-46.730478,-23.568517],[-46.729977,-23.568443],[-46.729727,-23.568517],[-46.729479,-23.56844],[-46.729358,-23.568327],[-46.729312,-23.56824],[-46.729294,-23.568017],[-46.729376,-23.567832],[-46.729545,-23.567719],[-46.729661,-23.567688],[-46.729822,-23.567695],[-46.729935,-23.567719],[-46.730096,-23.567832],[-46.730155,-23.567923],[-46.73017,-23.568123],[-46.730392,-23.56829],[-46.730665,-23.568335],[-46.731763,-23.568284],[-46.732068,-23.568332],[-46.732306,-23.568428],[-46.733383,-23.569032],[-46.733814,-23.569083],[-46.734046,-23.569051],[-46.734399,-23.568895],[-46.737536,-23.567087],[-46.73782,-23.566911],[-46.7381,-23.56669],[-46.738341,-23.566408],[-46.739392,-23.564701],[-46.739838,-23.564423],[-46.741087,-23.563763],[-46.741408,-23.563502],[-46.741522,-23.563144],[-46.741546,-23.562877],[-46.741606,-23.562638],[-46.741706,-23.562435],[-46.74226,-23.561562],[-46.742959,-23.560593],[-46.743001,-23.560358],[-46.742981,-23.560235],[-46.742561,-23.559898],[-46.742383,-23.559844],[-46.739052,-23.559809],[-46.738585,-23.559624],[-46.738459,-23.559667],[-46.738367,-23.559661],[-46.738186,-23.559562],[-46.737991,-23.559511],[-46.736405,-23.559508],[-46.732621,-23.559885],[-46.732442,-23.55994],[-46.732337,-23.560007],[-46.732285,-23.560087],[-46.732244,-23.560392],[-46.732162,-23.560516],[-46.732066,-23.560572],[-46.731676,-23.560618],[-46.73135,-23.560563],[-46.731187,-23.560576],[-46.73068,-23.560831],[-46.729879,-23.561583],[-46.729277,-23.562209],[-46.729136,-23.562528],[-46.729107,-23.562692],[-46.729186,-23.563479],[-46.729163,-23.563619],[-46.728992,-23.564037],[-46.728924,-23.564319],[-46.728946,-23.564687],[-46.729045,-23.564875],[-46.729146,-23.564976],[-46.729935,-23.565396],[-46.730057,-23.565508],[-46.730127,-23.565635],[-46.730204,-23.565925],[-46.73042,-23.567061],[-46.730436,-23.567311],[-46.730359,-23.567503],[-46.730198,-23.56777],[-46.730155,-23.567923],[-46.730173,-23.568062],[-46.730145,-23.568235],[-46.730111,-23.568313],[-46.729924,-23.568475],[-46.729727,-23.568517],[-46.729479,-23.56844],[-46.729358,-23.568327],[-46.729312,-23.56824],[-46.729294,-23.568017],[-46.729138,-23.567883],[-46.724598,-23.565432],[-46.724422,-23.565308],[-46.721451,-23.563761],[-46.721375,-23.56382],[-46.721209,-23.563871],[-46.720961,-23.563869],[-46.720775,-23.563721],[-46.720704,-23.563592],[-46.720686,-23.563346],[-46.719258,-23.562557],[-46.719036,-23.562503],[-46.718946,-23.562547],[-46.718762,-23.562576],[-46.718528,-23.562508],[-46.718434,-23.562523],[-46.717368,-23.563019],[-46.71356,-23.564886],[-46.713549,-23.56507],[-46.713496,-23.565202],[-46.713331,-23.565328],[-46.713097,-23.565388],[-46.712871,-23.565335],[-46.71276,-23.565255],[-46.711796,-23.565726],[-46.71161,-23.570337],[-46.70816,-23.57143],[-46.708331,-23.571941],[-46.708464,-23.571989],[-46.70884,-23.571888]]}},{"type":"Feature","properties":{"id":"8082-10","dir":0,"head":"Metrô Butantã","name":"Cid. Universitária - Metrô Butantã","color":"#d9480f","code":2605,"stops":"1211412,120010342,1207042,1211268,120010350,120010348,120010361,1211424,120010368,120010372,120010373,120010374,120010375,120010369,1211398,1211396,1211395,120010331,1211429,1211364,1211359"},"geometry":{"type":"LineString","coordinates":[[-46.740386,-23.567955],[-46.740329,-23.568041],[-46.74027,-23.568036],[-46.740223,-23.568072],[-46.740215,-23.568123],[-46.740365,-23.568253],[-46.740396,-23.568325],[-46.740382,-23.568683],[-46.740251,-23.568608],[-46.740156,-23.568638],[-46.740059,-23.56863],[-46.739892,-23.568557],[-46.739782,-23.568446],[-46.738944,-23.568706],[-46.738438,-23.568729],[-46.738231,-23.568789],[-46.737573,-23.569241],[-46.737415,-23.569316],[-46.737096,-23.56936],[-46.736931,-23.569331],[-46.736488,-23.569442],[-46.736318,-23.569393],[-46.736256,-23.569331],[-46.736208,-23.56918],[-46.73612,-23.569074],[-46.735725,-23.568825],[-46.735349,-23.568765],[-46.734942,-23.568775],[-46.734374,-23.569136],[-46.734041,-23.569257],[-46.733584,-23.569277],[-46.732732,-23.568906],[-46.732017,-23.568531],[-46.731866,-23.568495],[-46.731623,-23.56847],[-46.731146,-23.56851],[-46.730478,-23.568517],[-46.729977,-23.568443],[-46.729727,-23.568517],[-46.729479,-23.56844],[-46.729358,-23.568327],[-46.729312,-23.56824],[-46.729294,-23.568017],[-46.729376,-23.567832],[-46.729545,-23.567719],[-46.729661,-23.567688],[-46.729935,-23.567719],[-46.730308,-23.567568],[-46.730436,-23.567311],[-46.73042,-23.567061],[-46.730204,-23.565925],[-46.730127,-23.565635],[-46.730057,-23.565508],[-46.729935,-23.565396],[-46.729146,-23.564976],[-46.729045,-23.564875],[-46.728946,-23.564687],[-46.728924,-23.564319],[-46.728992,-23.564037],[-46.729163,-23.563619],[-46.729186,-23.563479],[-46.729107,-23.562692],[-46.729136,-23.562528],[-46.729277,-23.562209],[-46.729879,-23.561583],[-46.73068,-23.560831],[-46.731187,-23.560576],[-46.73139,-23.560425],[-46.731373,-23.560377],[-46.731404,-23.560191],[-46.731603,-23.56007],[-46.73195,-23.560033],[-46.732029,-23.559976],[-46.732366,-23.559921],[-46.732442,-23.55994],[-46.732621,-23.559885],[-46.736405,-23.559508],[-46.737991,-23.559511],[-46.738106,-23.559361],[-46.738066,-23.559288],[-46.737908,-23.559171],[-46.737836,-23.559075],[-46.734719,-23.557307],[-46.734587,-23.557379],[-46.734426,-23.557389],[-46.733944,-23.557124],[-46.733891,-23.557055],[-46.733886,-23.556889],[-46.733965,-23.556787],[-46.734158,-23.556702],[-46.732751,-23.554276],[-46.731446,-23.551937],[-46.731265,-23.551736],[-46.731132,-23.551693],[-46.730967,-23.551696],[-46.729668,-23.552376],[-46.725439,-23.554416],[-46.725393,-23.554566],[-46.725438,-23.554733],[-46.72637,-23.556396],[-46.72778,-23.558813],[-46.7276,-23.558901],[-46.725314,-23.554886],[-46.725164,-23.554722],[-46.724965,-23.554698],[-46.724743,-23.554747],[-46.724543,-23.554857],[-46.723567,-23.555544],[-46.72157,-23.556552],[-46.71919,-23.557681],[-46.71815,-23.557994],[-46.717627,-23.558212],[-46.714432,-23.559775],[-46.713955,-23.56005],[-46.713738,-23.560226],[-46.713456,-23.560555],[-46.713355,-23.560717],[-46.713207,-23.561034],[-46.713124,-23.561354],[-46.712994,-23.563706],[-46.71298,-23.564327],[-46.713023,-23.564486],[-46.713057,-23.564559],[-46.713271,-23.564565],[-46.71342,-23.564641],[-46.713519,-23.564772],[-46.71356,-23.564886],[-46.713549,-23.56507],[-46.713496,-23.565202],[-46.713331,-23.565328],[-46.713097,-23.565388],[-46.712871,-23.565335],[-46.71276,-23.565255],[-46.711796,-23.565726],[-46.71161,-23.570337],[-46.70816,-23.57143],[-46.708331,-23.571941],[-46.708464,-23.571989],[-46.70884,-23.571888]]}},{"type":"Feature","properties":{"id":"8082-10","dir":1,"head":"Cid. Universitária","name":"Cid. Universitária - Metrô Butantã","color":"#d9480f","code":35373,"stops":"1211359,1211419,1211421,120015861,120015862,120010378,1211397,1211399,120010370,120010371,1211423,120010360,120010359,120010349,1211269,1207041,120010336,1211412"},"geometry":{"type":"LineString","coordinates":[[-46.708771,-23.571912],[-46.709292,-23.57174],[-46.709393,-23.571612],[-46.707971,-23.56785],[-46.707797,-23.567854],[-46.707649,-23.567812],[-46.707531,-23.567671],[-46.707503,-23.567447],[-46.707574,-23.567324],[-46.707711,-23.567222],[-46.70785,-23.567197],[-46.708103,-23.567256],[-46.708177,-23.567245],[-46.710618,-23.566035],[-46.711304,-23.565731],[-46.712651,-23.565066],[-46.71268,-23.564838],[-46.712787,-23.56465],[-46.712831,-23.563713],[-46.71284,-23.562624],[-46.712749,-23.562114],[-46.71278,-23.561462],[-46.712903,-23.560984],[-46.713094,-23.560564],[-46.713409,-23.560136],[-46.713955,-23.559708],[-46.714279,-23.559514],[-46.716059,-23.558769],[-46.719186,-23.557258],[-46.720099,-23.556997],[-46.722788,-23.5557],[-46.723587,-23.555275],[-46.724183,-23.554841],[-46.724774,-23.554505],[-46.731706,-23.551105],[-46.731826,-23.551312],[-46.73146,-23.551478],[-46.731402,-23.551541],[-46.731379,-23.551742],[-46.731446,-23.551937],[-46.732751,-23.554276],[-46.734158,-23.556702],[-46.734642,-23.556965],[-46.734739,-23.557104],[-46.734734,-23.557285],[-46.737916,-23.559104],[-46.738131,-23.559199],[-46.738433,-23.559206],[-46.738561,-23.559243],[-46.738622,-23.559281],[-46.738658,-23.559351],[-46.73866,-23.559494],[-46.738585,-23.559624],[-46.738459,-23.559667],[-46.738367,-23.559661],[-46.738186,-23.559562],[-46.737991,-23.559511],[-46.736405,-23.559508],[-46.732621,-23.559885],[-46.732442,-23.55994],[-46.732337,-23.560007],[-46.732285,-23.560087],[-46.732244,-23.560392],[-46.732125,-23.560543],[-46.731993,-23.560595],[-46.731676,-23.560618],[-46.731268,-23.560565],[-46.730924,-23.560693],[-46.73068,-23.560831],[-46.730442,-23.561033],[-46.729879,-23.561583],[-46.729277,-23.562209],[-46.729136,-23.562528],[-46.729107,-23.562692],[-46.729186,-23.563479],[-46.729163,-23.563619],[-46.728959,-23.564149],[-46.728924,-23.564319],[-46.728931,-23.564527],[-46.728946,-23.564687],[-46.728994,-23.564797],[-46.729146,-23.564976],[-46.729935,-23.565396],[-46.730057,-23.565508],[-46.730127,-23.565635],[-46.730204,-23.565925],[-46.730438,-23.567218],[-46.730395,-23.567424],[-46.730198,-23.56777],[-46.730155,-23.567923],[-46.73017,-23.568123],[-46.730339,-23.568264],[-46.730539,-23.568332],[-46.731763,-23.568284],[-46.732068,-23.568332],[-46.732306,-23.568428],[-46.733383,-23.569032],[-46.733814,-23.569083],[-46.734046,-23.569051],[-46.734271,-23.568967],[-46.73587,-23.568043],[-46.735971,-23.568204],[-46.735657,-23.568382],[-46.735592,-23.56848],[-46.73557,-23.568656],[-46.735638,-23.568752],[-46.73612,-23.569074],[-46.736462,-23.569043],[-46.736564,-23.569061],[-46.736742,-23.56923],[-46.736931,-23.569331],[-46.737096,-23.56936],[-46.737415,-23.569316],[-46.737573,-23.569241],[-46.738231,-23.568789],[-46.738438,-23.568729],[-46.738944,-23.568706],[-46.739782,-23.568446],[-46.739981,-23.568188],[-46.740131,-23.568113],[-46.74032,-23.567902],[-46.740379,-23.567897],[-46.740359,-23.568009]]}},{"type":"Feature","properties":{"id":"8083-10","dir":0,"head":"Metrô Butantã","name":"Cid. Universitária - Metrô Butantã","color":"#1971c2","code":2606,"stops":"6811370,120010337,120010338,120010339,120010340,120010341,120010342,120010343,1211425,120010344,1207032,120010330,120010331,1211429,1211364,1211373"},"geometry":{"type":"LineString","coordinates":[[-46.740195,-23.568032],[-46.74032,-23.567902],[-46.740379,-23.567897],[-46.740379,-23.567989],[-46.740329,-23.568041],[-46.74027,-23.568036],[-46.740223,-23.568072],[-46.740215,-23.568123],[-46.740365,-23.568253],[-46.740396,-23.568325],[-46.740382,-23.568683],[-46.740251,-23.568608],[-46.740156,-23.568638],[-46.740059,-23.56863],[-46.739892,-23.568557],[-46.739782,-23.568446],[-46.738944,-23.568706],[-46.738438,-23.568729],[-46.738231,-23.568789],[-46.737573,-23.569241],[-46.737415,-23.569316],[-46.737096,-23.56936],[-46.736931,-23.569331],[-46.736488,-23.569442],[-46.736318,-23.569393],[-46.736256,-23.569331],[-46.736208,-23.56918],[-46.73612,-23.569074],[-46.735725,-23.568825],[-46.735349,-23.568765],[-46.734942,-23.568775],[-46.734236,-23.5692],[-46.733917,-23.56928],[-46.733743,-23.569285],[-46.733584,-23.569277],[-46.732578,-23.568831],[-46.732717,-23.568664],[-46.733383,-23.569032],[-46.733814,-23.569083],[-46.73412,-23.569026],[-46.734399,-23.568895],[-46.737536,-23.567087],[-46.73782,-23.566911],[-46.7381,-23.56669],[-46.738341,-23.566408],[-46.739392,-23.564701],[-46.739838,-23.564423],[-46.741087,-23.563763],[-46.741308,-23.563599],[-46.741453,-23.563418],[-46.741497,-23.563386],[-46.741592,-23.563382],[-46.741654,-23.563399],[-46.741682,-23.56344],[-46.741649,-23.563548],[-46.74107,-23.563947],[-46.740007,-23.564497],[-46.739582,-23.564749],[-46.739407,-23.564933],[-46.738552,-23.566392],[-46.738291,-23.5667],[-46.737826,-23.567109],[-46.736457,-23.567926],[-46.734942,-23.568775],[-46.734374,-23.569136],[-46.734041,-23.569257],[-46.733743,-23.569285],[-46.733584,-23.569277],[-46.733374,-23.569195],[-46.732578,-23.568831],[-46.732017,-23.568531],[-46.731866,-23.568495],[-46.731623,-23.56847],[-46.731146,-23.56851],[-46.730478,-23.568517],[-46.729977,-23.568443],[-46.729727,-23.568517],[-46.729479,-23.56844],[-46.729358,-23.568327],[-46.729312,-23.56824],[-46.729294,-23.568017],[-46.729138,-23.567883],[-46.724598,-23.565432],[-46.724422,-23.565308],[-46.721451,-23.563761],[-46.721375,-23.56382],[-46.721209,-23.563871],[-46.720961,-23.563869],[-46.720775,-23.563721],[-46.720704,-23.563592],[-46.720686,-23.563346],[-46.719258,-23.562557],[-46.719036,-23.562503],[-46.718946,-23.562547],[-46.718762,-23.562576],[-46.718528,-23.562508],[-46.718434,-23.562523],[-46.717368,-23.563019],[-46.71356,-23.564886],[-46.713549,-23.56507],[-46.713496,-23.565202],[-46.713331,-23.565328],[-46.713097,-23.565388],[-46.712871,-23.565335],[-46.71276,-23.565255],[-46.711796,-23.565726],[-46.71161,-23.570337],[-46.70816,-23.57143],[-46.708331,-23.571941]]}},{"type":"Feature","properties":{"id":"8083-10","dir":1,"head":"Cid. Universitária","name":"Cid. Universitária - Metrô Butantã","color":"#1971c2","code":35374,"stops":"1211373,1211419,1211421,120015861,120015862,120010328,120010329,120010332,120010333,120010334,120010335,120010336,120010337,120010338,120010346,120010347,120010345,120010339,120010340,120010341,6811370"},"geometry":{"type":"LineString","coordinates":[[-46.708296,-23.571833],[-46.708331,-23.571941],[-46.708464,-23.571989],[-46.708635,-23.571955],[-46.709292,-23.57174],[-46.709393,-23.571612],[-46.707971,-23.56785],[-46.707797,-23.567854],[-46.707649,-23.567812],[-46.707531,-23.567671],[-46.707503,-23.567447],[-46.707646,-23.567253],[-46.70785,-23.567197],[-46.708103,-23.567256],[-46.708177,-23.567245],[-46.710618,-23.566035],[-46.712439,-23.565179],[-46.712651,-23.565066],[-46.712648,-23.564948],[-46.712713,-23.56476],[-46.712787,-23.56465],[-46.712876,-23.5646],[-46.713137,-23.56455],[-46.713271,-23.564565],[-46.71342,-23.564641],[-46.715296,-23.563773],[-46.716306,-23.563246],[-46.718193,-23.562329],[-46.718347,-23.562198],[-46.718386,-23.562019],[-46.718463,-23.561892],[-46.718635,-23.56178],[-46.718899,-23.561773],[-46.71902,-23.561821],[-46.719109,-23.561908],[-46.719687,-23.561437],[-46.719756,-23.561276],[-46.719733,-23.561121],[-46.71976,-23.560986],[-46.719856,-23.560794],[-46.720008,-23.560653],[-46.720289,-23.560546],[-46.720651,-23.560591],[-46.720845,-23.560695],[-46.720925,-23.560797],[-46.721078,-23.561055],[-46.72125,-23.561453],[-46.721239,-23.561706],[-46.721144,-23.561882],[-46.72105,-23.561986],[-46.72088,-23.562094],[-46.720576,-23.56214],[-46.720393,-23.562102],[-46.720229,-23.562018],[-46.72014,-23.561933],[-46.720029,-23.561898],[-46.719886,-23.561914],[-46.719338,-23.562064],[-46.71921,-23.562134],[-46.719196,-23.562283],[-46.720804,-23.563168],[-46.720899,-23.563099],[-46.721044,-23.563052],[-46.721203,-23.56305],[-46.721333,-23.563095],[-46.721477,-23.563179],[-46.721543,-23.563301],[-46.721585,-23.563459],[-46.721572,-23.563567],[-46.723676,-23.56473],[-46.729182,-23.567693],[-46.729366,-23.567761],[-46.729458,-23.567763],[-46.729661,-23.567688],[-46.729935,-23.567719],[-46.730096,-23.567832],[-46.730155,-23.567923],[-46.73017,-23.568123],[-46.730392,-23.56829],[-46.730665,-23.568335],[-46.731763,-23.568284],[-46.732068,-23.568332],[-46.732306,-23.568428],[-46.733383,-23.569032],[-46.733814,-23.569083],[-46.734046,-23.569051],[-46.734271,-23.568967],[-46.737536,-23.567087],[-46.73782,-23.566911],[-46.7381,-23.56669],[-46.738341,-23.566408],[-46.739392,-23.564701],[-46.739838,-23.564423],[-46.741087,-23.563763],[-46.741408,-23.563502],[-46.741522,-23.563144],[-46.741546,-23.562877],[-46.741606,-23.562638],[-46.741706,-23.562435],[-46.74226,-23.561562],[-46.742959,-23.560593],[-46.743001,-23.560358],[-46.742981,-23.560235],[-46.742488,-23.559863],[-46.739052,-23.559809],[-46.738585,-23.559624],[-46.738459,-23.559667],[-46.738367,-23.559661],[-46.738266,-23.55961],[-46.738186,-23.559562],[-46.738109,-23.559439],[-46.738106,-23.559361],[-46.738149,-23.559281],[-46.738255,-23.559203],[-46.738433,-23.559206],[-46.738561,-23.559243],[-46.738622,-23.559281],[-46.738658,-23.559351],[-46.73866,-23.559494],[-46.73866,-23.559467],[-46.738747,-23.559556],[-46.7389,-23.559642],[-46.739183,-23.559722],[-46.742393,-23.559759],[-46.742516,-23.559782],[-46.743067,-23.560176],[-46.743154,-23.560202],[-46.743183,-23.560228],[-46.74319,-23.560321],[-46.743036,-23.56054],[-46.742959,-23.560593],[-46.74226,-23.561562],[-46.741706,-23.562435],[-46.741606,-23.562638],[-46.741546,-23.562877],[-46.741522,-23.563144],[-46.741588,-23.563328],[-46.741682,-23.56344],[-46.741649,-23.563548],[-46.74107,-23.563947],[-46.740007,-23.564497],[-46.739582,-23.564749],[-46.739407,-23.564933],[-46.73863,-23.566278],[-46.738291,-23.5667],[-46.737826,-23.567109],[-46.735657,-23.568382],[-46.735592,-23.56848],[-46.73557,-23.568656],[-46.735725,-23.568825],[-46.73612,-23.569074],[-46.736462,-23.569043],[-46.736564,-23.569061],[-46.736742,-23.56923],[-46.736931,-23.569331],[-46.737096,-23.56936],[-46.737259,-23.56935],[-46.737415,-23.569316],[-46.737573,-23.569241],[-46.738231,-23.568789],[-46.738438,-23.568729],[-46.738944,-23.568706],[-46.739782,-23.568446],[-46.739981,-23.568188],[-46.740131,-23.568113],[-46.740231,-23.567995]]}},{"type":"Feature","properties":{"id":"8084-10","dir":0,"head":"Cid. Universitária","name":"Metrô Butantã - Cid. Universitária","color":"#2f9e44","code":2607,"stops":"1211391,1211419,1211421,120015861,120015862,120010328,120010329,120010354,120010355,120010356,120010357,120010358,120010351,120010352,120010353,1207032,120010330,120010331,1211429,1211364,1211391"},"geometry":{"type":"LineString","coordinates":[[-46.709292,-23.57174],[-46.709393,-23.571612],[-46.707971,-23.56785],[-46.707797,-23.567854],[-46.707649,-23.567812],[-46.707531,-23.567671],[-46.707503,-23.567447],[-46.707646,-23.567253],[-46.70785,-23.567197],[-46.708103,-23.567256],[-46.708177,-23.567245],[-46.710618,-23.566035],[-46.712439,-23.565179],[-46.712651,-23.565066],[-46.712648,-23.564948],[-46.712713,-23.56476],[-46.712787,-23.56465],[-46.712876,-23.5646],[-46.713137,-23.56455],[-46.713271,-23.564565],[-46.71342,-23.564641],[-46.715296,-23.563773],[-46.716306,-23.563246],[-46.718193,-23.562329],[-46.718347,-23.562198],[-46.718386,-23.562019],[-46.718463,-23.561892],[-46.718635,-23.56178],[-46.718899,-23.561773],[-46.71902,-23.561821],[-46.719109,-23.561908],[-46.719687,-23.561437],[-46.719756,-23.561276],[-46.719733,-23.561121],[-46.719811,-23.560863],[-46.720008,-23.560653],[-46.720192,-23.560569],[-46.720444,-23.560549],[-46.720651,-23.560591],[-46.720845,-23.560695],[-46.721078,-23.561055],[-46.721213,-23.561338],[-46.721261,-23.561594],[-46.721229,-23.561743],[-46.72105,-23.561986],[-46.72088,-23.562094],[-46.720576,-23.56214],[-46.720393,-23.562102],[-46.720229,-23.562018],[-46.72014,-23.561933],[-46.720029,-23.561898],[-46.719886,-23.561914],[-46.719338,-23.562064],[-46.71921,-23.562134],[-46.719196,-23.562283],[-46.720804,-23.563168],[-46.720899,-23.563099],[-46.721044,-23.563052],[-46.721203,-23.56305],[-46.721477,-23.563179],[-46.725461,-23.561221],[-46.727156,-23.560299],[-46.729575,-23.559125],[-46.730618,-23.558696],[-46.733915,-23.55709],[-46.733886,-23.556889],[-46.73392,-23.556826],[-46.734035,-23.556742],[-46.734158,-23.556702],[-46.734642,-23.556965],[-46.734702,-23.557026],[-46.734739,-23.557104],[-46.734734,-23.557285],[-46.734587,-23.557379],[-46.734426,-23.557389],[-46.734104,-23.55722],[-46.721571,-23.563357],[-46.721572,-23.563567],[-46.721451,-23.563761],[-46.721375,-23.56382],[-46.721209,-23.563871],[-46.720961,-23.563869],[-46.720775,-23.563721],[-46.720704,-23.563592],[-46.720686,-23.563346],[-46.719258,-23.562557],[-46.719036,-23.562503],[-46.718946,-23.562547],[-46.718762,-23.562576],[-46.718528,-23.562508],[-46.718434,-23.562523],[-46.717368,-23.563019],[-46.71356,-23.564886],[-46.713549,-23.56507],[-46.713496,-23.565202],[-46.713331,-23.565328],[-46.713097,-23.565388],[-46.712871,-23.565335],[-46.71276,-23.565255],[-46.711796,-23.565726],[-46.71161,-23.570337],[-46.70816,-23.57143],[-46.708331,-23.571941],[-46.708464,-23.571989],[-46.709089,-23.571811],[-46.709292,-23.57174],[-46.709344,-23.571692]]}},{"type":"Feature","properties":{"id":"8085-10","dir":0,"head":"Circular Usp","name":"P3 - Circular Usp","color":"#9c36b5","code":2608,"stops":"1211412,120010342,120010336,120010337,120010338,120010346,120010347,120010358,120010351,120010352,120010353,120010354,1211398,1211397,1211399,1211422,120010355,120010356,120010357,120010359,120010345,120010339,120010340,120010341,1211412"},"geometry":{"type":"LineString","coordinates":[[-46.740386,-23.567955],[-46.740329,-23.568041],[-46.74027,-23.568036],[-46.740223,-23.568072],[-46.740215,-23.568123],[-46.740365,-23.568253],[-46.740396,-23.568325],[-46.740382,-23.568683],[-46.740251,-23.568608],[-46.740156,-23.568638],[-46.740059,-23.56863],[-46.739892,-23.568557],[-46.739782,-23.568446],[-46.738944,-23.568706],[-46.738438,-23.568729],[-46.738231,-23.568789],[-46.737573,-23.569241],[-46.737415,-23.569316],[-46.737096,-23.56936],[-46.736931,-23.569331],[-46.736488,-23.569442],[-46.736318,-23.569393],[-46.736256,-23.569331],[-46.736208,-23.56918],[-46.73612,-23.569074],[-46.735725,-23.568825],[-46.735349,-23.568765],[-46.734942,-23.568775],[-46.734374,-23.569136],[-46.734041,-23.569257],[-46.733584,-23.569277],[-46.732732,-23.568906],[-46.732017,-23.568531],[-46.731866,-23.568495],[-46.731623,-23.56847],[-46.731146,-23.56851],[-46.730478,-23.568517],[-46.729977,-23.568443],[-46.729727,-23.568517],[-46.729479,-23.56844],[-46.729358,-23.568327],[-46.729312,-23.56824],[-46.729294,-23.568017],[-46.729376,-23.567832],[-46.729545,-23.567719],[-46.729661,-23.567688],[-46.729822,-23.567695],[-46.729935,-23.567719],[-46.730096,-23.567832],[-46.730155,-23.567923],[-46.73017,-23.568123],[-46.730271,-23.568215],[-46.730392,-23.56829],[-46.730539,-23.568332],[-46.731763,-23.568284],[-46.732068,-23.568332],[-46.732306,-23.568428],[-46.733383,-23.569032],[-46.733509,-23.569062],[-46.733814,-23.569083],[-46.734046,-23.569051],[-46.734399,-23.568895],[-46.73782,-23.566911],[-46.7381,-23.56669],[-46.738341,-23.566408],[-46.739392,-23.564701],[-46.739838,-23.564423],[-46.741087,-23.563763],[-46.741308,-23.563599],[-46.741453,-23.563418],[-46.741606,-23.562638],[-46.741706,-23.562435],[-46.74226,-23.561562],[-46.742959,-23.560593],[-46.743001,-23.560358],[-46.742981,-23.560235],[-46.742488,-23.559863],[-46.739146,-23.559815],[-46.739052,-23.559809],[-46.738585,-23.559624],[-46.738459,-23.559667],[-46.738367,-23.559661],[-46.738186,-23.559562],[-46.738109,-23.559439],[-46.738092,-23.559316],[-46.737908,-23.559171],[-46.737836,-23.559075],[-46.734719,-23.557307],[-46.734587,-23.557379],[-46.734426,-23.557389],[-46.734104,-23.55722],[-46.721571,-23.563357],[-46.721572,-23.563567],[-46.721451,-23.563761],[-46.721375,-23.56382],[-46.721209,-23.563871],[-46.720961,-23.563869],[-46.720775,-23.563721],[-46.720704,-23.563592],[-46.720678,-23.563468],[-46.720686,-23.563346],[-46.720804,-23.563168],[-46.720899,-23.563099],[-46.721044,-23.563052],[-46.721203,-23.56305],[-46.721477,-23.563179],[-46.72227,-23.562799],[-46.72371,-23.562091],[-46.723776,-23.561931],[-46.723787,-23.561728],[-46.722448,-23.559427],[-46.722395,-23.559148],[-46.722321,-23.558964],[-46.722074,-23.558595],[-46.721855,-23.558375],[-46.720964,-23.556828],[-46.71919,-23.557681],[-46.71815,-23.557994],[-46.717627,-23.558212],[-46.714432,-23.559775],[-46.713955,-23.56005],[-46.713597,-23.560375],[-46.713355,-23.560717],[-46.713207,-23.561034],[-46.713124,-23.561354],[-46.713104,-23.561704],[-46.712938,-23.561775],[-46.712829,-23.561741],[-46.712769,-23.561678],[-46.71278,-23.561462],[-46.712903,-23.560984],[-46.713094,-23.560564],[-46.713409,-23.560136],[-46.713955,-23.559708],[-46.714279,-23.559514],[-46.716059,-23.558769],[-46.719186,-23.557258],[-46.720099,-23.556997],[-46.721393,-23.556379],[-46.72148,-23.55648],[-46.721502,-23.556579],[-46.720964,-23.556828],[-46.721855,-23.558375],[-46.722074,-23.558595],[-46.722321,-23.558964],[-46.722395,-23.559148],[-46.722448,-23.559427],[-46.723787,-23.561728],[-46.723997,-23.561844],[-46.724175,-23.56186],[-46.725461,-23.561221],[-46.727156,-23.560299],[-46.729575,-23.559125],[-46.730618,-23.558696],[-46.733915,-23.55709],[-46.733883,-23.556971],[-46.73392,-23.556826],[-46.734035,-23.556742],[-46.734158,-23.556702],[-46.734642,-23.556965],[-46.734739,-23.557104],[-46.734734,-23.557285],[-46.737916,-23.559104],[-46.738131,-23.559199],[-46.738433,-23.559206],[-46.738561,-23.559243],[-46.738622,-23.559281],[-46.738658,-23.559351],[-46.73866,-23.559494],[-46.73866,-23.559467],[-46.738747,-23.559556],[-46.7389,-23.559642],[-46.739183,-23.559722],[-46.742393,-23.559759],[-46.742572,-23.559803],[-46.743067,-23.560176],[-46.743183,-23.560228],[-46.74319,-23.560321],[-46.743149,-23.560385],[-46.743036,-23.56054],[-46.742959,-23.560593],[-46.74226,-23.561562],[-46.741706,-23.562435],[-46.741606,-23.562638],[-46.741546,-23.562877],[-46.741522,-23.563144],[-46.741588,-23.563328],[-46.741682,-23.56344],[-46.741649,-23.563548],[-46.74107,-23.563947],[-46.740007,-23.564497],[-46.739582,-23.564749],[-46.739407,-23.564933],[-46.73863,-23.566278],[-46.738291,-23.5667],[-46.737826,-23.567109],[-46.735657,-23.568382],[-46.735592,-23.56848],[-46.73557,-23.568656],[-46.735725,-23.568825],[-46.73612,-23.569074],[-46.736462,-23.569043],[-46.736564,-23.569061],[-46.736742,-23.56923],[-46.736931,-23.569331],[-46.737096,-23.56936],[-46.737259,-23.56935],[-46.737415,-23.569316],[-46.737573,-23.569241],[-46.738231,-23.568789],[-46.738438,-23.568729],[-46.738944,-23.568706],[-46.739782,-23.568446],[-46.739981,-23.568188],[-46.740131,-23.568113],[-46.74032,-23.567902],[-46.740379,-23.567897],[-46.740359,-23.568009]]}}]}