{"type":"FeatureCollection","features":[{"type":"Feature","properties":{"id":"node/10719653152","cat":"bike_rental","acc":"u","src":"osm"},"geometry":{"type":"Point","coordinates":[-46.731875,-23.556212]}},{"type":"Feature","properties":{"id":"node/10721652083","name":"Pedrão","cat":"food","acc":"u","bld":"relation/2062864","src":"osm"},"geometry":{"type":"Point","coordinates":[-46.72879,-23.553116]}},{"type":"Feature","properties":{"id":"node/10721652084","name":"O Triedro","cat":"food","acc":"u","bld":"way/147219057","oh":"Mo-Fr 07:00-19:00","src":"osm"},"geometry":{"type":"Point","coordinates":[-46.732997,-23.556196]}},{"type":"Feature","properties":{"id":"node/10726161808","name":"AGJ","cat":"food","acc":"u","src":"osm"},"geometry":{"type":"Point","coordinates":[-46.735258,-23.560651]}},{"type":"Feature","properties":{"id":"node/10766533097","name":"Copiadora Politécnica","cat":"shop","acc":"u","bld":"way/147219057","src":"osm"},"geometry":{"type":"Point","coordinates":[-46.733031,-23.556245]}},{"type":"Feature","properties":{"id":"node/10808938743","name":"Big dog usp","cat":"food","acc":"u","oh":"Mo-Fr 10:30-19:00","src":"osm"},"geometry":{"type":"Point","coordinates":[-46.720443,-23.562174]}},{"type":"Feature","properties":{"id":"node/10808944509","name":"Dôki Dôki","cat":"food","acc":"u","src":"osm"},"geometry":{"type":"Point","coordinates":[-46.7207,-23.562166]}},{"type":"Feature","properties":{"id":"node/10946630022","cat":"bike_parking","acc":"u","src":"osm"},"geometry":{"type":"Point","coordinates":[-46.71286,-23.560424]}},{"type":"Feature","properties":{"id":"node/11012625188","cat":"bike_parking","acc":"u","bld":"relation/2062859","src":"osm"},"geometry":{"type":"Point","coordinates":[-46.730956,-23.55316]}},{"type":"Feature","properties":{"id":"node/11040015280","cat":"bike_parking","acc":"u","bld":"way/158960185","src":"osm"},"geometry":{"type":"Point","coordinates":[-46.731011,-23.552611]}},{"type":"Feature","properties":{"id":"node/11042684292","cat":"food","acc":"u","bld":"way/245697771","src":"osm"},"geometry":{"type":"Point","coordinates":[-46.725491,-23.567022]}},{"type":"Feature","properties":{"id":"node/11073784378","cat":"bike_parking","acc":"u","src":"osm"},"geometry":{"type":"Point","coordinates":[-46.717478,-23.561461]}},{"type":"Feature","properties":{"id":"node/11135386423","name":"P3","cat":"bike_rental","acc":"u","src":"osm"},"geometry":{"type":"Point","coordinates":[-46.740715,-23.568235]}},{"type":"Feature","properties":{"id":"node/11135386425","name":"Vila Indiana","cat":"bike_rental","acc":"u","src":"osm"},"geometry":{"type":"Point","coordinates":[-46.731827,-23.568541]}},{"type":"Feature","properties":{"id":"node/11135386426","name":"Odontologia","cat":"bike_rental","acc":"u","src":"osm"},"geometry":{"type":"Point","coordinates":[-46.737739,-23.567098]}},{"type":"Feature","properties":{"id":"node/11135386427","name":"Hospital Universitário","cat":"bike_rental","acc":"u","src":"osm"},"geometry":{"type":"Point","coordinates":[-46.74152,-23.563675]}},{"type":"Feature","properties":{"id":"node/11135386428","name":"Bandejão Prefeitura","cat":"bike_rental","acc":"u","src":"osm"},"geometry":{"type":"Point","coordinates":[-46.73982,-23.559735]}},{"type":"Feature","properties":{"id":"node/11135386429","name":"Bandejão Física","cat":"bike_rental","acc":"u","src":"osm"},"geometry":{"type":"Point","coordinates":[-46.735784,-23.560573]}},{"type":"Feature","properties":{"id":"node/11135386430","name":"Terminal de Ônibus USP","cat":"bike_rental","acc":"u","src":"osm"},"geometry":{"type":"Point","coordinates":[-46.732224,-23.552831]}},{"type":"Feature","properties":{"id":"node/11135386431","name":"Pedalusp Biênio","cat":"bike_rental","acc":"u","src":"osm"},"geometry":{"type":"Point","coordinates":[-46.732205,-23.556095]}},{"type":"Feature","properties":{"id":"node/11135386432","name":"Psicologia","cat":"bike_rental","acc":"u","src":"osm"},"geometry":{"type":"Point","coordinates":[-46.724149,-23.5552]}},{"type":"Feature","properties":{"id":"node/11135386433","name":"FAU","cat":"bike_rental","acc":"u","src":"osm"},"geometry":{"type":"Point","coordinates":[-46.730119,-23.559303]}},{"type":"Feature","properties":{"id":"node/11135386434","name":"Bandejão Química","cat":"bike_rental","acc":"u","src":"osm"},"geometry":{"type":"Point","coordinates":[-46.724342,-23.565099]}},{"type":"Feature","properties":{"id":"node/11135386436","name":"Bandejão Central","cat":"bike_rental","acc":"u","src":"osm"},"geometry":{"type":"Point","coordinates":[-46.72269,-23.559817]}},{"type":"Feature","properties":{"id":"node/11135386437","name":"Biblioteca Brasiliana","cat":"bike_rental","acc":"u","src":"osm"},"geometry":{"type":"Point","coordinates":[-46.722826,-23.562515]}},{"type":"Feature","properties":{"id":"node/11135386438","name":"CEPE","cat":"bike_rental","acc":"u","src":"osm"},"geometry":{"type":"Point","coordinates":[-46.717572,-23.562021]}},{"type":"Feature","properties":{"id":"node/11135386439","name":"Portão CPTM","cat":"bike_rental","acc":"u","src":"osm"},"geometry":{"type":"Point","coordinates":[-46.712968,-23.560427]}},{"type":"Feature","properties":{"id":"node/11135386440","name":"P1","cat":"bike_rental","acc":"u","src":"osm"},"geometry":{"type":"Point","coordinates":[-46.712991,-23.565428]}},{"type":"Feature","properties":{"id":"node/11135386442","name":"Bancos/Reitoria","cat":"bike_rental","acc":"u","src":"osm"},"geometry":{"type":"Point","coordinates":[-46.727106,-23.559927]}},{"type":"Feature","properties":{"id":"node/11135386443","name":"Letras","cat":"bike_rental","acc":"u","src":"osm"},"geometry":{"type":"Point","coordinates":[-46.726172,-23.562632]}},{"type":"Feature","properties":{"id":"node/11156056611","cat":"bike_parking","acc":"u","src":"osm"},"geometry":{"type":"Point","coordinates":[-46.731546,-23.555358]}},{"type":"Feature","properties":{"id":"node/11156056612","cat":"bike_parking","acc":"u","bld":"way/158960183","src":"osm"},"geometry":{"type":"Point","coordinates":[-46.731745,-23.554571]}},{"type":"Feature","properties":{"id":"node/11156056622","cat":"bike_parking","acc":"u","src":"osm"},"geometry":{"type":"Point","coordinates":[-46.737012,-23.562252]}},{"type":"Feature","properties":{"id":"node/11156164699","cat":"bike_parking","acc":"u","bld":"relation/2062864","src":"osm"},"geometry":{"type":"Point","coordinates":[-46.72955,-23.553889]}},{"type":"Feature","properties":{"id":"node/11156164702","cat":"bike_parking","acc":"u","bld":"way/147219057","src":"osm"},"geometry":{"type":"Point","coordinates":[-46.732459,-23.556463]}},{"type":"Feature","properties":{"id":"node/11156164703","cat":"bike_parking","acc":"u","src":"osm"},"geometry":{"type":"Point","coordinates":[-46.721363,-23.559773]}},{"type":"Feature","properties":{"id":"node/11156164704","cat":"bike_parking","acc":"u","src":"osm"},"geometry":{"type":"Point","coordinates":[-46.716007,-23.562803]}},{"type":"Feature","properties":{"id":"node/11156176308","cat":"bike_parking","acc":"u","src":"osm"},"geometry":{"type":"Point","coordinates":[-46.724895,-23.56224]}},{"type":"Feature","properties":{"id":"node/11157629047","cat":"bike_parking","acc":"u","bld":"way/151653716","src":"osm"},"geometry":{"type":"Point","coordinates":[-46.720248,-23.557505]}},{"type":"Feature","properties":{"id":"node/11157629048","cat":"bike_parking","acc":"u","src":"osm"},"geometry":{"type":"Point","coordinates":[-46.725575,-23.558706]}},{"type":"Feature","properties":{"id":"node/11157629056","cat":"bike_parking","acc":"u","src":"osm"},"geometry":{"type":"Point","coordinates":[-46.728074,-23.557445]}},{"type":"Feature","properties":{"id":"node/11159372240","cat":"bike_parking","acc":"u","bld":"way/298015458","src":"osm"},"geometry":{"type":"Point","coordinates":[-46.721894,-23.562498]}},{"type":"Feature","properties":{"id":"node/11167417741","cat":"bike_parking","acc":"u","src":"osm"},"geometry":{"type":"Point","coordinates":[-46.725619,-23.557966]}},{"type":"Feature","properties":{"id":"node/11223037181","name":"Biblioteca Virginie Buff D'Ápice","cat":"library","acc":"u","bld":"relation/6017163","oh":"Mo-Fr 07:30-18:30","src":"osm"},"geometry":{"type":"Point","coordinates":[-46.740225,-23.569837]}},{"type":"Feature","properties":{"id":"node/11284623645","cat":"sport","acc":"u","bld":"relation/6022364","src":"osm"},"geometry":{"type":"Point","coordinates":[-46.725053,-23.562373]}},{"type":"Feature","properties":{"id":"node/11284623648","cat":"sport","acc":"u","bld":"relation/6022364","src":"osm"},"geometry":{"type":"Point","coordinates":[-46.725027,-23.562338]}},{"type":"Feature","properties":{"id":"node/11305184919","cat":"bike_parking","acc":"u","src":"osm"},"geometry":{"type":"Point","coordinates":[-46.727098,-23.559771]}},{"type":"Feature","properties":{"id":"node/11386142290","cat":"bike_parking","acc":"u","src":"osm"},"geometry":{"type":"Point","coordinates":[-46.721556,-23.559565]}},{"type":"Feature","properties":{"id":"node/11398839691","cat":"bike_parking","acc":"u","src":"osm"},"geometry":{"type":"Point","coordinates":[-46.73596,-23.558735]}},{"type":"Feature","properties":{"id":"node/11398839692","cat":"bike_parking","acc":"u","src":"osm"},"geometry":{"type":"Point","coordinates":[-46.736052,-23.558539]}},{"type":"Feature","properties":{"id":"node/11417699980","cat":"bike_parking","acc":"u","src":"osm"},"geometry":{"type":"Point","coordinates":[-46.732119,-23.558616]}},{"type":"Feature","properties":{"id":"node/11522106496","name":"Da fisica","cat":"shop","acc":"u","bld":"way/152921635","src":"osm"},"geometry":{"type":"Point","coordinates":[-46.73545,-23.560675]}},{"type":"Feature","properties":{"id":"node/11677440684","name":"Instituto Geográfico E Cartográfico - IGC","cat":"other","acc":"p","oh":"Mo-Fr 08:00-17:00","src":"osm"},"geometry":{"type":"Point","coordinates":[-46.725474,-23.567158]}},{"type":"Feature","properties":{"id":"node/11677440686","name":"Fundação SEADE","cat":"other","acc":"y","bld":"way/245697761","oh":"Mo-Fr 09:00-18:00","src":"osm"},"geometry":{"type":"Point","coordinates":[-46.726,-23.567207]}},{"type":"Feature","properties":{"id":"node/11805525378","cat":"culture","acc":"u","src":"osm"},"geometry":{"type":"Point","coordinates":[-46.73425,-23.557053]}},{"type":"Feature","properties":{"id":"node/11807591039","cat":"bike_parking","acc":"u","src":"osm"},"geometry":{"type":"Point","coordinates":[-46.731773,-23.559278]}},{"type":"Feature","properties":{"id":"node/11812379851","cat":"bike_parking","acc":"u","bld":"way/151653719","src":"osm"},"geometry":{"type":"Point","coordinates":[-46.720429,-23.557795]}},{"type":"Feature","properties":{"id":"node/11812446998","name":"Tia Bia","cat":"food","acc":"u","src":"osm"},"geometry":{"type":"Point","coordinates":[-46.725201,-23.562316]}},{"type":"Feature","properties":{"id":"node/11812469403","cat":"bike_parking","acc":"u","src":"osm"},"geometry":{"type":"Point","coordinates":[-46.721165,-23.557668]}},{"type":"Feature","properties":{"id":"node/11812469404","cat":"bike_parking","acc":"u","bld":"way/151653716","src":"osm"},"geometry":{"type":"Point","coordinates":[-46.719663,-23.557835]}},{"type":"Feature","properties":{"id":"node/11819794628","cat":"bike_parking","acc":"u","bld":"way/151653722","src":"osm"},"geometry":{"type":"Point","coordinates":[-46.721104,-23.559057]}},{"type":"Feature","properties":{"id":"node/11828429823","cat":"bike_parking","acc":"u","bld":"way/44972294","src":"osm"},"geometry":{"type":"Point","coordinates":[-46.723674,-23.563043]}},{"type":"Feature","properties":{"id":"node/11829247316","cat":"bike_parking","acc":"u","bld":"way/1223074289","src":"osm"},"geometry":{"type":"Point","coordinates":[-46.732749,-23.556832]}},{"type":"Feature","properties":{"id":"node/11884934501","cat":"bike_parking","acc":"u","src":"osm"},"geometry":{"type":"Point","coordinates":[-46.73375,-23.555782]}},{"type":"Feature","properties":{"id":"node/11888792944","cat":"bike_parking","acc":"u","src":"osm"},"geometry":{"type":"Point","coordinates":[-46.714873,-23.563441]}},{"type":"Feature","properties":{"id":"node/12063037120","cat":"bike_parking","acc":"u","src":"osm"},"geometry":{"type":"Point","coordinates":[-46.725963,-23.557601]}},{"type":"Feature","properties":{"id":"node/12063046729","cat":"culture","acc":"u","src":"osm"},"geometry":{"type":"Point","coordinates":[-46.722542,-23.560156]}},{"type":"Feature","properties":{"id":"node/12063092811","cat":"culture","acc":"u","src":"osm"},"geometry":{"type":"Point","coordinates":[-46.722511,-23.560027]}},{"type":"Feature","properties":{"id":"node/12063093348","cat":"bike_parking","acc":"u","src":"osm"},"geometry":{"type":"Point","coordinates":[-46.727428,-23.557704]}},{"type":"Feature","properties":{"id":"node/12063102466","cat":"culture","acc":"u","src":"osm"},"geometry":{"type":"Point","coordinates":[-46.722417,-23.560085]}},{"type":"Feature","properties":{"id":"node/12063107643","cat":"bike_parking","acc":"u","src":"osm"},"geometry":{"type":"Point","coordinates":[-46.726758,-23.557976]}},{"type":"Feature","properties":{"id":"node/12100669183","cat":"bike_parking","acc":"u","src":"osm"},"geometry":{"type":"Point","coordinates":[-46.726385,-23.557665]}},{"type":"Feature","properties":{"id":"node/12135877605","name":"Paneria - toda hora, todo dia","cat":"food","acc":"u","bld":"way/245697795","src":"osm"},"geometry":{"type":"Point","coordinates":[-46.718551,-23.567686]}},{"type":"Feature","properties":{"id":"node/12174917792","name":"Instituto de Tecnologia e Liderança","cat":"other","acc":"u","bld":"way/401811830","src":"osm"},"geometry":{"type":"Point","coordinates":[-46.733915,-23.555814]}},{"type":"Feature","properties":{"id":"node/12197768759","cat":"bike_parking","acc":"u","src":"osm"},"geometry":{"type":"Point","coordinates":[-46.714582,-23.564707]}},{"type":"Feature","properties":{"id":"node/12197770276","cat":"culture","acc":"u","src":"osm"},"geometry":{"type":"Point","coordinates":[-46.718513,-23.562291]}},{"type":"Feature","properties":{"id":"node/12402750978","cat":"bike_parking","acc":"u","src":"osm"},"geometry":{"type":"Point","coordinates":[-46.731989,-23.562143]}},{"type":"Feature","properties":{"id":"node/12402750988","cat":"bike_parking","acc":"u","src":"osm"},"geometry":{"type":"Point","coordinates":[-46.73257,-23.560923]}},{"type":"Feature","properties":{"id":"node/12423326081","cat":"toilets","acc":"u","bld":"way/1342742413","src":"osm"},"geometry":{"type":"Point","coordinates":[-46.723279,-23.564295]}},{"type":"Feature","properties":{"id":"node/12423326082","cat":"water","acc":"u","bld":"way/1342742413","src":"osm"},"geometry":{"type":"Point","coordinates":[-46.723276,-23.564304]}},{"type":"Feature","properties":{"id":"node/12423326087","cat":"toilets","acc":"u","bld":"way/1342742414","src":"osm"},"geometry":{"type":"Point","coordinates":[-46.722561,-23.557235]}},{"type":"Feature","properties":{"id":"node/12423326088","cat":"water","acc":"u","bld":"way/1342742414","src":"osm"},"geometry":{"type":"Point","coordinates":[-46.722534,-23.55725]}},{"type":"Feature","properties":{"id":"node/12645259442","cat":"water","acc":"u","src":"osm"},"geometry":{"type":"Point","coordinates":[-46.718567,-23.566795]}},{"type":"Feature","properties":{"id":"node/12879400321","cat":"park","acc":"u","src":"osm"},"geometry":{"type":"Point","coordinates":[-46.741546,-23.564429]}},{"type":"Feature","properties":{"id":"node/12881384513","cat":"bike_parking","acc":"u","src":"osm"},"geometry":{"type":"Point","coordinates":[-46.73262,-23.558063]}},{"type":"Feature","properties":{"id":"node/12922681832","name":"Núcleo de Estudos de Violência","cat":"other","acc":"u","bld":"way/401811830","src":"osm"},"geometry":{"type":"Point","coordinates":[-46.733969,-23.555922]}},{"type":"Feature","properties":{"id":"node/12952963412","cat":"bike_parking","acc":"u","src":"osm"},"geometry":{"type":"Point","coordinates":[-46.722938,-23.560466]}},{"type":"Feature","properties":{"id":"node/12952963467","name":"CINUSP Paulo Emílio","cat":"culture","acc":"u","bld":"way/158966871","oh":"Mo-Fr 09:00-21:00","src":"osm"},"geometry":{"type":"Point","coordinates":[-46.720826,-23.557869]}},{"type":"Feature","properties":{"id":"node/12992858405","cat":"bike_parking","acc":"u","src":"osm"},"geometry":{"type":"Point","coordinates":[-46.72149,-23.559855]}},{"type":"Feature","properties":{"id":"node/12992889767","cat":"bike_parking","acc":"u","src":"osm"},"geometry":{"type":"Point","coordinates":[-46.721471,-23.55982]}},{"type":"Feature","properties":{"id":"node/12999636530","cat":"bike_parking","acc":"u","bld":"way/298015458","src":"osm"},"geometry":{"type":"Point","coordinates":[-46.722039,-23.562513]}},{"type":"Feature","properties":{"id":"node/13141353101","cat":"culture","acc":"u","src":"osm"},"geometry":{"type":"Point","coordinates":[-46.718045,-23.566316]}},{"type":"Feature","properties":{"id":"node/13141366201","cat":"toilets","acc":"u","src":"osm"},"geometry":{"type":"Point","coordinates":[-46.717606,-23.567035]}},{"type":"Feature","properties":{"id":"node/13141376801","name":"Ciência na Prática (Antiga Estufa)","cat":"culture","acc":"u","src":"osm"},"geometry":{"type":"Point","coordinates":[-46.717166,-23.567419]}},{"type":"Feature","properties":{"id":"node/13141376901","cat":"water","acc":"u","src":"osm"},"geometry":{"type":"Point","coordinates":[-46.71726,-23.567287]}},{"type":"Feature","properties":{"id":"node/13310299105","name":"Escultura do Curupira","cat":"culture","acc":"u","src":"osm"},"geometry":{"type":"Point","coordinates":[-46.717297,-23.567254]}},{"type":"Feature","properties":{"id":"node/13465119124","cat":"bike_parking","acc":"u","src":"osm"},"geometry":{"type":"Point","coordinates":[-46.719018,-23.566649]}},{"type":"Feature","properties":{"id":"node/13465119125","cat":"water","acc":"u","src":"osm"},"geometry":{"type":"Point","coordinates":[-46.720881,-23.56425]}},{"type":"Feature","properties":{"id":"node/13465119126","name":"Museu da Vacina","cat":"culture","acc":"u","bld":"way/245697726","src":"osm"},"geometry":{"type":"Point","coordinates":[-46.720852,-23.564364]}},{"type":"Feature","properties":{"id":"node/13465119127","cat":"shop","acc":"u","bld":"way/1318486979","src":"osm"},"geometry":{"type":"Point","coordinates":[-46.718961,-23.565955]}},{"type":"Feature","properties":{"id":"node/13465119128","cat":"shop","acc":"u","bld":"way/1318486979","src":"osm"},"geometry":{"type":"Point","coordinates":[-46.718915,-23.565967]}},{"type":"Feature","properties":{"id":"node/13526846921","cat":"bike_parking","acc":"u","src":"osm"},"geometry":{"type":"Point","coordinates":[-46.730608,-23.568898]}},{"type":"Feature","properties":{"id":"node/13913415691","cat":"bike_parking","acc":"u","src":"osm"},"geometry":{"type":"Point","coordinates":[-46.729912,-23.566003]}},{"type":"Feature","properties":{"id":"node/13913415692","cat":"bike_parking","acc":"u","src":"osm"},"geometry":{"type":"Point","coordinates":[-46.730026,-23.564989]}},{"type":"Feature","properties":{"id":"node/14214565094","name":"Swedenzinho","cat":"food","acc":"u","bld":"relation/6289079","src":"osm"},"geometry":{"type":"Point","coordinates":[-46.728894,-23.558794]}},{"type":"Feature","properties":{"id":"node/14232488054","cat":"toilets","acc":"y","bld":"way/154079141","src":"osm"},"geometry":{"type":"Point","coordinates":[-46.731385,-23.559394]}},{"type":"Feature","properties":{"id":"node/14232522804","cat":"water","acc":"y","bld":"way/154079141","src":"osm"},"geometry":{"type":"Point","coordinates":[-46.731373,-23.559293]}},{"type":"Feature","properties":{"id":"node/14232522805","cat":"water","acc":"u","bld":"way/154079142","src":"osm"},"geometry":{"type":"Point","coordinates":[-46.731822,-23.559663]}},{"type":"Feature","properties":{"id":"node/14232522806","cat":"water","acc":"u","bld":"way/154079142","src":"osm"},"geometry":{"type":"Point","coordinates":[-46.732245,-23.559168]}},{"type":"Feature","properties":{"id":"node/14232522807","cat":"water","acc":"u","bld":"way/154079142","src":"osm"},"geometry":{"type":"Point","coordinates":[-46.731977,-23.55956]}},{"type":"Feature","properties":{"id":"node/1661557020","cat":"shop","acc":"u","bld":"way/153483177","src":"osm"},"geometry":{"type":"Point","coordinates":[-46.731567,-23.553137]}},{"type":"Feature","properties":{"id":"node/1712575183","name":"Centro Acadêmico Mecânica","cat":"shop","acc":"u","bld":"relation/2062864","src":"osm"},"geometry":{"type":"Point","coordinates":[-46.729119,-23.55293]}},{"type":"Feature","properties":{"id":"node/2528451898","name":"Venda de produtos / Ouvidoria","cat":"shop","acc":"u","src":"osm"},"geometry":{"type":"Point","coordinates":[-46.71877,-23.565242]}},{"type":"Feature","properties":{"id":"node/3019231196","name":"Monumento a Armando de Sales Oliveira","cat":"culture","acc":"u","src":"osm"},"geometry":{"type":"Point","coordinates":[-46.71307,-23.564959]}},{"type":"Feature","properties":{"id":"node/3289733685","name":"Lanchonete da Física","cat":"food","acc":"u","bld":"way/152921635","src":"osm"},"geometry":{"type":"Point","coordinates":[-46.735366,-23.560694]}},{"type":"Feature","properties":{"id":"node/3395459313","name":"Cantina da FAU","cat":"food","acc":"u","bld":"way/158966879","src":"osm"},"geometry":{"type":"Point","coordinates":[-46.729993,-23.559903]}},{"type":"Feature","properties":{"id":"node/3662888561","name":"Lanchonete do Biênio","cat":"food","acc":"u","bld":"way/147219057","src":"osm"},"geometry":{"type":"Point","coordinates":[-46.732939,-23.556577]}},{"type":"Feature","properties":{"id":"node/3746133981","cat":"toilets","acc":"u","bld":"way/298015384","src":"osm"},"geometry":{"type":"Point","coordinates":[-46.71705,-23.561104]}},{"type":"Feature","properties":{"id":"node/3746133982","cat":"toilets","acc":"u","bld":"way/298015384","src":"osm"},"geometry":{"type":"Point","coordinates":[-46.716933,-23.561234]}},{"type":"Feature","properties":{"id":"node/3746133983","cat":"toilets","acc":"u","bld":"way/298015384","src":"osm"},"geometry":{"type":"Point","coordinates":[-46.716625,-23.561285]}},{"type":"Feature","properties":{"id":"node/3746133984","cat":"toilets","acc":"u","bld":"way/298015384","src":"osm"},"geometry":{"type":"Point","coordinates":[-46.716538,-23.561254]}},{"type":"Feature","properties":{"id":"node/3746133985","cat":"food","acc":"u","bld":"way/298015384","src":"osm"},"geometry":{"type":"Point","coordinates":[-46.716717,-23.561116]}},{"type":"Feature","properties":{"id":"node/394684228","name":"Museu de Geociências","cat":"culture","acc":"u","bld":"way/1447059783","src":"osm"},"geometry":{"type":"Point","coordinates":[-46.727444,-23.562009]}},{"type":"Feature","properties":{"id":"node/394684229","name":"Museu de Oceanografia","cat":"culture","acc":"u","bld":"relation/6052298","src":"osm"},"geometry":{"type":"Point","coordinates":[-46.731469,-23.561081]}},{"type":"Feature","properties":{"id":"node/3966327216","name":"Praça dos Bancos","cat":"other","acc":"u","oh":"Mo-Fr 07:00-23:00; Sa 07:00-17:00","src":"osm"},"geometry":{"type":"Point","coordinates":[-46.727508,-23.559054]}},{"type":"Feature","properties":{"id":"node/3966352795","cat":"other","acc":"u","oh":"Mo-Fr 07:00-23:00; Sa 07:00-17:00","src":"osm"},"geometry":{"type":"Point","coordinates":[-46.720953,-23.561301]}},{"type":"Feature","properties":{"id":"node/3978335372","name":"400 m","cat":"info","acc":"u","src":"osm"},"geometry":{"type":"Point","coordinates":[-46.737469,-23.560512]}},{"type":"Feature","properties":{"id":"node/3978335373","name":"500 m","cat":"info","acc":"u","src":"osm"},"geometry":{"type":"Point","coordinates":[-46.737683,-23.559793]}},{"type":"Feature","properties":{"id":"node/3978335374","name":"800 m","cat":"info","acc":"u","src":"osm"},"geometry":{"type":"Point","coordinates":[-46.736839,-23.561802]}},{"type":"Feature","properties":{"id":"node/3978732625","name":"Museu de Rua","cat":"culture","acc":"u","oh":"Mo-Su 07:00-18:00","src":"osm"},"geometry":{"type":"Point","coordinates":[-46.719589,-23.56579]}},{"type":"Feature","properties":{"id":"node/3978822114","cat":"toilets","acc":"u","src":"osm"},"geometry":{"type":"Point","coordinates":[-46.736715,-23.560155]}},{"type":"Feature","properties":{"id":"node/3994065857","name":"Sem título 2008","cat":"culture","acc":"u","src":"osm"},"geometry":{"type":"Point","coordinates":[-46.729374,-23.558959]}},{"type":"Feature","properties":{"id":"node/4029947013","name":"Banco Santander","cat":"bank","acc":"u","bld":"way/400433552","src":"osm"},"geometry":{"type":"Point","coordinates":[-46.74128,-23.564898]}},{"type":"Feature","properties":{"id":"node/4029947014","cat":"culture","acc":"u","src":"osm"},"geometry":{"type":"Point","coordinates":[-46.741166,-23.564309]}},{"type":"Feature","properties":{"id":"node/4030003814","cat":"culture","acc":"u","src":"osm"},"geometry":{"type":"Point","coordinates":[-46.740354,-23.564629]}},{"type":"Feature","properties":{"id":"node/4037275898","name":"Restaurante e Lanchonete Theodora USP","cat":"food","acc":"u","bld":"way/401293200","src":"osm"},"geometry":{"type":"Point","coordinates":[-46.716272,-23.561987]}},{"type":"Feature","properties":{"id":"node/4041217309","name":"Monumento à amizade entre Brasil e Japão","cat":"culture","acc":"u","src":"osm"},"geometry":{"type":"Point","coordinates":[-46.720798,-23.562872]}},{"type":"Feature","properties":{"id":"node/4041240842","cat":"library","acc":"u","bld":"relation/6026444","src":"osm"},"geometry":{"type":"Point","coordinates":[-46.713392,-23.563616]}},{"type":"Feature","properties":{"id":"node/4049734427","cat":"culture","acc":"u","src":"osm"},"geometry":{"type":"Point","coordinates":[-46.726851,-23.557979]}},{"type":"Feature","properties":{"id":"node/4049734428","cat":"culture","acc":"u","src":"osm"},"geometry":{"type":"Point","coordinates":[-46.727014,-23.558314]}},{"type":"Feature","properties":{"id":"node/4058998775","name":"Ultramarinho","cat":"culture","acc":"u","src":"osm"},"geometry":{"type":"Point","coordinates":[-46.722353,-23.560231]}},{"type":"Feature","properties":{"id":"node/407228888","name":"Museu de Anatomia","cat":"culture","acc":"u","bld":"relation/6081093","src":"osm"},"geometry":{"type":"Point","coordinates":[-46.739595,-23.565681]}},{"type":"Feature","properties":{"id":"node/407242760","name":"Museu de Arqueologia e Etnologia","cat":"culture","acc":"u","src":"osm"},"geometry":{"type":"Point","coordinates":[-46.741929,-23.559434]}},{"type":"Feature","properties":{"id":"node/4087455006","cat":"culture","acc":"u","src":"osm"},"geometry":{"type":"Point","coordinates":[-46.725913,-23.558692]}},{"type":"Feature","properties":{"id":"node/4222174510","name":"Incubadora Tecnológica de Cooperativas Populares","cat":"other","acc":"u","bld":"way/171958893","src":"osm"},"geometry":{"type":"Point","coordinates":[-46.728602,-23.555166]}},{"type":"Feature","properties":{"id":"node/4222174511","name":"Núcleo de Extensão e Cultura em Artes Afro-Brasileiras","cat":"other","acc":"u","bld":"way/171958893","src":"osm"},"geometry":{"type":"Point","coordinates":[-46.728389,-23.555262]}},{"type":"Feature","properties":{"id":"node/4242803198","name":"Biblioteca Florestan Fernandes","cat":"library","acc":"u","bld":"way/147377362","src":"osm"},"geometry":{"type":"Point","coordinates":[-46.725746,-23.562412]}},{"type":"Feature","properties":{"id":"node/4244633295","cat":"food","acc":"u","src":"osm"},"geometry":{"type":"Point","coordinates":[-46.720083,-23.560395]}},{"type":"Feature","properties":{"id":"node/4369814379","name":"Biblioteca IME-USP","cat":"library","acc":"u","bld":"way/154079141","oh":"Mo-Fr 08:00-21:30; SH Mo-Fr 08:00-20:00","src":"osm"},"geometry":{"type":"Point","coordinates":[-46.73142,-23.559514]}},{"type":"Feature","properties":{"id":"node/4369819618","name":"Biblioteca IB-USP","cat":"library","acc":"u","bld":"way/153921986","src":"osm"},"geometry":{"type":"Point","coordinates":[-46.730374,-23.564731]}},{"type":"Feature","properties":{"id":"node/4520796499","name":"Centro de Competência em Software Livre","cat":"other","acc":"u","bld":"way/154079143","src":"osm"},"geometry":{"type":"Point","coordinates":[-46.731547,-23.558813]}},{"type":"Feature","properties":{"id":"node/4560868210","name":"Serviço Especializado em Engenharia de Segurança e Medicina do Trabalho","cat":"health","acc":"u","bld":"way/274205497","src":"osm"},"geometry":{"type":"Point","coordinates":[-46.741577,-23.565318]}},{"type":"Feature","properties":{"id":"node/4686081365","name":"Museu de Arte Contemporânea da Universidade de São Paulo","cat":"culture","acc":"u","bld":"relation/6027841","src":"osm"},"geometry":{"type":"Point","coordinates":[-46.722074,-23.559769]}},{"type":"Feature","properties":{"id":"node/4713848643","name":"NeuroMat","cat":"other","acc":"u","bld":"way/154079143","src":"osm"},"geometry":{"type":"Point","coordinates":[-46.732061,-23.558704]}},{"type":"Feature","properties":{"id":"node/5296092821","name":"Sowè Coffee & Food","cat":"food","acc":"u","src":"osm"},"geometry":{"type":"Point","coordinates":[-46.724991,-23.564559]}},{"type":"Feature","properties":{"id":"node/5459382715","cat":"bike_parking","acc":"u","src":"osm"},"geometry":{"type":"Point","coordinates":[-46.734543,-23.560729]}},{"type":"Feature","properties":{"id":"node/5459383821","cat":"bike_parking","acc":"u","src":"osm"},"geometry":{"type":"Point","coordinates":[-46.735342,-23.560018]}},{"type":"Feature","properties":{"id":"node/5459383822","cat":"bike_parking","acc":"u","src":"osm"},"geometry":{"type":"Point","coordinates":[-46.733936,-23.559568]}},{"type":"Feature","properties":{"id":"node/5459383823","cat":"bike_parking","acc":"u","src":"osm"},"geometry":{"type":"Point","coordinates":[-46.732372,-23.561594]}},{"type":"Feature","properties":{"id":"node/5459383824","cat":"bike_parking","acc":"u","src":"osm"},"geometry":{"type":"Point","coordinates":[-46.73612,-23.561435]}},{"type":"Feature","properties":{"id":"node/5459392180","cat":"bike_parking","acc":"u","bld":"way/158966879","src":"osm"},"geometry":{"type":"Point","coordinates":[-46.730304,-23.560089]}},{"type":"Feature","properties":{"id":"node/5459392181","cat":"bike_parking","acc":"u","src":"osm"},"geometry":{"type":"Point","coordinates":[-46.728198,-23.557961]}},{"type":"Feature","properties":{"id":"node/5459392182","cat":"bike_parking","acc":"u","src":"osm"},"geometry":{"type":"Point","coordinates":[-46.726402,-23.560199]}},{"type":"Feature","properties":{"id":"node/5503548213","cat":"sport","acc":"u","src":"osm"},"geometry":{"type":"Point","coordinates":[-46.733725,-23.559231]}},{"type":"Feature","properties":{"id":"node/5503745568","cat":"water","acc":"u","bld":"way/401961914","src":"osm"},"geometry":{"type":"Point","coordinates":[-46.733907,-23.559062]}},{"type":"Feature","properties":{"id":"node/5503745569","cat":"water","acc":"u","bld":"relation/6029747","src":"osm"},"geometry":{"type":"Point","coordinates":[-46.733546,-23.559418]}},{"type":"Feature","properties":{"id":"node/5503745570","cat":"water","acc":"u","bld":"relation/6029747","src":"osm"},"geometry":{"type":"Point","coordinates":[-46.733808,-23.559493]}},{"type":"Feature","properties":{"id":"node/5503745571","cat":"water","acc":"u","bld":"relation/6029747","src":"osm"},"geometry":{"type":"Point","coordinates":[-46.733796,-23.559384]}},{"type":"Feature","properties":{"id":"node/5503745572","cat":"water","acc":"u","bld":"relation/6029747","src":"osm"},"geometry":{"type":"Point","coordinates":[-46.734049,-23.559531]}},{"type":"Feature","properties":{"id":"node/5607306921","name":"Busto Dante","cat":"culture","acc":"u","bld":"relation/6275397","src":"osm"},"geometry":{"type":"Point","coordinates":[-46.722679,-23.560984]}},{"type":"Feature","properties":{"id":"node/6204649439","name":"Serviço de Graduação - Poli-USP","cat":"other","acc":"u","bld":"relation/2062858","oh":"Mo-Fr 11:00-13:00","src":"osm"},"geometry":{"type":"Point","coordinates":[-46.729546,-23.554782]}},{"type":"Feature","properties":{"id":"node/6489554962","name":"A Construção","cat":"culture","acc":"u","src":"osm"},"geometry":{"type":"Point","coordinates":[-46.725482,-23.559083]}},{"type":"Feature","properties":{"id":"node/7866410494","name":"Papelaria do Mário","cat":"shop","acc":"u","bld":"way/158966879","src":"osm"},"geometry":{"type":"Point","coordinates":[-46.729565,-23.560189]}},{"type":"Feature","properties":{"id":"node/7866410495","cat":"shop","acc":"u","bld":"way/158966879","src":"osm"},"geometry":{"type":"Point","coordinates":[-46.72965,-23.560135]}},{"type":"Feature","properties":{"id":"node/8490795921","name":"Centro de Estudos Geográficos \"Filipe Varea Leme\" | CEGE/USP","cat":"other","acc":"y","bld":"way/44972294","oh":"Mo-Fr 08:00-23:00","src":"osm"},"geometry":{"type":"Point","coordinates":[-46.723483,-23.56298]}},{"type":"Feature","properties":{"id":"node/8490795959","name":"Auditório Milton Santos","cat":"culture","acc":"u","bld":"way/44972294","src":"osm"},"geometry":{"type":"Point","coordinates":[-46.723158,-23.563608]}},{"type":"Feature","properties":{"id":"node/8490795960","name":"Auditório Nicolau Sevcenko","cat":"culture","acc":"u","bld":"way/44972294","src":"osm"},"geometry":{"type":"Point","coordinates":[-46.723002,-23.563685]}},{"type":"Feature","properties":{"id":"node/8490795961","name":"Anfiteatro da Geografia","cat":"culture","acc":"u","bld":"way/44972294","src":"osm"},"geometry":{"type":"Point","coordinates":[-46.723103,-23.563178]}},{"type":"Feature","properties":{"id":"node/8490795962","name":"Anfiteatro da História","cat":"culture","acc":"u","bld":"way/44972294","src":"osm"},"geometry":{"type":"Point","coordinates":[-46.723266,-23.563433]}},{"type":"Feature","properties":{"id":"node/8490795963","name":"Associação dos Geógrafos Brasileiros - Seção Local São Paulo - AGB São Paulo","cat":"other","acc":"p","bld":"way/44972294","src":"osm"},"geometry":{"type":"Point","coordinates":[-46.723644,-23.562896]}},{"type":"Feature","properties":{"id":"node/874860427","cat":"toilets","acc":"u","src":"osm"},"geometry":{"type":"Point","coordinates":[-46.718359,-23.566203]}},{"type":"Feature","properties":{"id":"node/874860436","name":"Praça Vital Brasil","cat":"culture","acc":"u","src":"osm"},"geometry":{"type":"Point","coordinates":[-46.719829,-23.564311]}},{"type":"Feature","properties":{"id":"node/9503721084","cat":"bike_parking","acc":"u","src":"osm"},"geometry":{"type":"Point","coordinates":[-46.712939,-23.565412]}},{"type":"Feature","properties":{"id":"node/9506789988","name":"Lanchonete da Biologia","cat":"food","acc":"u","bld":"way/401314619","src":"osm"},"geometry":{"type":"Point","coordinates":[-46.730886,-23.564564]}},{"type":"Feature","properties":{"id":"node/9506789989","cat":"bike_parking","acc":"u","src":"osm"},"geometry":{"type":"Point","coordinates":[-46.73001,-23.564585]}},{"type":"Feature","properties":{"id":"node/9670524591","cat":"bike_parking","acc":"u","src":"osm"},"geometry":{"type":"Point","coordinates":[-46.739349,-23.559643]}},{"type":"Feature","properties":{"id":"node/9815465985","name":"Bandejão Central","cat":"bike_rental","acc":"u","src":"osm"},"geometry":{"type":"Point","coordinates":[-46.722732,-23.559782]}},{"type":"Feature","properties":{"id":"node/9815465986","name":"FAU","cat":"bike_rental","acc":"u","src":"osm"},"geometry":{"type":"Point","coordinates":[-46.730041,-23.559273]}},{"type":"Feature","properties":{"id":"node/9815465987","name":"Bandejão Química","cat":"bike_rental","acc":"u","src":"osm"},"geometry":{"type":"Point","coordinates":[-46.723952,-23.564857]}},{"type":"Feature","properties":{"id":"relation/2064107","cat":"park","acc":"u","src":"osm"},"geometry":{"type":"Point","coordinates":[-46.723363,-23.558624]}},{"type":"Feature","properties":{"id":"relation/6288947","cat":"sport","acc":"u","src":"osm"},"geometry":{"type":"Point","coordinates":[-46.715343,-23.560159]}},{"type":"Feature","properties":{"id":"relation/6289001","name":"Pista de Atletismo","cat":"sport","acc":"u","src":"osm"},"geometry":{"type":"Point","coordinates":[-46.716486,-23.559865]}},{"type":"Feature","properties":{"id":"way/1074977642","cat":"toilets","acc":"n","bld":"way/154079142","src":"osm"},"geometry":{"type":"Point","coordinates":[-46.731921,-23.559546]}},{"type":"Feature","properties":{"id":"way/1074977643","cat":"toilets","acc":"n","bld":"way/154079142","src":"osm"},"geometry":{"type":"Point","coordinates":[-46.731908,-23.559475]}},{"type":"Feature","properties":{"id":"way/1074977644","cat":"toilets","acc":"y","bld":"way/154079142","src":"osm"},"geometry":{"type":"Point","coordinates":[-46.731899,-23.559424]}},{"type":"Feature","properties":{"id":"way/1074977651","name":"Lanchonete do IME","cat":"food","acc":"p","bld":"way/154079142","oh":"Mo-Fr 08:00-20:00","src":"osm"},"geometry":{"type":"Point","coordinates":[-46.73179,-23.559416]}},{"type":"Feature","properties":{"id":"way/1116986276","cat":"sport","acc":"u","src":"osm"},"geometry":{"type":"Point","coordinates":[-46.716117,-23.559546]}},{"type":"Feature","properties":{"id":"way/1116986277","cat":"sport","acc":"u","src":"osm"},"geometry":{"type":"Point","coordinates":[-46.716098,-23.559525]}},{"type":"Feature","properties":{"id":"way/1116986279","cat":"sport","acc":"u","src":"osm"},"geometry":{"type":"Point","coordinates":[-46.71679,-23.559812]}},{"type":"Feature","properties":{"id":"way/1116986280","cat":"sport","acc":"u","src":"osm"},"geometry":{"type":"Point","coordinates":[-46.716874,-23.560201]}},{"type":"Feature","properties":{"id":"way/1116986281","cat":"sport","acc":"u","src":"osm"},"geometry":{"type":"Point","coordinates":[-46.716703,-23.559421]}},{"type":"Feature","properties":{"id":"way/1128046224","cat":"parking","acc":"u","bld":"way/154073688","src":"osm"},"geometry":{"type":"Point","coordinates":[-46.740695,-23.567387]}},{"type":"Feature","properties":{"id":"way/1188956698","cat":"parking","acc":"u","src":"osm"},"geometry":{"type":"Point","coordinates":[-46.732186,-23.553979]}},{"type":"Feature","properties":{"id":"way/1203500006","cat":"sport","acc":"u","src":"osm"},"geometry":{"type":"Point","coordinates":[-46.737212,-23.562084]}},{"type":"Feature","properties":{"id":"way/1203772358","cat":"parking","acc":"u","src":"osm"},"geometry":{"type":"Point","coordinates":[-46.721899,-23.558782]}},{"type":"Feature","properties":{"id":"way/1203772362","cat":"parking","acc":"u","src":"osm"},"geometry":{"type":"Point","coordinates":[-46.722507,-23.559672]}},{"type":"Feature","properties":{"id":"way/1203772363","cat":"parking","acc":"u","src":"osm"},"geometry":{"type":"Point","coordinates":[-46.722733,-23.559733]}},{"type":"Feature","properties":{"id":"way/1217883844","name":"Espaço Verde","cat":"culture","acc":"u","bld":"relation/6022364","src":"osm"},"geometry":{"type":"Point","coordinates":[-46.724959,-23.56234]}},{"type":"Feature","properties":{"id":"way/1221776430","cat":"toilets","acc":"y","bld":"way/154079142","src":"osm"},"geometry":{"type":"Point","coordinates":[-46.731862,-23.55943]}},{"type":"Feature","properties":{"id":"way/1223072160","cat":"park","acc":"u","bld":"way/151660773","src":"osm"},"geometry":{"type":"Point","coordinates":[-46.724755,-23.564904]}},{"type":"Feature","properties":{"id":"way/1229147782","cat":"parking","acc":"u","src":"osm"},"geometry":{"type":"Point","coordinates":[-46.735792,-23.558357]}},{"type":"Feature","properties":{"id":"way/1232501574","cat":"sport","acc":"u","src":"osm"},"geometry":{"type":"Point","coordinates":[-46.740368,-23.557544]}},{"type":"Feature","properties":{"id":"way/1238126978","cat":"park","acc":"u","src":"osm"},"geometry":{"type":"Point","coordinates":[-46.730864,-23.554839]}},{"type":"Feature","properties":{"id":"way/1238654502","cat":"parking","acc":"u","src":"osm"},"geometry":{"type":"Point","coordinates":[-46.731706,-23.562555]}},{"type":"Feature","properties":{"id":"way/1299896889","name":"Pizza da Aplicação","cat":"park","acc":"u","src":"osm"},"geometry":{"type":"Point","coordinates":[-46.71459,-23.562476]}},{"type":"Feature","properties":{"id":"way/1312098029","cat":"parking","acc":"u","bld":"relation/6026444","src":"osm"},"geometry":{"type":"Point","coordinates":[-46.713474,-23.563677]}},{"type":"Feature","properties":{"id":"way/1312098030","cat":"parking","acc":"u","bld":"way/153925998","src":"osm"},"geometry":{"type":"Point","coordinates":[-46.720047,-23.5633]}},{"type":"Feature","properties":{"id":"way/1312098032","cat":"parking","acc":"u","bld":"way/152922422","src":"osm"},"geometry":{"type":"Point","coordinates":[-46.721494,-23.559077]}},{"type":"Feature","properties":{"id":"way/1312098033","cat":"parking","acc":"u","src":"osm"},"geometry":{"type":"Point","coordinates":[-46.721059,-23.556303]}},{"type":"Feature","properties":{"id":"way/1312098036","cat":"parking","acc":"u","src":"osm"},"geometry":{"type":"Point","coordinates":[-46.726219,-23.555078]}},{"type":"Feature","properties":{"id":"way/1312098037","cat":"parking","acc":"u","src":"osm"},"geometry":{"type":"Point","coordinates":[-46.727153,-23.554785]}},{"type":"Feature","properties":{"id":"way/1312098038","cat":"parking","acc":"u","src":"osm"},"geometry":{"type":"Point","coordinates":[-46.726634,-23.556089]}},{"type":"Feature","properties":{"id":"way/1312098039","cat":"parking","acc":"u","src":"osm"},"geometry":{"type":"Point","coordinates":[-46.7286,-23.556451]}},{"type":"Feature","properties":{"id":"way/1312098040","cat":"parking","acc":"u","src":"osm"},"geometry":{"type":"Point","coordinates":[-46.729757,-23.557394]}},{"type":"Feature","properties":{"id":"way/1312098041","cat":"parking","acc":"u","src":"osm"},"geometry":{"type":"Point","coordinates":[-46.728031,-23.558008]}},{"type":"Feature","properties":{"id":"way/1312098042","cat":"parking","acc":"u","src":"osm"},"geometry":{"type":"Point","coordinates":[-46.732994,-23.556734]}},{"type":"Feature","properties":{"id":"way/1312098044","cat":"parking","acc":"u","src":"osm"},"geometry":{"type":"Point","coordinates":[-46.728309,-23.560755]}},{"type":"Feature","properties":{"id":"way/1312098045","cat":"parking","acc":"u","src":"osm"},"geometry":{"type":"Point","coordinates":[-46.726599,-23.563406]}},{"type":"Feature","properties":{"id":"way/1312098050","cat":"parking","acc":"u","src":"osm"},"geometry":{"type":"Point","coordinates":[-46.739528,-23.559285]}},{"type":"Feature","properties":{"id":"way/1312098051","cat":"parking","acc":"u","src":"osm"},"geometry":{"type":"Point","coordinates":[-46.741026,-23.559478]}},{"type":"Feature","properties":{"id":"way/1312098052","cat":"parking","acc":"u","src":"osm"},"geometry":{"type":"Point","coordinates":[-46.74242,-23.559525]}},{"type":"Feature","properties":{"id":"way/1312098055","cat":"parking","acc":"u","src":"osm"},"geometry":{"type":"Point","coordinates":[-46.738173,-23.570093]}},{"type":"Feature","properties":{"id":"way/1312098056","cat":"parking","acc":"u","src":"osm"},"geometry":{"type":"Point","coordinates":[-46.738555,-23.570443]}},{"type":"Feature","properties":{"id":"way/1312098057","cat":"parking","acc":"u","src":"osm"},"geometry":{"type":"Point","coordinates":[-46.738741,-23.570099]}},{"type":"Feature","properties":{"id":"way/1318486977","cat":"parking","acc":"u","src":"osm"},"geometry":{"type":"Point","coordinates":[-46.71825,-23.564873]}},{"type":"Feature","properties":{"id":"way/1318486978","cat":"parking","acc":"u","src":"osm"},"geometry":{"type":"Point","coordinates":[-46.717881,-23.565217]}},{"type":"Feature","properties":{"id":"way/1337332930","cat":"parking","acc":"u","src":"osm"},"geometry":{"type":"Point","coordinates":[-46.718294,-23.56826]}},{"type":"Feature","properties":{"id":"way/1340886393","cat":"park","acc":"u","src":"osm"},"geometry":{"type":"Point","coordinates":[-46.733773,-23.568396]}},{"type":"Feature","properties":{"id":"way/1342742413","name":"Centro de Convivência","cat":"culture","acc":"u","bld":"way/1342742413","src":"osm"},"geometry":{"type":"Point","coordinates":[-46.723244,-23.564313]}},{"type":"Feature","properties":{"id":"way/1342742414","name":"Centro de Convivência Araucárias","cat":"culture","acc":"u","bld":"way/1342742414","src":"osm"},"geometry":{"type":"Point","coordinates":[-46.722517,-23.557205]}},{"type":"Feature","properties":{"id":"way/1347569019","name":"Fitotério do IB-USP","cat":"park","acc":"u","src":"osm"},"geometry":{"type":"Point","coordinates":[-46.731496,-23.565811]}},{"type":"Feature","properties":{"id":"way/1396148329","cat":"parking","acc":"u","oh":"Mo-Fr 06:00-20:00; Sa 08:00-12:00","src":"osm"},"geometry":{"type":"Point","coordinates":[-46.732227,-23.555958]}},{"type":"Feature","properties":{"id":"way/1396148330","cat":"parking","acc":"u","oh":"Mo-Fr 06:00-20:00; Sa 08:00-12:00","src":"osm"},"geometry":{"type":"Point","coordinates":[-46.730641,-23.554993]}},{"type":"Feature","properties":{"id":"way/1396148331","cat":"parking","acc":"u","oh":"Mo-Fr 06:00-20:00; Sa 08:00-12:00","src":"osm"},"geometry":{"type":"Point","coordinates":[-46.731548,-23.55765]}},{"type":"Feature","properties":{"id":"way/1396148342","cat":"sport","acc":"u","src":"osm"},"geometry":{"type":"Point","coordinates":[-46.74014,-23.557558]}},{"type":"Feature","properties":{"id":"way/1409628002","cat":"parking","acc":"u","src":"osm"},"geometry":{"type":"Point","coordinates":[-46.721678,-23.560848]}},{"type":"Feature","properties":{"id":"way/1409628003","cat":"park","acc":"u","src":"osm"},"geometry":{"type":"Point","coordinates":[-46.720708,-23.557369]}},{"type":"Feature","properties":{"id":"way/1409628012","cat":"parking","acc":"u","src":"osm"},"geometry":{"type":"Point","coordinates":[-46.720994,-23.560582]}},{"type":"Feature","properties":{"id":"way/1409628013","cat":"park","acc":"u","src":"osm"},"geometry":{"type":"Point","coordinates":[-46.720049,-23.558036]}},{"type":"Feature","properties":{"id":"way/1409628014","cat":"park","acc":"u","src":"osm"},"geometry":{"type":"Point","coordinates":[-46.720752,-23.559246]}},{"type":"Feature","properties":{"id":"way/151653728","name":"Restaurante Universitário Central","cat":"food","acc":"u","bld":"way/151653728","src":"osm"},"geometry":{"type":"Point","coordinates":[-46.721149,-23.559828]}},{"type":"Feature","properties":{"id":"way/152420886","name":"Restaurante Universitário da Química","cat":"food","acc":"u","bld":"way/152420886","oh":"Mo-Fr 11:00-14:00, 17:30-19:45; Su 17:30-19:45; PH Sa off","src":"osm"},"geometry":{"type":"Point","coordinates":[-46.725622,-23.563398]}},{"type":"Feature","properties":{"id":"way/152579785","cat":"park","acc":"u","src":"osm"},"geometry":{"type":"Point","coordinates":[-46.729613,-23.555006]}},{"type":"Feature","properties":{"id":"way/152580490","cat":"park","acc":"u","src":"osm"},"geometry":{"type":"Point","coordinates":[-46.729099,-23.553384]}},{"type":"Feature","properties":{"id":"way/152580491","cat":"park","acc":"u","src":"osm"},"geometry":{"type":"Point","coordinates":[-46.729563,-23.553246]}},{"type":"Feature","properties":{"id":"way/152728527","name":"Banco Santander","cat":"bank","acc":"u","bld":"way/152728527","oh":"Mo-Fr 10:00-16:00","src":"osm"},"geometry":{"type":"Point","coordinates":[-46.72723,-23.55946]}},{"type":"Feature","properties":{"id":"way/152728529","name":"Banco do Brasil","cat":"bank","acc":"u","bld":"way/152728529","oh":"Mo-Fr 10:00-16:00; Sa,Su,PH off","src":"osm"},"geometry":{"type":"Point","coordinates":[-46.726877,-23.56005]}},{"type":"Feature","properties":{"id":"way/152728531","name":"Banco Santander","cat":"bank","acc":"u","bld":"way/152728531","oh":"Mo-Fr 10:00-16:00","src":"osm"},"geometry":{"type":"Point","coordinates":[-46.726522,-23.560212]}},{"type":"Feature","properties":{"id":"way/152728533","name":"Itaú","cat":"bank","acc":"u","bld":"way/152728533","src":"osm"},"geometry":{"type":"Point","coordinates":[-46.727417,-23.559787]}},{"type":"Feature","properties":{"id":"way/152728541","name":"Banco do Brasil","cat":"bank","acc":"u","bld":"way/152728541","src":"osm"},"geometry":{"type":"Point","coordinates":[-46.726798,-23.559652]}},{"type":"Feature","properties":{"id":"way/152732603","name":"Biblioteca do Instituto de Física","cat":"library","acc":"u","bld":"way/152732603","src":"osm"},"geometry":{"type":"Point","coordinates":[-46.734833,-23.560725]}},{"type":"Feature","properties":{"id":"way/152732605","name":"Restaurante universitário Física","cat":"food","acc":"u","bld":"way/152732605","oh":"Mo-Fr 11:15-14:15, 17:30-19:45; PH Sa-Su off","src":"osm"},"geometry":{"type":"Point","coordinates":[-46.735614,-23.560656]}},{"type":"Feature","properties":{"id":"way/152732610","cat":"park","acc":"u","src":"osm"},"geometry":{"type":"Point","coordinates":[-46.734899,-23.560281]}},{"type":"Feature","properties":{"id":"way/152732611","cat":"park","acc":"u","src":"osm"},"geometry":{"type":"Point","coordinates":[-46.734427,-23.560323]}},{"type":"Feature","properties":{"id":"way/152732614","cat":"park","acc":"u","src":"osm"},"geometry":{"type":"Point","coordinates":[-46.73539,-23.560233]}},{"type":"Feature","properties":{"id":"way/153489173","cat":"park","acc":"u","src":"osm"},"geometry":{"type":"Point","coordinates":[-46.73286,-23.567435]}},{"type":"Feature","properties":{"id":"way/153489176","cat":"park","acc":"u","src":"osm"},"geometry":{"type":"Point","coordinates":[-46.733267,-23.567223]}},{"type":"Feature","properties":{"id":"way/153495125","name":"Centro de Práticas Esportivas da Universidade de São Paulo","cat":"sport","acc":"u","src":"osm"},"geometry":{"type":"Point","coordinates":[-46.716997,-23.559913]}},{"type":"Feature","properties":{"id":"way/153495128","cat":"sport","acc":"u","src":"osm"},"geometry":{"type":"Point","coordinates":[-46.718019,-23.561214]}},{"type":"Feature","properties":{"id":"way/153495130","cat":"sport","acc":"u","src":"osm"},"geometry":{"type":"Point","coordinates":[-46.71541,-23.561058]}},{"type":"Feature","properties":{"id":"way/153495132","cat":"sport","acc":"u","src":"osm"},"geometry":{"type":"Point","coordinates":[-46.714777,-23.561177]}},{"type":"Feature","properties":{"id":"way/153495135","cat":"sport","acc":"u","src":"osm"},"geometry":{"type":"Point","coordinates":[-46.715049,-23.56111]}},{"type":"Feature","properties":{"id":"way/153495137","cat":"sport","acc":"u","src":"osm"},"geometry":{"type":"Point","coordinates":[-46.715824,-23.560989]}},{"type":"Feature","properties":{"id":"way/153495140","cat":"sport","acc":"u","src":"osm"},"geometry":{"type":"Point","coordinates":[-46.715236,-23.561084]}},{"type":"Feature","properties":{"id":"way/153495141","cat":"sport","acc":"u","src":"osm"},"geometry":{"type":"Point","coordinates":[-46.717556,-23.560223]}},{"type":"Feature","properties":{"id":"way/153495144","cat":"sport","acc":"u","src":"osm"},"geometry":{"type":"Point","coordinates":[-46.714595,-23.561203]}},{"type":"Feature","properties":{"id":"way/153495148","cat":"sport","acc":"u","src":"osm"},"geometry":{"type":"Point","coordinates":[-46.718458,-23.560887]}},{"type":"Feature","properties":{"id":"way/153495150","cat":"sport","acc":"u","src":"osm"},"geometry":{"type":"Point","coordinates":[-46.715984,-23.560963]}},{"type":"Feature","properties":{"id":"way/153495152","cat":"sport","acc":"u","src":"osm"},"geometry":{"type":"Point","coordinates":[-46.715654,-23.561016]}},{"type":"Feature","properties":{"id":"way/153495156","cat":"sport","acc":"u","src":"osm"},"geometry":{"type":"Point","coordinates":[-46.718535,-23.561248]}},{"type":"Feature","properties":{"id":"way/153495158","cat":"sport","acc":"u","src":"osm"},"geometry":{"type":"Point","coordinates":[-46.714422,-23.561229]}},{"type":"Feature","properties":{"id":"way/153495161","cat":"sport","acc":"u","src":"osm"},"geometry":{"type":"Point","coordinates":[-46.717333,-23.559233]}},{"type":"Feature","properties":{"id":"way/153921470","name":"Restaurante da ECA","cat":"food","acc":"u","bld":"way/153921470","src":"osm"},"geometry":{"type":"Point","coordinates":[-46.726305,-23.55817]}},{"type":"Feature","properties":{"id":"way/153921482","cat":"park","acc":"u","src":"osm"},"geometry":{"type":"Point","coordinates":[-46.726181,-23.557387]}},{"type":"Feature","properties":{"id":"way/153921484","cat":"park","acc":"u","src":"osm"},"geometry":{"type":"Point","coordinates":[-46.725713,-23.557615]}},{"type":"Feature","properties":{"id":"way/153921984","name":"Biblioteca FEA 4","cat":"library","acc":"u","bld":"way/153921984","oh":"Mo-Fr 07:30-22:00","src":"osm"},"geometry":{"type":"Point","coordinates":[-46.728874,-23.558027]}},{"type":"Feature","properties":{"id":"way/153921987","name":"Teatro Laboratório","cat":"culture","acc":"u","bld":"way/153921987","src":"osm"},"geometry":{"type":"Point","coordinates":[-46.724232,-23.557942]}},{"type":"Feature","properties":{"id":"way/153959719","name":"Restaurante universitário COCESP","cat":"food","acc":"u","bld":"way/153959719","src":"osm"},"geometry":{"type":"Point","coordinates":[-46.739713,-23.558976]}},{"type":"Feature","properties":{"id":"way/153959720","name":"Música","cat":"culture","acc":"u","bld":"way/153959720","src":"osm"},"geometry":{"type":"Point","coordinates":[-46.72461,-23.557249]}},{"type":"Feature","properties":{"id":"way/153959727","name":"Creche dos funcionários","cat":"other","acc":"u","bld":"way/153959727","src":"osm"},"geometry":{"type":"Point","coordinates":[-46.739026,-23.559305]}},{"type":"Feature","properties":{"id":"way/153959758","cat":"parking","acc":"u","oh":"Mo-Fr 06:00-20:00; Sa 08:00-12:00","src":"osm"},"geometry":{"type":"Point","coordinates":[-46.730967,-23.55661]}},{"type":"Feature","properties":{"id":"way/154067476","cat":"sport","acc":"u","src":"osm"},"geometry":{"type":"Point","coordinates":[-46.71435,-23.560772]}},{"type":"Feature","properties":{"id":"way/154067477","cat":"sport","acc":"u","src":"osm"},"geometry":{"type":"Point","coordinates":[-46.714663,-23.560326]}},{"type":"Feature","properties":{"id":"way/154067480","cat":"sport","acc":"u","src":"osm"},"geometry":{"type":"Point","coordinates":[-46.714287,-23.560408]}},{"type":"Feature","properties":{"id":"way/154067481","cat":"sport","acc":"u","src":"osm"},"geometry":{"type":"Point","coordinates":[-46.714731,-23.56067]}},{"type":"Feature","properties":{"id":"way/154067482","cat":"sport","acc":"u","src":"osm"},"geometry":{"type":"Point","coordinates":[-46.714604,-23.559994]}},{"type":"Feature","properties":{"id":"way/154073700","cat":"parking","acc":"u","src":"osm"},"geometry":{"type":"Point","coordinates":[-46.739323,-23.566802]}},{"type":"Feature","properties":{"id":"way/154073701","cat":"parking","acc":"u","src":"osm"},"geometry":{"type":"Point","coordinates":[-46.740702,-23.569402]}},{"type":"Feature","properties":{"id":"way/154073702","cat":"parking","acc":"u","src":"osm"},"geometry":{"type":"Point","coordinates":[-46.73792,-23.567918]}},{"type":"Feature","properties":{"id":"way/154073978","cat":"parking","acc":"u","src":"osm"},"geometry":{"type":"Point","coordinates":[-46.729903,-23.560676]}},{"type":"Feature","properties":{"id":"way/154073979","cat":"parking","acc":"u","src":"osm"},"geometry":{"type":"Point","coordinates":[-46.730542,-23.558268]}},{"type":"Feature","properties":{"id":"way/154074005","cat":"parking","acc":"u","src":"osm"},"geometry":{"type":"Point","coordinates":[-46.72688,-23.564497]}},{"type":"Feature","properties":{"id":"way/154079152","cat":"parking","acc":"u","src":"osm"},"geometry":{"type":"Point","coordinates":[-46.734211,-23.559165]}},{"type":"Feature","properties":{"id":"way/154079153","name":"Bolsão do IAG","cat":"parking","acc":"u","src":"osm"},"geometry":{"type":"Point","coordinates":[-46.733039,-23.558909]}},{"type":"Feature","properties":{"id":"way/158785421","name":"Biblioteca da Escola de Comunicações e Artes","cat":"library","acc":"u","bld":"way/158785421","oh":"Mo-Fr 08:00-22:00","src":"osm"},"geometry":{"type":"Point","coordinates":[-46.726755,-23.558284]}},{"type":"Feature","properties":{"id":"way/158966871","name":"Centro Cultural Camargo Guarnieri","cat":"culture","acc":"u","bld":"way/158966871","src":"osm"},"geometry":{"type":"Point","coordinates":[-46.720921,-23.557947]}},{"type":"Feature","properties":{"id":"way/158966878","name":"Terminal de Ônibus da Cidade Universitária","cat":"other","acc":"u","src":"osm"},"geometry":{"type":"Point","coordinates":[-46.732082,-23.552484]}},{"type":"Feature","properties":{"id":"way/158966881","cat":"park","acc":"u","src":"osm"},"geometry":{"type":"Point","coordinates":[-46.729974,-23.563419]}},{"type":"Feature","properties":{"id":"way/159420792","name":"Sweden's","cat":"food","acc":"u","bld":"way/159420792","src":"osm"},"geometry":{"type":"Point","coordinates":[-46.728795,-23.557191]}},{"type":"Feature","properties":{"id":"way/159420794","name":"Velódromo","cat":"sport","acc":"u","src":"osm"},"geometry":{"type":"Point","coordinates":[-46.715377,-23.560158]}},{"type":"Feature","properties":{"id":"way/159420824","name":"Estádio Armando de Salles Oliveira","cat":"sport","acc":"u","src":"osm"},"geometry":{"type":"Point","coordinates":[-46.718587,-23.559161]}},{"type":"Feature","properties":{"id":"way/159420827","cat":"parking","acc":"u","src":"osm"},"geometry":{"type":"Point","coordinates":[-46.724492,-23.565683]}},{"type":"Feature","properties":{"id":"way/159420828","cat":"parking","acc":"u","src":"osm"},"geometry":{"type":"Point","coordinates":[-46.728498,-23.557282]}},{"type":"Feature","properties":{"id":"way/159420829","cat":"sport","acc":"u","src":"osm"},"geometry":{"type":"Point","coordinates":[-46.718428,-23.559451]}},{"type":"Feature","properties":{"id":"way/166628579","cat":"parking","acc":"u","src":"osm"},"geometry":{"type":"Point","coordinates":[-46.735083,-23.561059]}},{"type":"Feature","properties":{"id":"way/174633274","cat":"food","acc":"u","bld":"way/174633274","src":"osm"},"geometry":{"type":"Point","coordinates":[-46.734593,-23.562891]}},{"type":"Feature","properties":{"id":"way/174633282","cat":"parking","acc":"u","src":"osm"},"geometry":{"type":"Point","coordinates":[-46.734586,-23.563238]}},{"type":"Feature","properties":{"id":"way/228040756","cat":"parking","acc":"u","src":"osm"},"geometry":{"type":"Point","coordinates":[-46.72068,-23.562122]}},{"type":"Feature","properties":{"id":"way/228040759","cat":"parking","acc":"u","src":"osm"},"geometry":{"type":"Point","coordinates":[-46.720444,-23.559988]}},{"type":"Feature","properties":{"id":"way/228075485","cat":"parking","acc":"u","src":"osm"},"geometry":{"type":"Point","coordinates":[-46.735972,-23.565496]}},{"type":"Feature","properties":{"id":"way/244739192","name":"Praça Professor Jorge Americano","cat":"park","acc":"u","src":"osm"},"geometry":{"type":"Point","coordinates":[-46.721086,-23.563474]}},{"type":"Feature","properties":{"id":"way/244739197","name":"Praça Rubião Meira","cat":"park","acc":"u","src":"osm"},"geometry":{"type":"Point","coordinates":[-46.71874,-23.562181]}},{"type":"Feature","properties":{"id":"way/244739199","name":"Praça do Relógio Solar","cat":"park","acc":"u","src":"osm"},"geometry":{"type":"Point","coordinates":[-46.720481,-23.56134]}},{"type":"Feature","properties":{"id":"way/245697728","name":"Macacário","cat":"culture","acc":"u","oh":"Mo-Su 09:00-16:40","src":"osm"},"geometry":{"type":"Point","coordinates":[-46.718875,-23.564616]}},{"type":"Feature","properties":{"id":"way/245697729","name":"Museu de Microbiologia Prof. Isaias Raw","cat":"culture","acc":"u","bld":"way/245697729","oh":"Tu-Sa 09:00-16:45","src":"osm"},"geometry":{"type":"Point","coordinates":[-46.719479,-23.567646]}},{"type":"Feature","properties":{"id":"way/245697730","name":"Recepção de animais","cat":"culture","acc":"u","src":"osm"},"geometry":{"type":"Point","coordinates":[-46.718896,-23.565352]}},{"type":"Feature","properties":{"id":"way/245697800","cat":"parking","acc":"u","src":"osm"},"geometry":{"type":"Point","coordinates":[-46.719642,-23.56708]}},{"type":"Feature","properties":{"id":"way/245697801","cat":"library","acc":"u","bld":"way/245697801","src":"osm"},"geometry":{"type":"Point","coordinates":[-46.718452,-23.567601]}},{"type":"Feature","properties":{"id":"way/251742492","cat":"parking","acc":"u","bld":"way/228075476","src":"osm"},"geometry":{"type":"Point","coordinates":[-46.73483,-23.564101]}},{"type":"Feature","properties":{"id":"way/251742493","cat":"parking","acc":"u","src":"osm"},"geometry":{"type":"Point","coordinates":[-46.734687,-23.564909]}},{"type":"Feature","properties":{"id":"way/274856793","cat":"parking","acc":"u","src":"osm"},"geometry":{"type":"Point","coordinates":[-46.716634,-23.562714]}},{"type":"Feature","properties":{"id":"way/291548013","name":"Relógio Solar","cat":"culture","acc":"u","src":"osm"},"geometry":{"type":"Point","coordinates":[-46.720385,-23.561258]}},{"type":"Feature","properties":{"id":"way/291548975","cat":"parking","acc":"u","src":"osm"},"geometry":{"type":"Point","coordinates":[-46.741429,-23.565537]}},{"type":"Feature","properties":{"id":"way/291549030","cat":"parking","acc":"u","src":"osm"},"geometry":{"type":"Point","coordinates":[-46.741444,-23.565937]}},{"type":"Feature","properties":{"id":"way/291549031","cat":"parking","acc":"u","src":"osm"},"geometry":{"type":"Point","coordinates":[-46.741343,-23.565871]}},{"type":"Feature","properties":{"id":"way/291549033","cat":"sport","acc":"u","src":"osm"},"geometry":{"type":"Point","coordinates":[-46.740913,-23.566842]}},{"type":"Feature","properties":{"id":"way/293801428","cat":"sport","acc":"u","src":"osm"},"geometry":{"type":"Point","coordinates":[-46.719305,-23.561028]}},{"type":"Feature","properties":{"id":"way/293801955","cat":"sport","acc":"u","src":"osm"},"geometry":{"type":"Point","coordinates":[-46.715883,-23.561443]}},{"type":"Feature","properties":{"id":"way/293801956","cat":"sport","acc":"u","src":"osm"},"geometry":{"type":"Point","coordinates":[-46.715693,-23.561473]}},{"type":"Feature","properties":{"id":"way/298015386","name":"Quadras cobertas","cat":"sport","acc":"u","bld":"way/298015386","src":"osm"},"geometry":{"type":"Point","coordinates":[-46.715143,-23.561596]}},{"type":"Feature","properties":{"id":"way/298015458","name":"Biblioteca Brasiliana Guita e José Mindlin","cat":"library","acc":"u","bld":"way/298015458","src":"osm"},"geometry":{"type":"Point","coordinates":[-46.722288,-23.56218]}},{"type":"Feature","properties":{"id":"way/298016101","cat":"library","acc":"u","bld":"way/298016101","src":"osm"},"geometry":{"type":"Point","coordinates":[-46.715878,-23.562984]}},{"type":"Feature","properties":{"id":"way/34378976","name":"Posto de Informações","cat":"info","acc":"u","bld":"way/34378976","src":"osm"},"geometry":{"type":"Point","coordinates":[-46.713348,-23.564205]}},{"type":"Feature","properties":{"id":"way/384909453","cat":"parking","acc":"u","src":"osm"},"geometry":{"type":"Point","coordinates":[-46.731852,-23.556482]}},{"type":"Feature","properties":{"id":"way/384923257","name":"Bolsão 18 - Geografia e Historia","cat":"parking","acc":"u","src":"osm"},"geometry":{"type":"Point","coordinates":[-46.722454,-23.56364]}},{"type":"Feature","properties":{"id":"way/384993359","cat":"parking","acc":"u","src":"osm"},"geometry":{"type":"Point","coordinates":[-46.731933,-23.556903]}},{"type":"Feature","properties":{"id":"way/393284810","cat":"parking","acc":"u","src":"osm"},"geometry":{"type":"Point","coordinates":[-46.735744,-23.559405]}},{"type":"Feature","properties":{"id":"way/393423255","name":"Caixa Econômica Federal","cat":"bank","acc":"u","bld":"way/393423255","src":"osm"},"geometry":{"type":"Point","coordinates":[-46.727255,-23.559873]}},{"type":"Feature","properties":{"id":"way/393426980","cat":"parking","acc":"u","src":"osm"},"geometry":{"type":"Point","coordinates":[-46.726214,-23.55985]}},{"type":"Feature","properties":{"id":"way/393432895","cat":"parking","acc":"u","src":"osm"},"geometry":{"type":"Point","coordinates":[-46.727019,-23.559968]}},{"type":"Feature","properties":{"id":"way/393434567","cat":"parking","acc":"u","src":"osm"},"geometry":{"type":"Point","coordinates":[-46.726658,-23.559338]}},{"type":"Feature","properties":{"id":"way/393461629","name":"Bolsão 18 - Geografia e Historia","cat":"parking","acc":"u","src":"osm"},"geometry":{"type":"Point","coordinates":[-46.724062,-23.562801]}},{"type":"Feature","properties":{"id":"way/393469143","name":"Posto da Guarda Universitária","cat":"other","acc":"u","bld":"way/393469143","src":"osm"},"geometry":{"type":"Point","coordinates":[-46.722944,-23.560535]}},{"type":"Feature","properties":{"id":"way/394918251","cat":"parking","acc":"u","src":"osm"},"geometry":{"type":"Point","coordinates":[-46.717406,-23.561996]}},{"type":"Feature","properties":{"id":"way/394920766","cat":"parking","acc":"u","src":"osm"},"geometry":{"type":"Point","coordinates":[-46.721426,-23.561451]}},{"type":"Feature","properties":{"id":"way/394920768","cat":"parking","acc":"u","src":"osm"},"geometry":{"type":"Point","coordinates":[-46.72242,-23.560488]}},{"type":"Feature","properties":{"id":"way/394920770","cat":"parking","acc":"u","src":"osm"},"geometry":{"type":"Point","coordinates":[-46.722384,-23.560331]}},{"type":"Feature","properties":{"id":"way/394937312","name":"Clínica Odontológica","cat":"health","acc":"u","bld":"way/403996462","oh":"Mo-Fr 07:00-23:00; Sa 07:00-12:00","src":"osm"},"geometry":{"type":"Point","coordinates":[-46.739624,-23.567703]}},{"type":"Feature","properties":{"id":"way/395505435","cat":"park","acc":"u","src":"osm"},"geometry":{"type":"Point","coordinates":[-46.729868,-23.55545]}},{"type":"Feature","properties":{"id":"way/395589756","cat":"parking","acc":"u","src":"osm"},"geometry":{"type":"Point","coordinates":[-46.724547,-23.564989]}},{"type":"Feature","properties":{"id":"way/395686146","cat":"parking","acc":"u","src":"osm"},"geometry":{"type":"Point","coordinates":[-46.726283,-23.567428]}},{"type":"Feature","properties":{"id":"way/395908077","cat":"parking","acc":"u","src":"osm"},"geometry":{"type":"Point","coordinates":[-46.726916,-23.565909]}},{"type":"Feature","properties":{"id":"way/395914753","cat":"sport","acc":"u","src":"osm"},"geometry":{"type":"Point","coordinates":[-46.737466,-23.562219]}},{"type":"Feature","properties":{"id":"way/395915148","name":"Bradesco","cat":"bank","acc":"u","bld":"way/395915148","oh":"Mo-Fr 10:00-16:00","src":"osm"},"geometry":{"type":"Point","coordinates":[-46.726703,-23.560131]}},{"type":"Feature","properties":{"id":"way/396019464","cat":"parking","acc":"u","src":"osm"},"geometry":{"type":"Point","coordinates":[-46.742081,-23.564659]}},{"type":"Feature","properties":{"id":"way/396593008","cat":"parking","acc":"u","src":"osm"},"geometry":{"type":"Point","coordinates":[-46.73592,-23.561684]}},{"type":"Feature","properties":{"id":"way/397559915","cat":"parking","acc":"u","src":"osm"},"geometry":{"type":"Point","coordinates":[-46.740377,-23.569145]}},{"type":"Feature","properties":{"id":"way/397625000","cat":"parking","acc":"u","src":"osm"},"geometry":{"type":"Point","coordinates":[-46.735128,-23.561896]}},{"type":"Feature","properties":{"id":"way/400431584","cat":"parking","acc":"u","src":"osm"},"geometry":{"type":"Point","coordinates":[-46.742168,-23.564246]}},{"type":"Feature","properties":{"id":"way/400433554","name":"Marellas","cat":"food","acc":"u","bld":"way/400433554","src":"osm"},"geometry":{"type":"Point","coordinates":[-46.741475,-23.564948]}},{"type":"Feature","properties":{"id":"way/400449470","name":"Praça da Prefeitura","cat":"park","acc":"u","src":"osm"},"geometry":{"type":"Point","coordinates":[-46.738399,-23.559433]}},{"type":"Feature","properties":{"id":"way/400453763","cat":"parking","acc":"u","src":"osm"},"geometry":{"type":"Point","coordinates":[-46.741635,-23.564255]}},{"type":"Feature","properties":{"id":"way/400460825","cat":"parking","acc":"u","src":"osm"},"geometry":{"type":"Point","coordinates":[-46.739531,-23.565179]}},{"type":"Feature","properties":{"id":"way/400471238","cat":"parking","acc":"u","src":"osm"},"geometry":{"type":"Point","coordinates":[-46.739066,-23.567414]}},{"type":"Feature","properties":{"id":"way/400570652","name":"Praça Professor Reinaldo Porchat de Assis","cat":"park","acc":"u","src":"osm"},"geometry":{"type":"Point","coordinates":[-46.713067,-23.56496]}},{"type":"Feature","properties":{"id":"way/401132029","name":"Centro de Pesquisa sobre o Genoma Humano e Células-Tronco","cat":"other","acc":"u","bld":"way/401132029","src":"osm"},"geometry":{"type":"Point","coordinates":[-46.730663,-23.566853]}},{"type":"Feature","properties":{"id":"way/401132508","cat":"parking","acc":"u","src":"osm"},"geometry":{"type":"Point","coordinates":[-46.729853,-23.565815]}},{"type":"Feature","properties":{"id":"way/401132801","cat":"parking","acc":"u","src":"osm"},"geometry":{"type":"Point","coordinates":[-46.732793,-23.566701]}},{"type":"Feature","properties":{"id":"way/401132802","cat":"parking","acc":"u","src":"osm"},"geometry":{"type":"Point","coordinates":[-46.732947,-23.566959]}},{"type":"Feature","properties":{"id":"way/401132845","cat":"parking","acc":"u","src":"osm"},"geometry":{"type":"Point","coordinates":[-46.733277,-23.568635]}},{"type":"Feature","properties":{"id":"way/401132846","cat":"parking","acc":"u","src":"osm"},"geometry":{"type":"Point","coordinates":[-46.733059,-23.568109]}},{"type":"Feature","properties":{"id":"way/401133653","cat":"parking","acc":"u","src":"osm"},"geometry":{"type":"Point","coordinates":[-46.731629,-23.567897]}},{"type":"Feature","properties":{"id":"way/401133955","cat":"parking","acc":"u","src":"osm"},"geometry":{"type":"Point","coordinates":[-46.732185,-23.567957]}},{"type":"Feature","properties":{"id":"way/401133956","cat":"parking","acc":"u","src":"osm"},"geometry":{"type":"Point","coordinates":[-46.732304,-23.567889]}},{"type":"Feature","properties":{"id":"way/401314619","name":"Centro Acadêmico Bio-USP","cat":"culture","acc":"u","bld":"way/401314619","src":"osm"},"geometry":{"type":"Point","coordinates":[-46.73085,-23.564597]}},{"type":"Feature","properties":{"id":"way/401314626","name":"Laboratório de Abelhas","cat":"other","acc":"u","bld":"way/401314626","src":"osm"},"geometry":{"type":"Point","coordinates":[-46.731112,-23.564811]}},{"type":"Feature","properties":{"id":"way/401524270","cat":"park","acc":"u","src":"osm"},"geometry":{"type":"Point","coordinates":[-46.738835,-23.557478]}},{"type":"Feature","properties":{"id":"way/401704947","cat":"parking","acc":"u","src":"osm"},"geometry":{"type":"Point","coordinates":[-46.715646,-23.563178]}},{"type":"Feature","properties":{"id":"way/401705454","cat":"parking","acc":"u","src":"osm"},"geometry":{"type":"Point","coordinates":[-46.716005,-23.561868]}},{"type":"Feature","properties":{"id":"way/401707044","cat":"parking","acc":"u","src":"osm"},"geometry":{"type":"Point","coordinates":[-46.714638,-23.563709]}},{"type":"Feature","properties":{"id":"way/401707045","cat":"parking","acc":"u","src":"osm"},"geometry":{"type":"Point","coordinates":[-46.714269,-23.563129]}},{"type":"Feature","properties":{"id":"way/401708970","cat":"parking","acc":"u","src":"osm"},"geometry":{"type":"Point","coordinates":[-46.713556,-23.564382]}},{"type":"Feature","properties":{"id":"way/401828294","cat":"food","acc":"u","bld":"way/401828294","src":"osm"},"geometry":{"type":"Point","coordinates":[-46.736869,-23.562118]}},{"type":"Feature","properties":{"id":"way/401894448","name":"Relógio da USP","cat":"culture","acc":"u","src":"osm"},"geometry":{"type":"Point","coordinates":[-46.724112,-23.559567]}},{"type":"Feature","properties":{"id":"way/401957581","name":"Das Químicas","cat":"library","acc":"u","bld":"way/401957130","src":"osm"},"geometry":{"type":"Point","coordinates":[-46.727255,-23.566305]}},{"type":"Feature","properties":{"id":"way/402249874","cat":"parking","acc":"u","src":"osm"},"geometry":{"type":"Point","coordinates":[-46.720149,-23.557374]}},{"type":"Feature","properties":{"id":"way/402257907","cat":"parking","acc":"u","src":"osm"},"geometry":{"type":"Point","coordinates":[-46.721537,-23.557675]}},{"type":"Feature","properties":{"id":"way/402257908","cat":"parking","acc":"u","src":"osm"},"geometry":{"type":"Point","coordinates":[-46.721516,-23.557904]}},{"type":"Feature","properties":{"id":"way/402259492","cat":"parking","acc":"u","src":"osm"},"geometry":{"type":"Point","coordinates":[-46.725774,-23.556187]}},{"type":"Feature","properties":{"id":"way/402301497","cat":"culture","acc":"u","src":"osm"},"geometry":{"type":"Point","coordinates":[-46.724108,-23.559573]}},{"type":"Feature","properties":{"id":"way/403488346","cat":"park","acc":"u","src":"osm"},"geometry":{"type":"Point","coordinates":[-46.719669,-23.561698]}},{"type":"Feature","properties":{"id":"way/403738758","cat":"parking","acc":"u","src":"osm"},"geometry":{"type":"Point","coordinates":[-46.73173,-23.561722]}},{"type":"Feature","properties":{"id":"way/403748537","cat":"parking","acc":"u","src":"osm"},"geometry":{"type":"Point","coordinates":[-46.733084,-23.560558]}},{"type":"Feature","properties":{"id":"way/403749575","cat":"parking","acc":"u","src":"osm"},"geometry":{"type":"Point","coordinates":[-46.734096,-23.560747]}},{"type":"Feature","properties":{"id":"way/403886791","cat":"park","acc":"u","src":"osm"},"geometry":{"type":"Point","coordinates":[-46.73229,-23.561089]}},{"type":"Feature","properties":{"id":"way/403886792","cat":"park","acc":"u","src":"osm"},"geometry":{"type":"Point","coordinates":[-46.731808,-23.561152]}},{"type":"Feature","properties":{"id":"way/404149758","cat":"parking","acc":"u","src":"osm"},"geometry":{"type":"Point","coordinates":[-46.737278,-23.567486]}},{"type":"Feature","properties":{"id":"way/404150500","cat":"parking","acc":"u","src":"osm"},"geometry":{"type":"Point","coordinates":[-46.735894,-23.560162]}},{"type":"Feature","properties":{"id":"way/414276833","cat":"parking","acc":"u","src":"osm"},"geometry":{"type":"Point","coordinates":[-46.732143,-23.568693]}},{"type":"Feature","properties":{"id":"way/416547324","cat":"park","acc":"u","src":"osm"},"geometry":{"type":"Point","coordinates":[-46.723741,-23.555562]}},{"type":"Feature","properties":{"id":"way/416547325","cat":"park","acc":"u","src":"osm"},"geometry":{"type":"Point","coordinates":[-46.724319,-23.555384]}},{"type":"Feature","properties":{"id":"way/416547326","cat":"park","acc":"u","src":"osm"},"geometry":{"type":"Point","coordinates":[-46.724917,-23.558044]}},{"type":"Feature","properties":{"id":"way/416547327","cat":"parking","acc":"u","src":"osm"},"geometry":{"type":"Point","coordinates":[-46.724374,-23.555357]}},{"type":"Feature","properties":{"id":"way/416547329","cat":"parking","acc":"u","src":"osm"},"geometry":{"type":"Point","coordinates":[-46.724939,-23.558017]}},{"type":"Feature","properties":{"id":"way/416548130","cat":"park","acc":"u","src":"osm"},"geometry":{"type":"Point","coordinates":[-46.726241,-23.556655]}},{"type":"Feature","properties":{"id":"way/416551102","cat":"parking","acc":"u","src":"osm"},"geometry":{"type":"Point","coordinates":[-46.724365,-23.558171]}},{"type":"Feature","properties":{"id":"way/417628458","cat":"parking","acc":"u","src":"osm"},"geometry":{"type":"Point","coordinates":[-46.739666,-23.568989]}},{"type":"Feature","properties":{"id":"way/419268069","cat":"parking","acc":"u","src":"osm"},"geometry":{"type":"Point","coordinates":[-46.7416,-23.559687]}},{"type":"Feature","properties":{"id":"way/419268070","cat":"parking","acc":"u","src":"osm"},"geometry":{"type":"Point","coordinates":[-46.740843,-23.559687]}},{"type":"Feature","properties":{"id":"way/419268071","cat":"parking","acc":"u","src":"osm"},"geometry":{"type":"Point","coordinates":[-46.739994,-23.559665]}},{"type":"Feature","properties":{"id":"way/419351967","cat":"parking","acc":"u","src":"osm"},"geometry":{"type":"Point","coordinates":[-46.738413,-23.559871]}},{"type":"Feature","properties":{"id":"way/419356105","name":"Bolsão 19 - Sociais e Letras","cat":"parking","acc":"u","src":"osm"},"geometry":{"type":"Point","coordinates":[-46.725569,-23.562936]}},{"type":"Feature","properties":{"id":"way/419356106","cat":"parking","acc":"u","src":"osm"},"geometry":{"type":"Point","coordinates":[-46.736481,-23.560955]}},{"type":"Feature","properties":{"id":"way/419356112","cat":"parking","acc":"u","src":"osm"},"geometry":{"type":"Point","coordinates":[-46.723912,-23.563901]}},{"type":"Feature","properties":{"id":"way/419356114","cat":"parking","acc":"u","src":"osm"},"geometry":{"type":"Point","coordinates":[-46.737164,-23.559579]}},{"type":"Feature","properties":{"id":"way/419356115","cat":"parking","acc":"u","src":"osm"},"geometry":{"type":"Point","coordinates":[-46.723206,-23.564236]}},{"type":"Feature","properties":{"id":"way/419356534","cat":"parking","acc":"u","src":"osm"},"geometry":{"type":"Point","coordinates":[-46.740868,-23.566579]}},{"type":"Feature","properties":{"id":"way/419950616","cat":"parking","acc":"u","src":"osm"},"geometry":{"type":"Point","coordinates":[-46.729199,-23.561804]}},{"type":"Feature","properties":{"id":"way/419952506","cat":"parking","acc":"u","src":"osm"},"geometry":{"type":"Point","coordinates":[-46.730283,-23.560876]}},{"type":"Feature","properties":{"id":"way/419956330","name":"Restaurante do Viveiro","cat":"food","acc":"u","bld":"way/419956330","src":"osm"},"geometry":{"type":"Point","coordinates":[-46.731957,-23.562397]}},{"type":"Feature","properties":{"id":"way/419962310","cat":"parking","acc":"u","src":"osm"},"geometry":{"type":"Point","coordinates":[-46.730383,-23.563248]}},{"type":"Feature","properties":{"id":"way/419962312","cat":"parking","acc":"u","src":"osm"},"geometry":{"type":"Point","coordinates":[-46.729751,-23.563255]}},{"type":"Feature","properties":{"id":"way/419965463","cat":"parking","acc":"u","src":"osm"},"geometry":{"type":"Point","coordinates":[-46.730061,-23.564688]}},{"type":"Feature","properties":{"id":"way/419977083","cat":"parking","acc":"u","src":"osm"},"geometry":{"type":"Point","coordinates":[-46.731981,-23.558561]}},{"type":"Feature","properties":{"id":"way/419977513","cat":"parking","acc":"u","src":"osm"},"geometry":{"type":"Point","coordinates":[-46.730591,-23.559851]}},{"type":"Feature","properties":{"id":"way/419977514","cat":"parking","acc":"u","src":"osm"},"geometry":{"type":"Point","coordinates":[-46.730844,-23.559511]}},{"type":"Feature","properties":{"id":"way/419978228","cat":"parking","acc":"u","src":"osm"},"geometry":{"type":"Point","coordinates":[-46.726404,-23.558322]}},{"type":"Feature","properties":{"id":"way/419978229","cat":"parking","acc":"u","src":"osm"},"geometry":{"type":"Point","coordinates":[-46.726199,-23.559046]}},{"type":"Feature","properties":{"id":"way/419982048","cat":"sport","acc":"u","src":"osm"},"geometry":{"type":"Point","coordinates":[-46.737186,-23.562416]}},{"type":"Feature","properties":{"id":"way/422115358","cat":"parking","acc":"u","src":"osm"},"geometry":{"type":"Point","coordinates":[-46.726542,-23.554529]}},{"type":"Feature","properties":{"id":"way/422116570","cat":"park","acc":"u","src":"osm"},"geometry":{"type":"Point","coordinates":[-46.729442,-23.553712]}},{"type":"Feature","properties":{"id":"way/422116573","cat":"park","acc":"u","src":"osm"},"geometry":{"type":"Point","coordinates":[-46.729207,-23.553827]}},{"type":"Feature","properties":{"id":"way/422116575","cat":"park","acc":"u","src":"osm"},"geometry":{"type":"Point","coordinates":[-46.728826,-23.553777]}},{"type":"Feature","properties":{"id":"way/422116746","cat":"park","acc":"u","src":"osm"},"geometry":{"type":"Point","coordinates":[-46.730761,-23.553355]}},{"type":"Feature","properties":{"id":"way/422116748","cat":"park","acc":"u","src":"osm"},"geometry":{"type":"Point","coordinates":[-46.730575,-23.553032]}},{"type":"Feature","properties":{"id":"way/422126327","cat":"bike_parking","acc":"u","bld":"way/422126327","src":"osm"},"geometry":{"type":"Point","coordinates":[-46.729992,-23.558354]}},{"type":"Feature","properties":{"id":"way/422943781","cat":"park","acc":"u","src":"osm"},"geometry":{"type":"Point","coordinates":[-46.725936,-23.558349]}},{"type":"Feature","properties":{"id":"way/422943782","cat":"bike_parking","acc":"u","src":"osm"},"geometry":{"type":"Point","coordinates":[-46.725658,-23.558205]}},{"type":"Feature","properties":{"id":"way/422943955","cat":"parking","acc":"u","bld":"way/422943955","src":"osm"},"geometry":{"type":"Point","coordinates":[-46.73006,-23.558321]}},{"type":"Feature","properties":{"id":"way/422944962","cat":"parking","acc":"u","src":"osm"},"geometry":{"type":"Point","coordinates":[-46.724212,-23.556641]}},{"type":"Feature","properties":{"id":"way/422958563","cat":"sport","acc":"u","src":"osm"},"geometry":{"type":"Point","coordinates":[-46.716486,-23.559798]}},{"type":"Feature","properties":{"id":"way/422958564","cat":"sport","acc":"u","src":"osm"},"geometry":{"type":"Point","coordinates":[-46.716361,-23.559335]}},{"type":"Feature","properties":{"id":"way/422958838","cat":"sport","acc":"u","src":"osm"},"geometry":{"type":"Point","coordinates":[-46.71658,-23.560424]}},{"type":"Feature","properties":{"id":"way/422959124","cat":"sport","acc":"u","src":"osm"},"geometry":{"type":"Point","coordinates":[-46.714222,-23.561672]}},{"type":"Feature","properties":{"id":"way/422974615","cat":"sport","acc":"u","src":"osm"},"geometry":{"type":"Point","coordinates":[-46.733398,-23.562188]}},{"type":"Feature","properties":{"id":"way/422974759","cat":"parking","acc":"u","src":"osm"},"geometry":{"type":"Point","coordinates":[-46.733685,-23.562036]}},{"type":"Feature","properties":{"id":"way/422975428","cat":"sport","acc":"u","src":"osm"},"geometry":{"type":"Point","coordinates":[-46.714518,-23.560347]}},{"type":"Feature","properties":{"id":"way/422975429","cat":"sport","acc":"u","src":"osm"},"geometry":{"type":"Point","coordinates":[-46.71458,-23.560693]}},{"type":"Feature","properties":{"id":"way/422975430","cat":"sport","acc":"u","src":"osm"},"geometry":{"type":"Point","coordinates":[-46.714463,-23.560014]}},{"type":"Feature","properties":{"id":"way/422975730","cat":"sport","acc":"u","src":"osm"},"geometry":{"type":"Point","coordinates":[-46.718318,-23.558859]}},{"type":"Feature","properties":{"id":"way/424771598","name":"Sindicato dos Trabalhadores da USP","cat":"other","acc":"u","bld":"way/424771598","src":"osm"},"geometry":{"type":"Point","coordinates":[-46.726214,-23.558006]}},{"type":"Feature","properties":{"id":"way/426889741","cat":"parking","acc":"u","bld":"relation/2062859","src":"osm"},"geometry":{"type":"Point","coordinates":[-46.730596,-23.552762]}},{"type":"Feature","properties":{"id":"way/426889745","cat":"parking","acc":"u","src":"osm"},"geometry":{"type":"Point","coordinates":[-46.730259,-23.552601]}},{"type":"Feature","properties":{"id":"way/432118289","name":"Hospital Veterinário","cat":"health","acc":"u","oh":"Mo-Tu 08:00-13:00; Th-Fr 08:00-13:00; We 09:00-13:00; PH off","src":"osm"},"geometry":{"type":"Point","coordinates":[-46.73971,-23.569393]}},{"type":"Feature","properties":{"id":"way/440412189","cat":"parking","acc":"u","src":"osm"},"geometry":{"type":"Point","coordinates":[-46.730719,-23.567512]}},{"type":"Feature","properties":{"id":"way/479389975","cat":"parking","acc":"u","src":"osm"},"geometry":{"type":"Point","coordinates":[-46.740401,-23.568895]}},{"type":"Feature","properties":{"id":"way/479389976","cat":"parking","acc":"u","src":"osm"},"geometry":{"type":"Point","coordinates":[-46.740694,-23.569079]}},{"type":"Feature","properties":{"id":"way/479390087","cat":"parking","acc":"u","src":"osm"},"geometry":{"type":"Point","coordinates":[-46.739548,-23.568849]}},{"type":"Feature","properties":{"id":"way/479896059","name":"Serpentário","cat":"culture","acc":"u","oh":"Mo-Su 07:00-18:00","src":"osm"},"geometry":{"type":"Point","coordinates":[-46.718207,-23.567293]}},{"type":"Feature","properties":{"id":"way/495777429","cat":"parking","acc":"u","src":"osm"},"geometry":{"type":"Point","coordinates":[-46.73955,-23.570835]}},{"type":"Feature","properties":{"id":"way/572881821","cat":"park","acc":"u","src":"osm"},"geometry":{"type":"Point","coordinates":[-46.733674,-23.55943]}},{"type":"Feature","properties":{"id":"way/572881822","cat":"park","acc":"u","src":"osm"},"geometry":{"type":"Point","coordinates":[-46.734385,-23.559357]}},{"type":"Feature","properties":{"id":"way/572881823","cat":"park","acc":"u","src":"osm"},"geometry":{"type":"Point","coordinates":[-46.734146,-23.559381]}},{"type":"Feature","properties":{"id":"way/572891176","name":"Biblioteca IAG-USP","cat":"library","acc":"u","bld":"way/401961914","oh":"Mo-Fr 08:00-19:20","src":"osm"},"geometry":{"type":"Point","coordinates":[-46.733601,-23.559067]}},{"type":"Feature","properties":{"id":"way/590635180","cat":"parking","acc":"u","src":"osm"},"geometry":{"type":"Point","coordinates":[-46.719594,-23.566751]}},{"type":"Feature","properties":{"id":"way/590862593","cat":"parking","acc":"u","src":"osm"},"geometry":{"type":"Point","coordinates":[-46.7199,-23.565061]}},{"type":"Feature","properties":{"id":"way/663409618","cat":"parking","acc":"u","src":"osm"},"geometry":{"type":"Point","coordinates":[-46.731627,-23.559097]}},{"type":"Feature","properties":{"id":"way/668589852","cat":"parking","acc":"u","src":"osm"},"geometry":{"type":"Point","coordinates":[-46.723105,-23.560392]}},{"type":"Feature","properties":{"id":"way/668589853","cat":"parking","acc":"u","src":"osm"},"geometry":{"type":"Point","coordinates":[-46.723145,-23.560825]}},{"type":"Feature","properties":{"id":"way/690313820","cat":"park","acc":"u","bld":"way/401315065","src":"osm"},"geometry":{"type":"Point","coordinates":[-46.730603,-23.565741]}},{"type":"Feature","properties":{"id":"way/690616837","cat":"park","acc":"u","src":"osm"},"geometry":{"type":"Point","coordinates":[-46.728189,-23.557406]}},{"type":"Feature","properties":{"id":"way/691547359","cat":"parking","acc":"u","src":"osm"},"geometry":{"type":"Point","coordinates":[-46.725251,-23.558477]}},{"type":"Feature","properties":{"id":"way/692092042","cat":"parking","acc":"u","src":"osm"},"geometry":{"type":"Point","coordinates":[-46.716103,-23.562574]}},{"type":"Feature","properties":{"id":"way/715582154","name":"Museu Histórico","cat":"culture","acc":"u","bld":"way/715582154","oh":"Tu-Sa 09:00-16:45","src":"osm"},"geometry":{"type":"Point","coordinates":[-46.719916,-23.564483]}},{"type":"Feature","properties":{"id":"way/728259709","cat":"park","acc":"u","src":"osm"},"geometry":{"type":"Point","coordinates":[-46.730813,-23.564897]}},{"type":"Feature","properties":{"id":"way/728259712","cat":"park","acc":"u","src":"osm"},"geometry":{"type":"Point","coordinates":[-46.726014,-23.565444]}},{"type":"Feature","properties":{"id":"way/733303732","cat":"parking","acc":"u","src":"osm"},"geometry":{"type":"Point","coordinates":[-46.741786,-23.559032]}},{"type":"Feature","properties":{"id":"way/733303733","cat":"parking","acc":"u","src":"osm"},"geometry":{"type":"Point","coordinates":[-46.739861,-23.558821]}},{"type":"Feature","properties":{"id":"way/733303734","cat":"parking","acc":"u","src":"osm"},"geometry":{"type":"Point","coordinates":[-46.740288,-23.558729]}},{"type":"Feature","properties":{"id":"way/733303735","cat":"parking","acc":"u","src":"osm"},"geometry":{"type":"Point","coordinates":[-46.742689,-23.558336]}},{"type":"Feature","properties":{"id":"way/733304243","cat":"sport","acc":"u","src":"osm"},"geometry":{"type":"Point","coordinates":[-46.742291,-23.558506]}},{"type":"Feature","properties":{"id":"way/73947597","name":"Museu Biológico","cat":"culture","acc":"u","bld":"way/73947597","oh":"Tu-Sa 09:00-16:45","src":"osm"},"geometry":{"type":"Point","coordinates":[-46.718561,-23.566337]}},{"type":"Feature","properties":{"id":"way/80789840","name":"Parque Esporte para Todos","cat":"park","acc":"u","src":"osm"},"geometry":{"type":"Point","coordinates":[-46.737115,-23.561198]}},{"type":"Feature","properties":{"id":"way/860893485","cat":"parking","acc":"u","src":"osm"},"geometry":{"type":"Point","coordinates":[-46.734418,-23.558256]}},{"type":"Feature","properties":{"id":"way/860893486","cat":"parking","acc":"u","src":"osm"},"geometry":{"type":"Point","coordinates":[-46.734392,-23.558328]}},{"type":"Feature","properties":{"id":"way/864746857","name":"Praça do Relógio","cat":"park","acc":"u","src":"osm"},"geometry":{"type":"Point","coordinates":[-46.723658,-23.558711]}}]}