{"type":"FeatureCollection","features":[{"type":"Feature","properties":{"id":"120010328","name":"Educação","ref":"Av. Da Universidade, 308 Ref.: Pc Professor Rubiao Meira/ Pc Professor Reinaldo Porchart","lines":"177H-10,701U-10,702U-10,7181-10,7411-10,7725-10,8012-10,8083-10,8084-10,8086-10,809U-10","shelter":true,"acc":"u"},"geometry":{"type":"Point","coordinates":[-46.716019,-23.563299]}},{"type":"Feature","properties":{"id":"120010329","name":"CrUSP II","ref":"Pça. Da Reitoria Ref.: R Da Reitoria/ Pc Professor Rubiao Meira","lines":"177H-10,701U-10,702U-10,7181-10,7411-10,7725-10,8012-10,8083-10,8084-10,809U-10","shelter":true,"acc":"u"},"geometry":{"type":"Point","coordinates":[-46.72026,-23.560523]}},{"type":"Feature","properties":{"id":"120010330","name":"Administração Instituto Butantã","ref":"Av. Da Universidade Ref.: Pc Professor Rubiao Meira/ Pc Professor Reinaldo Porchart","lines":"177H-10,701U-10,702U-10,7181-10,7411-10,7725-10,8022-10,8083-10,8084-10,8086-10,809U-10","shelter":true,"acc":"u"},"geometry":{"type":"Point","coordinates":[-46.716266,-23.563603]}},{"type":"Feature","properties":{"id":"120010331","name":"Academia De Polícia","ref":"Pça. Prof. Reinaldo Porchat Ref.: Av Da Universidade/ Av Afranio Peixoto","lines":"177H-10,701U-10,702U-10,7181-10,7411-10,7725-10,8012-10,8022-10,8082-10,8083-10,8084-10,8086-10,809U-10","shelter":true,"acc":"u"},"geometry":{"type":"Point","coordinates":[-46.713199,-23.565429]}},{"type":"Feature","properties":{"id":"120010332","name":"História E Geografia I","ref":"Av. Prof. Lineu Prestes, 338 Ref.: Pc Professor Jorge Americano/ R Do Lago","lines":"701U-10,702U-10,7725-10,8022-10,8083-10","shelter":true,"acc":"u"},"geometry":{"type":"Point","coordinates":[-46.722581,-23.564087]}},{"type":"Feature","properties":{"id":"120010333","name":"Farmácia E Química I","ref":"Av. Prof. Lineu Prestes, 748 Ref.: Pc Professor Jorge Americano/ R Do Lago","lines":"701U-10,702U-10,7725-10,8022-10,8083-10","shelter":true,"acc":"u"},"geometry":{"type":"Point","coordinates":[-46.72486,-23.565346]}},{"type":"Feature","properties":{"id":"120010334","name":"Parada Biblioteca Farmácia E Química","ref":"Av. Prof. Lineu Prestes, 950 Ref.: Pc Professor Jorge Americano/ R Do Lago","lines":"701U-10,702U-10,7725-10,8022-10,8083-10","shelter":true,"acc":"u"},"geometry":{"type":"Point","coordinates":[-46.727019,-23.566488]}},{"type":"Feature","properties":{"id":"120010335","name":"Rua Do Lago","ref":"Av. Prof. Lineu Prestes Ref.: R Do Lago/ R Do Matao","lines":"701U-10,702U-10,7725-10,8022-10,8083-10","shelter":true,"acc":"u"},"geometry":{"type":"Point","coordinates":[-46.728973,-23.567542]}},{"type":"Feature","properties":{"id":"120010336","name":"Vila Indiana","ref":"Av. Prof. Lineu Prestes, 1374 Ref.: R Francisco Dos Santos/ R Do Matao","lines":"701U-10,702U-10,7725-10,8012-10,8022-10,8082-10,8083-10,8085-10","shelter":true,"acc":"u"},"geometry":{"type":"Point","coordinates":[-46.731898,-23.568245]}},{"type":"Feature","properties":{"id":"120010337","name":"Pesquisas Nucleares","ref":"Av. Prof. Lineu Prestes, 2242 Ref.: R Clemente Pontes/ Av Professor Ernesto De Morais Leme","lines":"701U-10,702U-10,7725-10,8022-10,8083-10,8085-10","acc":"u"},"geometry":{"type":"Point","coordinates":[-46.738512,-23.566057]}},{"type":"Feature","properties":{"id":"120010338","name":"Hospital Universitário II","ref":"Av. Prof. Lineu Prestes, 2468 Ref.: R Clemente Pontes/ Av Professor Ernesto De Morais Leme","lines":"701U-10,702U-10,7725-10,8022-10,8083-10,8085-10","acc":"u"},"geometry":{"type":"Point","coordinates":[-46.740723,-23.563891]}},{"type":"Feature","properties":{"id":"120010339","name":"Hospital Universitário I","ref":"Av. Prof. Lineu Prestes, 2565 Ref.: R Clemente Pontes/ Av Professor Ernesto De Morais Leme","lines":"701U-10,702U-10,7725-10,8012-10,8022-10,8083-10,8085-10","acc":"u"},"geometry":{"type":"Point","coordinates":[-46.741416,-23.563786]}},{"type":"Feature","properties":{"id":"120010340","name":"Biomédicas III","ref":"Av. Prof. Lineu Prestes, 2415 Ref.: R Clemente Pontes/ Av Professor Ernesto De Morais Leme","lines":"701U-10,702U-10,7725-10,8012-10,8022-10,8083-10,8085-10","acc":"u"},"geometry":{"type":"Point","coordinates":[-46.739707,-23.564737]}},{"type":"Feature","properties":{"id":"120010341","name":"Odontologia","ref":"Av. Prof. Lineu Prestes, 2227 Ref.: R Clemente Pontes/ Av Professor Ernesto De Morais Leme - Edifíci","lines":"701U-10,702U-10,7725-10,8012-10,8022-10,8083-10,8085-10","shelter":true,"acc":"u"},"geometry":{"type":"Point","coordinates":[-46.73838,-23.566677]}},{"type":"Feature","properties":{"id":"120010342","name":"Biomédicas I E II","ref":"Av. Prof. Lineu Prestes, 1371 Ref.: R Francisco Dos Santos/ R Do Matao","lines":"701U-10,702U-10,7725-10,8012-10,8022-10,8082-10,8083-10,8085-10","shelter":true,"acc":"u"},"geometry":{"type":"Point","coordinates":[-46.731683,-23.568607]}},{"type":"Feature","properties":{"id":"120010343","name":"Seade Etec","ref":"Av. Prof. Lineu Prestes, 913 Ref.: Pc Professor Jorge Americano/ R Do Lago","lines":"701U-10,702U-10,7725-10,8022-10,8083-10","shelter":true,"acc":"u"},"geometry":{"type":"Point","coordinates":[-46.725485,-23.565988]}},{"type":"Feature","properties":{"id":"120010344","name":"História E Geografia II","ref":"Av. Prof. Lineu Prestes, 338 Ref.: Pc Professor Jorge Americano/ R Do Lago","lines":"701U-10,702U-10,7725-10,8022-10,8083-10","shelter":true,"acc":"u"},"geometry":{"type":"Point","coordinates":[-46.722204,-23.564197]}},{"type":"Feature","properties":{"id":"120010345","name":"Museu De Arqueologia","ref":"Av. Prof. Almeida Prado, 1466 Ref.: Av Professor Ernesto De Morais Leme/ Pc Da Prefeitura","lines":"701U-10,702U-10,7725-10,8012-10,8083-10,8085-10","shelter":true,"acc":"u"},"geometry":{"type":"Point","coordinates":[-46.742161,-23.559711]}},{"type":"Feature","properties":{"id":"120010346","name":"São Remo","ref":"Av. Prof. Almeida Prado, 1466 Ref.: Av Professor Ernesto De Morais Leme/ Pc Da Prefeitura","lines":"701U-10,702U-10,7725-10,8022-10,8083-10,8085-10","shelter":true,"acc":"u"},"geometry":{"type":"Point","coordinates":[-46.741895,-23.55987]}},{"type":"Feature","properties":{"id":"120010347","name":"Prefeitura Do Campus II","ref":"Av. Prof. Almeida Prado Ref.: Av Professor Ernesto De Morais Leme","lines":"701U-10,702U-10,7725-10,8022-10,8083-10,8085-10","shelter":true,"acc":"u"},"geometry":{"type":"Point","coordinates":[-46.739395,-23.559839]}},{"type":"Feature","properties":{"id":"120010348","name":"Esporte Para Todos","ref":"R. Do Matão Ref.: Pc Da Prefeitura/ R V","lines":"8012-10,8082-10","shelter":true,"acc":"u"},"geometry":{"type":"Point","coordinates":[-46.737677,-23.559479]}},{"type":"Feature","properties":{"id":"120010349","name":"Física","ref":"R. Do Matão Ref.: Pc Da Prefeitura/ R V","lines":"701U-10,702U-10,8022-10,8082-10","shelter":true,"acc":"u"},"geometry":{"type":"Point","coordinates":[-46.734832,-23.559667]}},{"type":"Feature","properties":{"id":"120010350","name":"Astronomia E Geofísica","ref":"R. Do Matão Ref.: Pc Da Prefeitura/ R V","lines":"8012-10,8082-10","shelter":true,"acc":"u"},"geometry":{"type":"Point","coordinates":[-46.734486,-23.559661]}},{"type":"Feature","properties":{"id":"120010351","name":"Arquitetura Urbanismo Design II","ref":"Av. Prof. Luciano Gualberto Ref.: Trav. V","lines":"177H-10,701U-10,702U-10,7181-10,7411-10,7725-10,8022-10,8084-10,8085-10,8086-10,809U-10","shelter":true,"acc":"u"},"geometry":{"type":"Point","coordinates":[-46.729933,-23.559319]}},{"type":"Feature","properties":{"id":"120010352","name":"Geociências","ref":"Av. Prof. Luciano Gualberto Ref.: Av Professor Lucio Martins Rodrigues/ R Do Anfiteatro","lines":"177H-10,7181-10,7411-10,8022-10,8084-10,8085-10,8086-10,809U-10","shelter":true,"acc":"u"},"geometry":{"type":"Point","coordinates":[-46.727222,-23.560651]}},{"type":"Feature","properties":{"id":"120010353","name":"Letras","ref":"Av. Prof. Luciano Gualberto, 315 Ref.: Av Professor Lucio Martins Rodrigues/ R Do Anfiteatro","lines":"177H-10,7181-10,7411-10,8022-10,8084-10,8085-10,8086-10,809U-10","shelter":true,"acc":"u"},"geometry":{"type":"Point","coordinates":[-46.724361,-23.562058]}},{"type":"Feature","properties":{"id":"120010354","name":"Biblioteca Brasiliana","ref":"Av. Prof. Luciano Gualberto Ref.: R Do Anfiteatro/ Pc Professor Jorge Americano","lines":"177H-10,7181-10,7411-10,8012-10,8084-10,8085-10,8086-10,809U-10","shelter":true,"acc":"y"},"geometry":{"type":"Point","coordinates":[-46.723045,-23.562368]}},{"type":"Feature","properties":{"id":"120010355","name":"Reitoria","ref":"Av. Prof. Luciano Gualberto Ref.: Av Professor Lucio Martins Rodrigues/ R Do Anfiteatro","lines":"177H-10,7181-10,7411-10,8012-10,8084-10,8085-10,8086-10,809U-10","shelter":true,"acc":"u"},"geometry":{"type":"Point","coordinates":[-46.727336,-23.560157]}},{"type":"Feature","properties":{"id":"120010356","name":"Economia E Administração","ref":"Av. Prof. Luciano Gualberto Ref.: R V/ Av Professor Lucio Martins Rodrigues","lines":"177H-10,701U-10,702U-10,7181-10,7411-10,7725-10,8012-10,8084-10,8085-10,8086-10,809U-10","shelter":true,"acc":"u"},"geometry":{"type":"Point","coordinates":[-46.729803,-23.558951]}},{"type":"Feature","properties":{"id":"120010357","name":"Biênio","ref":"Av. Prof. Luciano Gualberto Ref.: R V/ Pc Ramos De Azevedo","lines":"177H-10,701U-10,702U-10,7181-10,7411-10,7725-10,8012-10,8084-10,8085-10,8086-10,809U-10","shelter":true,"acc":"u"},"geometry":{"type":"Point","coordinates":[-46.732322,-23.557818]}},{"type":"Feature","properties":{"id":"120010358","name":"Energia E Ambiente","ref":"Av. Prof. Luciano Gualberto Ref.: R V/ Pc Ramos De Azevedo","lines":"177H-10,7181-10,7411-10,7725-10,8022-10,8084-10,8085-10,8086-10,809U-10","shelter":true,"acc":"u"},"geometry":{"type":"Point","coordinates":[-46.732678,-23.557971]}},{"type":"Feature","properties":{"id":"120010359","name":"Prefeitura Do Campus I","ref":"Av. Prof. Almeida Prado Ref.: Pc Da Prefeitura","lines":"701U-10,702U-10,7725-10,8012-10,8082-10,8085-10","shelter":true,"acc":"u"},"geometry":{"type":"Point","coordinates":[-46.737726,-23.558941]}},{"type":"Feature","properties":{"id":"120010360","name":"Pesquisas Tecnológicas","ref":"Av. Prof. Almeida Prado Ref.: Av Professor Mello De Morais/ Pc Ramos De Azevedo","lines":"177H-10,7181-10,7411-10,8022-10,8082-10,8086-10,809U-10","shelter":true,"acc":"u"},"geometry":{"type":"Point","coordinates":[-46.73379,-23.556039]}},{"type":"Feature","properties":{"id":"120010361","name":"Parada Civil","ref":"Av. Prof. Almeida Prado Ref.: Av Professor Mello De Morais/ Pc Ramos De Azevedo","lines":"177H-10,7181-10,7411-10,8012-10,8082-10,8086-10,809U-10","shelter":true,"acc":"u"},"geometry":{"type":"Point","coordinates":[-46.733507,-23.555743]}},{"type":"Feature","properties":{"id":"120010363","name":"Terminal USP (cidade Universitária)","ref":"Term. USP (cidade Universitária) Ref.: Av Professor Mello De Morais/ Pc Ramos De Azevedo - Term. Usp","lines":"7411-10","acc":"u"},"geometry":{"type":"Point","coordinates":[-46.732192,-23.552542]}},{"type":"Feature","properties":{"id":"120010364","name":"Terminal USP (cidade Universitária)","ref":"Term. USP (cidade Universitária) Ref.: Av Professor Mello De Morais/ Pc Ramos De Azevedo","lines":"701U-10","acc":"u"},"geometry":{"type":"Point","coordinates":[-46.732154,-23.552474]}},{"type":"Feature","properties":{"id":"120010365","name":"Terminal USP (cidade Universitária)","ref":"Term. USP (cidade Universitária) Ref.: Av Professor Mello De Morais/ Pc Ramos De Azevedo","lines":"177H-10","acc":"u"},"geometry":{"type":"Point","coordinates":[-46.732118,-23.552416]}},{"type":"Feature","properties":{"id":"120010366","name":"Terminal USP (cidade Universitária)","ref":"Term. USP (cidade Universitária) Ref.: Av Professor Mello De Morais/ Pc Ramos De Azevedo","lines":"702U-10","acc":"u"},"geometry":{"type":"Point","coordinates":[-46.732089,-23.552379]}},{"type":"Feature","properties":{"id":"120010367","name":"Terminal USP (cidade Universitária)","ref":"Term. USP (cidade Universitária) Ref.: Av Professor Mello De Morais/ Pc Ramos De Azevedo","lines":"7181-10","acc":"u"},"geometry":{"type":"Point","coordinates":[-46.732051,-23.552309]}},{"type":"Feature","properties":{"id":"120010368","name":"Mecânica I","ref":"R. Prof. Mello Moraes Ref.: Av Professor Almeida Prado/ Av Professor Lucio Martins Rodrigues","lines":"701U-10,702U-10,7725-10,8012-10,8082-10","shelter":true,"acc":"u"},"geometry":{"type":"Point","coordinates":[-46.728708,-23.552854]}},{"type":"Feature","properties":{"id":"120010369","name":"Praça Do Relógio","ref":"R. Prof. Mello Moraes Ref.: Av Professor Lucio Martins Rodrigues","lines":"701U-10,702U-10,7725-10,8012-10,8082-10","shelter":true,"acc":"u"},"geometry":{"type":"Point","coordinates":[-46.724043,-23.555317]}},{"type":"Feature","properties":{"id":"120010370","name":"Psicologia II","ref":"R. Prof. Mello Moraes Ref.: R Do Anfiteatro","lines":"701U-10,702U-10,7725-10,8022-10,8082-10","shelter":true,"acc":"u"},"geometry":{"type":"Point","coordinates":[-46.724769,-23.55446]}},{"type":"Feature","properties":{"id":"120010371","name":"Mecânica II","ref":"R. Prof. Mello Moraes Ref.: Av Professor Lucio Martins Rodrigues","lines":"701U-10,702U-10,7725-10,8022-10,8082-10","shelter":true,"acc":"u"},"geometry":{"type":"Point","coordinates":[-46.728129,-23.552761]}},{"type":"Feature","properties":{"id":"120010372","name":"Hidráulica","ref":"Av. Prof. Lúcio Martins Rodrigues Ref.: Av Professor Luciano Gualberto/ Av Professor Mello De Morais","lines":"701U-10,702U-10,7725-10,8012-10,8082-10","shelter":true,"acc":"u"},"geometry":{"type":"Point","coordinates":[-46.726306,-23.556162]}},{"type":"Feature","properties":{"id":"120010373","name":"Inova USP","ref":"Av. Prof. Lúcio Martins Rodrigues Ref.: Av Professor Luciano Gualberto/ Av Professor Mello De Morais","lines":"701U-10,702U-10,7725-10,8012-10,8082-10","shelter":true,"acc":"u"},"geometry":{"type":"Point","coordinates":[-46.727255,-23.557821]}},{"type":"Feature","properties":{"id":"120010374","name":"Comunicações E Artes","ref":"Av. Prof. Lúcio Martins Rodrigues Ref.: Av Professor Luciano Gualberto/ Av Professor Mello De Morais","lines":"701U-10,702U-10,7725-10,8012-10,8082-10","shelter":true,"acc":"u"},"geometry":{"type":"Point","coordinates":[-46.726901,-23.557807]}},{"type":"Feature","properties":{"id":"120010375","name":"Psicologia I","ref":"Av. Prof. Lúcio Martins Rodrigues Ref.: Av Professor Luciano Gualberto","lines":"701U-10,702U-10,7725-10,8012-10,8082-10","shelter":true,"acc":"u"},"geometry":{"type":"Point","coordinates":[-46.725952,-23.556097]}},{"type":"Feature","properties":{"id":"120010378","name":"Educação Física II","ref":"R. Prof. Mello Moraes Ref.: Pc Professor Reinaldo Porchart/ R Do Anfiteatro","lines":"8022-10,8082-10","shelter":true,"acc":"u"},"geometry":{"type":"Point","coordinates":[-46.712721,-23.563621]}},{"type":"Feature","properties":{"id":"120015861","name":"Av. Afrânio Peixoto, 157","ref":"Ref.: R Valdomiro Guilherme De Campos/ R Gaspar Moreira","lines":"177H-10,701U-10,702U-10,7181-10,7411-10,8012-10,8022-10,8082-10,8083-10,8084-10,908T-10,N742-11","acc":"u"},"geometry":{"type":"Point","coordinates":[-46.710334,-23.566158]}},{"type":"Feature","properties":{"id":"120015862","name":"Av. Afrânio Peixoto, 157","ref":"Ref.: R Valdomiro Guilherme De Campos/ R Gaspar Moreira","lines":"177H-10,701U-10,702U-10,7181-10,7411-10,8012-10,8022-10,8082-10,8083-10,8084-10,908T-10,N742-11","acc":"u"},"geometry":{"type":"Point","coordinates":[-46.710496,-23.566086]}},{"type":"Feature","properties":{"id":"1207032","name":"Cultura Japonesa","ref":"Av. Prof. Lineu Prestes, 159 Ref.: Av. Da Universidade","lines":"177H-10,701U-10,702U-10,7181-10,7411-10,7725-10,8022-10,8083-10,8084-10,8086-10,809U-10","shelter":true,"acc":"y"},"geometry":{"type":"Point","coordinates":[-46.719542,-23.562835]}},{"type":"Feature","properties":{"id":"1207041","name":"Biociências I","ref":"R. Do Matão, 278 Ref.: Rua Cidade Universitária","lines":"8022-10,8082-10","acc":"u"},"geometry":{"type":"Point","coordinates":[-46.73041,-23.566507]}},{"type":"Feature","properties":{"id":"1207042","name":"Biociências II","ref":"R. Do Matão, 278 Ref.: 277 Av Proflineu Prestes","lines":"8012-10,8082-10","shelter":true,"acc":"y"},"geometry":{"type":"Point","coordinates":[-46.730232,-23.566309]}},{"type":"Feature","properties":{"id":"1211268","name":"Arquitetura Urbanismo Design I","ref":"R. Do Matão Ref.: Rua Do Lago","lines":"8012-10,8082-10","shelter":true,"acc":"y"},"geometry":{"type":"Point","coordinates":[-46.730883,-23.560674]}},{"type":"Feature","properties":{"id":"1211269","name":"Oceanográfico","ref":"R. Do Matão Ref.: Oceonográfico","lines":"8022-10,8082-10","shelter":true,"acc":"y"},"geometry":{"type":"Point","coordinates":[-46.730869,-23.560829]}},{"type":"Feature","properties":{"id":"1211359","name":"Terminal Metrô Butantã","lines":"8022-10,8082-10","acc":"u"},"geometry":{"type":"Point","coordinates":[-46.708796,-23.571891]}},{"type":"Feature","properties":{"id":"1211364","name":"Av. Dr. Vital Brasil, 569","ref":"Ref.: Rua Camargo","lines":"177H-10,701U-10,702U-10,715M-10,719R-10,7411-10,775A-10,775V-10,778J-10,8012-10,8021-10,8022-10,8027-10,8082-10,8083-10,8084-10,809R-10,809V-10,8705-10,8707-10","acc":"u"},"geometry":{"type":"Point","coordinates":[-46.70966,-23.570983]}},{"type":"Feature","properties":{"id":"1211373","name":"Terminal Metrô Butantã","ref":"Term. Metrô Butantã Ref.: Acesso Av. Dr. Vital Brasil","lines":"8083-10,N801-11","acc":"u"},"geometry":{"type":"Point","coordinates":[-46.708304,-23.571884]}},{"type":"Feature","properties":{"id":"1211376","name":"Terminal USP (cidade Universitária)","ref":"Term. USP (cidade Universitária) Ref.: Av. Escola Politécnica","lines":"809U-10","acc":"u"},"geometry":{"type":"Point","coordinates":[-46.732017,-23.552258]}},{"type":"Feature","properties":{"id":"1211391","name":"Terminal Metrô Butantã","ref":"Term. Metrô Butantã Ref.: Plataforma A - Acesso À R. Camargo","lines":"8012-10,8084-10,N839-11","acc":"u"},"geometry":{"type":"Point","coordinates":[-46.709314,-23.571713]}},{"type":"Feature","properties":{"id":"1211395","name":"Educação Física I","ref":"R. Prof. Mello Moraes Ref.: Praça Prof. Reinaldo Porchat","lines":"8012-10,8082-10","shelter":true,"acc":"y"},"geometry":{"type":"Point","coordinates":[-46.713094,-23.564346]}},{"type":"Feature","properties":{"id":"1211396","name":"Cptm Cidade Universitária I","ref":"R. Prof. Mello Moraes","lines":"8012-10,8082-10","acc":"u"},"geometry":{"type":"Point","coordinates":[-46.713219,-23.561744]}},{"type":"Feature","properties":{"id":"1211397","name":"Cptm Cidade Universitária II","ref":"R. Prof. Mello Moraes, 484","lines":"8022-10,8082-10,8085-10","acc":"u"},"geometry":{"type":"Point","coordinates":[-46.712868,-23.561317]}},{"type":"Feature","properties":{"id":"1211398","name":"CrUSP I","ref":"R. Prof. Mello Moraes, 1473 Ref.: Travessa 8","lines":"8012-10,8082-10,8085-10","shelter":true,"acc":"y"},"geometry":{"type":"Point","coordinates":[-46.719787,-23.557467]}},{"type":"Feature","properties":{"id":"1211399","name":"Raia Olímpica","ref":"R. Prof. Mello Moraes, 900 Ref.: R. Prof. Mello Moraes","lines":"8022-10,8082-10,8085-10","shelter":true,"acc":"y"},"geometry":{"type":"Point","coordinates":[-46.720517,-23.556683]}},{"type":"Feature","properties":{"id":"1211412","name":"R. Prof. Orlando Marques Paiva","ref":"R. Prof. Orlando Marques Paiva Ref.: Term. USP - Portaria 3","lines":"8012-10,8082-10,8085-10","acc":"u"},"geometry":{"type":"Point","coordinates":[-46.740378,-23.567996]}},{"type":"Feature","properties":{"id":"1211419","name":"Pça. Vicente Rodrigues","ref":"Ref.: Rua Coronel Palimércio De Rezende","lines":"177H-10,701U-10,702U-10,7411-10,8012-10,8022-10,8082-10,8083-10,8084-10,809L-10,N836-11","acc":"u"},"geometry":{"type":"Point","coordinates":[-46.708164,-23.568559]}},{"type":"Feature","properties":{"id":"1211421","name":"Av. Afrânio Peixoto, 401","ref":"Ref.: Rua Modesto Tavares De Lima","lines":"177H-10,701U-10,702U-10,7181-10,7411-10,8012-10,8022-10,8082-10,8083-10,8084-10,908T-10,N742-11","acc":"u"},"geometry":{"type":"Point","coordinates":[-46.708737,-23.566916]}},{"type":"Feature","properties":{"id":"1211422","name":"Rua Da Biblioteca","ref":"R. Do Anfiteatro Ref.: Rua Da Biblioteca -- Oposto À Biblioteca Mindlin","lines":"8085-10","shelter":true,"acc":"u"},"geometry":{"type":"Point","coordinates":[-46.723713,-23.561479]}},{"type":"Feature","properties":{"id":"1211423","name":"Estação Hidrogênio","ref":"Av. Prof. Almeida Prado, 3 Ref.: EpUSP-engenharia Civil","lines":"177H-10,7181-10,7411-10,8022-10,8082-10,8086-10,809U-10","acc":"u"},"geometry":{"type":"Point","coordinates":[-46.73239,-23.553469]}},{"type":"Feature","properties":{"id":"1211424","name":"Metalurgia","ref":"Av. Prof. Almeida Prado","lines":"701U-10,702U-10,8012-10,8082-10,8086-10","acc":"u"},"geometry":{"type":"Point","coordinates":[-46.731491,-23.552224]}},{"type":"Feature","properties":{"id":"1211425","name":"Farmácia E Química II","ref":"Av. Prof. Lineu Prestes, 749 Ref.: Rua Jorge Americano","lines":"701U-10,702U-10,7725-10,8022-10,8083-10","shelter":true,"acc":"u"},"geometry":{"type":"Point","coordinates":[-46.725313,-23.565906]}},{"type":"Feature","properties":{"id":"1211426","name":"Matemática E Estatística","ref":"Tr. Do Matão Ref.: Av. Prof. Luciano Gualberto/rua Do Matão","lines":"701U-10,702U-10","acc":"u"},"geometry":{"type":"Point","coordinates":[-46.732653,-23.559089]}},{"type":"Feature","properties":{"id":"1211429","name":"R. Alvarenga, 1676","ref":"Ref.: R. Moura Brasil","lines":"177H-10,701U-10,702U-10,7411-10,8012-10,8022-10,8082-10,8083-10,8084-10","acc":"u"},"geometry":{"type":"Point","coordinates":[-46.711669,-23.567183]}},{"type":"Feature","properties":{"id":"6811370","name":"R. Prof. Orlando Marques Paiva","ref":"R. Prof. Orlando Marques Paiva Ref.: Term. USP - Portaria 3","lines":"8022-10,8083-10","shelter":true,"acc":"u"},"geometry":{"type":"Point","coordinates":[-46.740206,-23.568005]}}]}